disasterNumber,applicantId,state,applicantName,addressLine1,addressLine2,city,zipCode,hash,lastRefresh,id
1763,000-UOE95-08,Iowa,IA DNR/WILD LIFE BUREAU,"260 MULBERRY,    SUITE 3",,WAPELLO,52653-0000,17720179b7df71fceb4d088fe74ba26733da91be,2025-07-20T15:03:00.489Z,42c01b88-17c1-428d-9003-1e53dd31b34d
1545,000-UR06H-00,Florida,"TRI-COUNTY ELECTRIC COOPERATIVE, INC.",2862 W US 90,,MADISON,32340-0000,95fa1a25838b6c70853eeb49d299c0b4fa8d141b,2025-07-20T15:03:00.489Z,8d7d91fb-72bd-417d-b739-6ff5787afca8
1561,001-25175-00,Florida,"GAINESVILLE, CITY OF",200 EAST UNIVERSITY AVENUE,,GAINESVILLE,32602-0000,9218414e4ba9c1cde64823259f30c43697c9bab2,2025-07-20T15:03:00.489Z,286ce635-30d2-4ab9-88b6-3cdf1fca6a32
4238,171-42842-00,Missouri,LINCOLN (TOWNSHIP OF),36602 Cottonwood Trl.,,Unionville,63565-0000,093487e60b9de2087414d077dd29425e006c0e08,2025-07-20T15:03:00.489Z,3c491b0c-40d6-4f0a-af32-ccf3efa357c7
1971,055-U5CX0-00,Alabama,SOUTHSIDE WATER WORKS & SEWER BOARD,3001 Hwy 77,,Southside,35907-0000,6dd910f466561ab1f7dd333bf8f7dc19da746470,2025-07-20T15:03:00.489Z,fff78046-4433-4fcd-80a0-64f7829d1948
4021,037-99037-00,New Jersey,SUSSEX (COUNTY),39 High Street,,Sussex,07860-0000,833e7344275c16bd0d859641b3dec9c1ea65661e,2025-07-20T15:03:00.489Z,d1425176-becb-4419-b13e-8e6a4e8ef4a1
4238,213-07966-00,Missouri,BRANSON,"110 W Maddux, Suite 200",,Branson,65616-0000,ac7bbe4b2a64c0f61d9207857c1f43511e71ff25,2025-07-20T15:03:00.489Z,900c93eb-8785-4dc4-ab72-12c92be8b311
4021,007-45510-00,New Jersey,MERCHANTVILLE,1 W. Maple Avenue,,Merchantville,08109-0000,3d1908df1e57b4ab92ede808054027be7e625513,2025-07-20T15:03:00.489Z,ecd53432-b94b-4247-8c79-bc280f240796
4174,121-56540-00,Arkansas,POCAHONTAS,410 North Marr Street,,Pocahontas,72455-0000,89e43f9363f264c29218168f7d9f4cbabcb5a846,2025-07-20T15:03:00.489Z,ded5be17-dc34-4793-b61d-5298ed92d6f1
4236,101-00B3E-00,West Virginia,WEBSTER SPRINGS PUBLIC DIST,38 Clean Water Lane,,Webster Springs,26288-0000,bbded4c626f3806601dceda9f20f0e8745fc4b83,2025-07-20T15:03:00.489Z,8d6678ac-7fa7-437e-82b1-245a21f450f3
4021,037-69690-00,New Jersey,SPARTA (TOWNSHIP OF),65 Main Street,,Sparta,07871-0000,9a47503a1e92bb32c6a5df832da9e8c4e79e295a,2025-07-20T15:03:00.489Z,1b44ef80-8725-4fd2-b097-1ba59a0453ab
4028,005-49970-00,Massachusetts,NORTON (TOWN OF),70 East Main Street,,Norton,02766-0000,1b7c92594f7ec597a9fa54d4c8c574c0034d3226,2025-07-20T15:03:00.489Z,c9264490-f375-4d2f-ac8b-ebfdb7cf897d
4021,023-UEWNP-00,New Jersey,GREATER BRUNSWICK CHARTER SCHOOL,429 Joyce Kilmer Avenue,,New Brunswick,08901-0000,4f5719eb035a881183e1287eb449155a552b7e8a,2025-07-20T15:03:00.489Z,7f1c4719-1d19-4fa2-a0b3-4688e8b5d23e
4021,005-68610-00,New Jersey,SOUTHAMPTON (TOWNSHIP OF),5 Retreat Road,,Southampton,08088-0000,89bbb0a9bb359ddc7218125e74f10cc4db9c1a9c,2025-07-20T15:03:00.489Z,4cdbbef4-ace3-4c0b-a2f9-e29adda4322f
1561,049-04302-00,Florida,HARDEE COUNTY SHERIFF,900 EAST SUMMIT STREET,,Wauchula,33873-0000,71c8192ee5cb8aed6604d6b5f88fcb99b1b143dd,2025-07-20T15:03:00.489Z,0825b0bf-d1e6-415f-998a-3a62cf0808e7
4304,025-02675-00,Kansas,ASHLAND,703 Main Street,,Ashland,67831-0000,f1c42edb5194c55596e6b5abb4ed8ebc65a84249,2025-07-20T15:03:00.489Z,5bbbe67d-5c0a-43df-827b-cf61458de467
1763,033-U1LIS-00,Iowa,MERCY MEDICAL CENTER NORTH IOWA,1000 4TH STREET SOUTHWEST,,MASON CITY ,50401-0000,8af6fe8783d7c73a71156a87c0cf05d5e9fb42b6,2025-07-20T15:03:00.489Z,f9b6581a-c634-4280-9af2-c656264906d0
1650,095-61588-00,New York,"RICHMONDVILLE, VILLAGE OF",295  MAIN ST,,RICHMONDVILLE,12149-0000,e21cde98d6beb07b2edda5578ae6ecc814c12350,2025-07-20T15:03:00.489Z,74d7d63d-bfff-4b53-a7e0-c3e2f8495711
1545,086-03275-00,Florida,"BAL HARBOUR, VILLAGE OF",655 NINETY-SIXTH STREET,,BAL HARBOUR,33154-0000,a8c2b09affe36cf2705877ce60d583f3335fe1ae,2025-07-20T15:03:00.489Z,d315304b-2a59-457e-9071-2c0642a40bbb
4021,015-59070-00,New Jersey,PITMAN,110 South Broadway,,Pitman,08071-0000,81eb7b7aa0adad755ca9938416c044a3b85934c4,2025-07-20T15:03:00.489Z,d1c637c5-b716-43ba-b8c7-bd6fc2d5e255
4021,027-U53PM-00,New Jersey,BUDD LAKE FIRE DEPARTMENT #1,378 Route 46,,Morris,07824-0000,3428f089e5be9db046b1496651f78a017621dd37,2025-07-20T15:03:00.489Z,2356d8a4-5674-4ea9-9546-304a9a171014
4304,000-U2X15-00,Kansas,"MIDWEST ENERGY, INC.",1330 Canterbury,,Hays,67601-0000,8c300d48d47961a954392779da98bb3ca6b0e1aa,2025-07-20T15:03:00.489Z,12381c81-78a3-43b4-9b41-d8a3a6315d7a
4022,017-UX2VR-00,Vermont,ORANGE COUNTY SHERIFF DEPARTMENT,11 VT RTE 113,,Chelsea,05038-0000,b5139c4c35a8e8e72f838a9889978d2ab82de281,2025-07-20T15:03:00.489Z,07a0fb70-a326-48b9-9526-4d26cd2c318b
4028,023-09000-00,Massachusetts,BROCKTON,940 Belmont Street,,Brockton,02301-0000,37bdbeb9c7a2af119f021ef291003c71c04b0450,2025-07-20T15:03:00.489Z,9f46a0c5-8cd5-4424-b8b4-1c68d69738aa
1967,003-UZ6XE-00,Hawaii,HONOLULU CUSTOMER SERVICES DEPARTMENT,550 South King Street,,Honolulu,96813-0000,853c5621fe845b9e34fdfb5deb4f10ea76fabef0,2025-07-20T15:03:00.489Z,48c5d4ea-a613-427f-abdf-5bfe38303e72
4022,027-00A8C-00,Vermont,CHESTER ANDOVER ELEMENTARY SCH,72 Main Street,,Chester,05143-0000,68e7924a00c233252b9852fc1fbef2434b20d4a5,2025-07-20T15:03:00.489Z,ef6a1370-44f2-40c8-a774-650900c27c08
4028,003-04543-00,Massachusetts,DALTON FIRE DISTRICT,20 Flansburg Ave.,,Dalton,01226-0000,ac31917e703227e4a8e085ce1b589b83381dda92,2025-07-20T15:03:00.489Z,add60b40-acda-430a-a924-bd9703611288
4021,031-76730-00,New Jersey,WANAQUE (WANAQUE-MIDVALE),579 Ringwood Avenue,,Wanaque,07465-0000,576c2d5f5a4483dc0d70c2f9fd9118f464282f0a,2025-07-20T15:03:00.489Z,dec632cc-6b34-4863-84af-8563f7c21d6d
4021,003-63360-00,New Jersey,RIVER EDGE (RIVERSIDE),705 Kinderkamack Road,,River Edge,07661-0000,b35b44dc0545e361482d3502342ce468f7924401,2025-07-20T15:03:00.489Z,33d3c559-ea85-420e-983d-02e9c8858daa
4021,019-06FC6-00,New Jersey,STOCKTON FIRE DEPT,9 Mill Street,,Stockton,08559-0000,c7e6c6ceea7fa44962f2e97a56516ba93efd1ac3,2025-07-20T15:03:00.489Z,d4852b1e-2562-4cb5-ba94-313d2b1cb15d
4021,035-07720-00,New Jersey,BRIDGEWATER (TOWNSHIP OF),100 Commons Way,,"Bridgewater , Township of",08807-0000,e1798da916de7c3bd98bfbfb42514a6ddd8aac37,2025-07-20T15:03:00.489Z,441bed5a-e276-4c88-9934-ffb3dbf69c26
4026,019-12900-00,New Hampshire,CLAREMONT,100 Broad St,,Claremont,03743-0000,5750e58e0a540d402513e0c9593d86644f79b726,2025-07-20T15:03:00.489Z,d206ec33-1cb8-423a-83be-644a7972f9f9
4031,007-U1796-00,New York,PROSPECT TERRACE FIRE COMPANY,382 Prospect Street,,Binghamton,13905-1810,5b8a8d3ecfc75856c41360846c9f2e73c06d3595,2025-07-20T15:03:00.489Z,11e961c5-d068-4a16-a4de-e99a8d22b443
4261,003-01FAC-00,Maryland,ANNE ARUNDEL CENTRAL SVC DEPT,2660 Riva Road,,Annapolis,21401-0000,61f0b0c31269058f4f307e7ff340d347470cf9cf,2025-07-20T15:03:00.489Z,65c28c28-74a4-4995-a322-644a210f7b72
4250,215-36170-00,Missouri,JACKSON (TOWNSHIP OF),P O Box 147,,Raymondville,65555-0000,44a6f8721e0aa33da67467c2659b82443bdd0689,2025-07-20T15:03:00.489Z,f1fdc624-06b3-4f54-921c-0f308479ff02
4264,013-U5LI2-00,New Jersey,JOB HAINES HOME,250Bloomfield Avenue,,Bloomfield,07003-0000,b4e4d06bd747a3f02a3b738b2cc68dc432e3c29b,2025-07-20T15:03:00.489Z,e957927d-8304-4657-9039-d21d0a44ee4f
4264,003-01090-00,New Jersey,ALPINE,100 Church Street,,Alpine,07620-1000,c582557ec1302453ce3d6b913d731cad4ffb7e1e,2025-07-20T15:03:00.489Z,8204d997-ed5c-48d0-a271-c0d639375f49
4261,000-UT7H6-00,Maryland,UNIVERSITY OF MD - BALTIMORE COUNTY,1000 Hilltop Circle,,Baltimore,21250-0000,95bef6275540b78a7da572e39658d2e65c9cdc54,2025-07-20T15:03:00.489Z,19f3b0dc-c884-4fe7-bb5a-543d78c89856
4264,001-UVNJ8-00,New Jersey,ATLANTIC COUNTY UTILITIES AUTHORITY,1801 Absecon Blvd,,Atlantic City,08401-0000,1f42f219bd8575affbadaadaa382606bda99677b,2025-07-20T15:03:00.489Z,fd68c22a-9ae7-45d9-a693-dbcc714143d3
4230,019-11450-00,Kansas,CEDAR VALE (RR NAME CEDARVALE),702 Cedar,,Cedar Vale,67024-0000,a1988a2472809d2ce365fa21ee0e606f54068b2a,2025-07-20T15:03:00.489Z,988a7cab-4ff6-4f9e-8851-796960526d01
4274,000-UF69P-00,Oklahoma,"CKENERGY ELECTRIC COOPERATIVE, INC.",3 Miles West of Binger,,Binger,73009-0000,e0bd8f5209a18118a6aa7621be64e108437a5ece,2025-07-20T15:03:00.489Z,1919191e-4528-4207-a389-a70ce2475be0
4288,123-19850-00,Wisconsin,DE SOTO,115 S Houghton St,,De Soto,54624-0000,8a244e9ad266c750c0ac2129fb08bc8dbfaeb6af,2025-07-20T15:03:00.489Z,8e111c72-cdd0-464b-94fe-f3704dad797f
1539,071-06460-00,Florida,TICE FIRE PROTECTION AND RESCUE,5170 TICE ST,,FT MYERS,33905-0000,13d7d639b2ef2dd51b5edc4ce1bff878626d88b8,2025-07-20T15:03:00.489Z,9a1bd065-ae68-4113-8c80-4f7ce24a468b
1545,071-URLED-00,Florida,ALVA FIRE PROTECTION & RESCUE DISTRICT,2660 STYLES RD,,Alva,33920-0000,e2a8469168672512b7a9dde80043fa79fddca87e,2025-07-20T15:03:00.489Z,8ee1786a-b9b8-4b75-ab77-37e54f12008f
1763,000-UOE95-04,Iowa,IA DNR/WILD LIFE BUREAU,51 ESCORT LANE,,IOWA CITY,52240-0000,1521af66ef1b2f523f1268a4e6cc837f8ffb85ab,2025-07-20T15:03:00.489Z,c8261dd3-a1f5-4ca6-9df7-ec6679b4aac7
1763,000-UZ9TW-00,Iowa,LINN COUNTY RURAL ELECTRIC COOPERATIVE,5695 REC DR,,MARION,52302-0000,815bd00b6da5b40e4402e446aaeab2a05d962c99,2025-07-20T15:03:00.489Z,dec658ab-c764-473b-92f9-996b12cba531
1763,153-UDAU1-00,Iowa,POLK COUNTY CONSERVATION,11407 NORTH WEST JESTER PARK DRIVE,,GRANGER,50109-0000,f376ec58bee8e9b05973406adfa9406febbe5eb6,2025-07-20T15:03:00.489Z,96d81d0c-8c1a-4932-9947-e18bb8b00858
1946,149-99149-00,Puerto Rico,VILLALBA (MUNICIPIO),Munoz Rivera Street,,Villalba,00766-0000,afe9b0ac662896d82317faa7a1936c28d2d37d92,2025-07-20T15:03:00.489Z,feec2252-bd1a-4eec-b606-84ad2935dead
1967,001-02722-00,Hawaii,HAWAII COUNTY POLICE DEPT,349 Kapiolani Street,,Hilo,96720-0000,6608c6a09b290169117f35e67c10d7520a01c764,2025-07-20T15:03:00.489Z,ec159bf3-adaf-462d-952c-5921e09371a1
4069,001-11620-00,Minnesota,CLARK (TOWNSHIP OF),11717 422nd Street,,Tamarack,55787-0000,d35e5a8dffb961e01de9ddaff77b94434a6a35f2,2025-07-20T15:03:00.489Z,75fdbeda-34ba-4598-ad4d-87facea3f66d
4189,135-42720-00,Tennessee,LINDEN,216 E Main Street,,Linden,37096-0000,dc016ecd12e7b2fdd8d17b16ec2822f29d4a8376,2025-07-20T15:03:00.489Z,2ef143f7-4419-4283-abcf-306879f78b2b
4210,059-30772-00,West Virginia,GILBERT,5 Wharncliffe Avenue,,Gilbert,25621-0000,4f050e75faec592a2c2ac1d838affaa9d73f32de,2025-07-20T15:03:00.489Z,f12f978b-0e80-4806-b222-6049f244820a
4238,105-095E1-00,Missouri,LEBANON SPECIAL ROAD DISTRICT #1,1489 Kent Dr,,Lebanon,65536-0000,493e59e3e72fa37bbf04fb92922d1fce69fd4f5c,2025-07-20T15:03:00.489Z,f921ba98-0cef-4a9a-b812-4086ef6fe4e2
4155,103-UGLC4-00,South Dakota,HILL CITY FIRE PROTECTION/HILL CITY VOLUNTEER FD,359 E Main St,,Hill City,57745-0000,47cfd9d6c329f5f01b01e0e1aadb230970aa913b,2025-07-20T15:03:00.489Z,11fac78d-c505-474b-ad58-3c57d47a0989
4155,000-U1FQA-00,South Dakota,SOUTH DAKOTA HIGHWAY PATROL,118 W Capitol AVe,,Pierre,57501-0000,a60b55ce21a56f2492cc61a138efdb1767c09988,2025-07-20T15:03:00.489Z,3ed04630-aa6f-49ad-9028-a300543f4670
4155,103-UJUSY-00,South Dakota,PRESBYTERIAN RETIREMENT VILLAGE OF RAPID CITY,255 Texas Rd,,Rapid City,57701-0000,e3eda36a477851830a1079e38cdf34ab31c77641,2025-07-20T15:03:00.489Z,3c76d0ca-0f69-4215-81f9-d4994379fdc4
4167,081-34300-00,North Carolina,JAMESTOWN,301 East Main St,,Jamestown,27282-0000,c20c95cf4c1153a15bcd678cdddee1254c2a0350,2025-07-20T15:03:00.489Z,1ce36249-a694-4a75-8cb2-ee1771f2c259
4117,000-U13R2-00,Oklahoma,OKLAHOMA DEPARTMENT OF TRANSPORTATION,200 Northeast 21st Street,Room 2 - AG,Oklahoma,73105-0000,849965878cca927b2db56ffd1b381e20459b6edf,2025-07-20T15:03:00.489Z,e4707a95-f1d7-4068-ba65-066aaf750fb3
4211,071-000F8-00,Tennessee,TENNESSEE VALLEY ELECTRIC,590 Florence Road,,Savannah,38372-0000,9194228f0857b5db97e05cab9a0ef1e0b642e908,2025-07-20T15:03:00.489Z,f4f85bc1-de0f-44fb-8662-0d336b00eae4
1545,081-54250-00,Florida,"PALMETTO, CITY OF",516 8TH AVE W.,,PALMETTO,34220-0000,b466bb5dfbc86fcb02e6de9206f985e56d5b1b91,2025-07-20T15:03:00.489Z,678673f0-1e06-41ed-9107-e0f5ff542315
1763,061-22395-00,Iowa,"DUBUQUE, CITY OF",50 WEST 13TH STREET,,DUBUQUE,52001-0000,c526ef5fbf1dc8f68ea207fefc79df011b8af93b,2025-07-20T15:03:00.489Z,61eee70e-cf4f-45db-8390-082658f1b676
4230,073-44075-00,Kansas,MADISON (TOWNSHIP OF),360 Rd.,,Madison,66860-0000,932944ba49bbf03130f5ac96baa9045668e9f61e,2025-07-20T15:03:00.489Z,7588c1e7-2eac-4c72-b74c-85665a2a20e5
4230,047-71400-00,Kansas,TRENTON (TOWNSHIP OF),1785 20th Avenue,,Offerle,67563-0000,40ecec3ea92c7d9b2a05d8872820038a053fb851,2025-07-20T15:03:00.489Z,a29963ed-702a-48aa-a6e0-1a23cd6d566c
4238,081-74662-00,Missouri,UNION (TOWNSHIP OF),19475 W. 180th St,,Eagleville,64442-0000,d1d572b8156994289d61eaaad5e20243b3e3fa7d,2025-07-20T15:03:00.489Z,7e9f213d-a1d8-4441-9eb7-f4a6ab166dee
4238,081-42752-00,Missouri,LINCOLN (TOWNSHIP OF),10628 W State Hwy 46,,Grant City,64456-0000,7ed92466de7e01715bf9cd270031912b806da8e8,2025-07-20T15:03:00.489Z,1fbb4610-e704-48e4-bd37-6f399cb7364e
4230,015-74900-00,Kansas,WALNUT (TOWNSHIP OF),5175 SW 157th Terr,,Douglass,67039-0000,f149d845a5f0b32b2ab00de500b3be2bef0b8f72,2025-07-20T15:03:00.489Z,fb318376-ff77-45bd-9d49-aba4f8329d17
1818,103-55596-00,Kentucky,NEW CASTLE,37 East Cross Main Street,,New Castle,40050-0000,a26b5bc64b907b4732915a123f0427a9de12281d,2025-07-20T15:03:00.489Z,79681cbd-8076-4739-bb06-38210c0fc4af
4176,045-99045-00,Alabama,DALE (COUNTY),202 S Hwy 123,,Ozark,36360-0000,27e859aae1eca58beaeaa2af6a6500c5a68645b6,2025-07-20T15:03:00.489Z,0b681994-c867-40ec-ae33-9bcf6dbcf96c
4287,173-55075-00,Kansas,PAYNE (TOWNSHIP OF),12010 E. 69th St. N.,,Wichita,67226-0000,3e294aed2490b80f3e1cf282658f816b606f6f6e,2025-07-20T15:03:00.489Z,a924a86c-a669-41f1-971e-1762a697b1cf
1659,043-17960-00,New Mexico,"CORRALES, VILLAGE OF",4324 CORRALES ROAD,,CORRALES,87048-0000,dafab530dda2ec11ed61184ee243780bddf6d539,2025-07-20T15:03:00.489Z,b78b14f7-ee13-4cae-b91c-7fad42bae8a6
4089,009-00E73-00,Rhode Island,CHARIHO REGIONAL SCHOOL DIST,455A Switch Rd.,,Wood River Junction,02894-0000,90e72258308ed25b780e25caa28b1f7afcd175b1,2025-07-20T15:03:00.489Z,1a280ee0-ac21-48db-a649-72bb6e605c5f
1659,000-67380-00,New Mexico,PUEBLO OF SAN FELIPE,5 BLACK MESA LOOP,,SAN FELIPE PUEBLO,87001-0000,37326ec35409924b7570d7e0d974bd052c55925d,2025-07-20T15:03:00.489Z,5eb4ee20-2433-440a-acdc-601ef68907e4
4091,033-45900-00,Maryland,LAUREL,8103 Sandy Spring Road,,Laurel,20707-0000,0c44cd801f464b99bbcda7ed93d5302c235eb623,2025-07-20T15:03:00.489Z,2e029506-8e67-4222-8c59-01d0ac9fdfd6
4261,005-99005-11,Maryland,BALTIMORE (COUNTY),400 Washington Avenue,,Towson,21204-0000,dad43e932d0ae1e57e7eda5b4bf5266e8e2e0b57,2025-07-20T15:03:00.489Z,ec1299fe-4f45-463f-a26c-6d248ffd3b36
4264,025-36480-00,New Jersey,KEANSBURG,29 Church Street,,Keansburg,07734-0000,fe71077e3706ad32963f366348d907f8bb9e79c0,2025-07-20T15:03:00.489Z,5f0a4333-c144-43db-a416-cdb6b6231b7e
1539,057-UY4M7-00,Florida,SOUTH TAMPA HEALTH & REHAB CENTER,4610 S. MANHATTAN AVE,,TAMPA,33611-0000,81d819d97a50f881f6aae46bcabc8902fb54e555,2025-07-20T15:03:00.489Z,b7299460-3743-4b50-bd11-b3dbb895e376
1561,057-02CCA-00,Florida,CHILDREN'S HOME INC,10909 MEMORIAL HWY,,Tampa,33615-0000,407256ffb262703f8053eec71fd913cfde76855c,2025-07-20T15:03:00.489Z,7b706ce7-10d3-4fa9-b890-29ccad8e2219
1763,065-50610-00,Iowa,"MAYNARD, CITY OF",135 3RD STREET SOUTH,,MAYNARD,50655-0000,9949663d9ff5b643bd67a9876a03f49b43053e3e,2025-07-20T15:03:00.489Z,c7e93e7c-15f7-458a-8350-afddb520e894
1539,057-UHN8L-00,Florida,SOUTH FLORIDA BAPTIST HOSPITAL,301 N. ALEXANDER STREET,,PLANT CITY,33563-0000,4231912bc02c765e5e53a88d78e7af3bc9c2f23b,2025-07-20T15:03:00.489Z,1fd6ef93-2d62-453b-82da-ab6192534954
1650,007-38748-00,New York,"JOHNSON CITY, VILLAGE OF",243 MAIN STREET,,JOHNSON CITY,13790-0000,6279c2e154c0a3fac43d076f8f3ca56e466f3a84,2025-07-20T15:03:00.489Z,53f0b48c-0e7d-408c-bd4f-879d832e5938
1246,051-91030,Louisiana,JEFFERSON PARISH PUBLIC SCHOOL SYSTEM,"4600 RIVER ROAD, MARRERO, LA",,,70072,ce5aff63d897ae3e682ce31d50d9b45a2a25f8af,2025-07-20T15:03:00.489Z,79efb2e0-f6e4-46f9-aff5-ff8e450183bb
1247,085-90003,Puerto Rico,"ACADEMIA DE ENSE00F1ANZA MODERNA, INC",PO BOX 209 (198 RD KM 24 H 2),,,00771,3199b3bf867713b98761f843268c7abcbf37788d,2025-07-20T15:03:00.489Z,e821b21e-908a-43d2-8953-76b15383acc0
1246,051-91000,Louisiana,E. JEFFERSON LEVEE DIST.,"203 PLAUCHE CT. NARAHAW, LA",,,70123,dc1a9ec73666d00529f25bf9c6c7deb85753f3b8,2025-07-20T15:03:00.489Z,508f15b7-a098-4b3d-a430-4659368543c9
1246,051-91001,Louisiana,JEFFERSON PAR SHERRIFF OFFICE,"100 HUEY P. LONG AVE. GRETNA, LA.",,,70053,6e44fd00807cf8cefc71551e6d8cc5162f7fffe0,2025-07-20T15:03:00.489Z,12ab660a-e45f-4408-8d0f-662c8bc31ea9
4021,003-68970-00,New Jersey,SOUTH HACKENSACK (TOWNSHIP OF),227 Phillips Avenue,,South Hackensack,07606-0000,e476d035d772f5766df1b20eb04bbaa0be443599,2025-07-20T15:03:00.489Z,b606e581-eddd-40e7-b61c-e1b2cf9cb26d
4021,003-63000-00,New Jersey,RIDGEWOOD,131 N. Maple Avenue,,Ridgewood,07450-0000,c7d82b5fe6bc9fdec561f8a303994f608953fbf2,2025-07-20T15:03:00.489Z,8e09db79-0f5d-43d2-98a5-d319a5b19e90
4021,027-03B1F-00,New Jersey,HANOVER TWP BOARD OF EDUCATION,61 Highland Ave,,Whippany                   ,07981-0000,278b93c25294948de3b314eef90bcc45a7ea4df5,2025-07-20T15:03:00.489Z,ef6acfcf-7516-477e-b328-1b3adac17502
4021,013-U8SWV-00,New Jersey,BLOOMFIELD BOARD OF EDUCATION,155 Broad Street,,Bloomfield,07003-0000,15548df308552e74e4e9fb6664b69c7da1629fec,2025-07-20T15:03:00.489Z,f2bf95df-77cf-4812-9261-0bdbe0b62f55
1994,000-UODQT-00,Massachusetts,DEPARTMENT OF DEVELOPMENTAL SERVICES,500 Harrison Ave.,,Boston,02118-0000,a636536d36f53a79032d1e412c4db7851d664462,2025-07-20T15:03:00.489Z,07c3b546-78c7-496f-ab1f-d8eb1a619be2
4017,123-99123-00,Puerto Rico,SALINAS (MUNICIPIO),Santos P. Amadeo #30,,Salinas,00751-0000,d9c5ab31fb9bbd909822a560dde45d6174371a41,2025-07-20T15:03:00.489Z,86e3cdff-fa41-48fc-9e91-49edd3dce4f9
4031,015-99015-00,New York,CHEMUNG (COUNTY),203 Lake Street,,Elmira,14901-0000,099c65ff2864b54186dea69e0be5b628aae1135d,2025-07-20T15:03:00.489Z,9e51bbb2-89ac-4c1f-9be1-d4521397086b
4021,035-ULCTY-00,New Jersey,GREEN BROOK BOARD OF EDUCATION,132 Jefferson Avenue,,Green Brook,08812-0000,5f7e58ddce1ea29e0722108ef941d595152f578d,2025-07-20T15:03:00.489Z,5e1b0ec8-7515-4a77-80b5-bb58bb97b461
4021,000-UMMXC-00,New Jersey,UNIVERSITY OF MEDICINE AND DENTISTRY OF NJ,30 Bergen Street ADMC 304,,Newark,07101-1709,efe9b05f5118baef28e78fe8281ce571335225fe,2025-07-20T15:03:00.489Z,e996f6a8-034b-4347-bc6c-fddc5c06b73f
4021,037-51930-00,New Jersey,NEWTON,39 Trinity Street,,Newton,07860-0000,0285d872d3f447fd477652cbfcffb66180171321,2025-07-20T15:03:00.489Z,f05b3de0-df16-4f4b-97f7-93bb60df5619
4021,039-15640-00,New Jersey,CRANFORD (TOWNSHIP OF),8 Springfield Ave,,Cranford,07016-0000,907577bacd17eaeb406b2530b62a7aafe4ede110,2025-07-20T15:03:00.489Z,cbe9d4de-f4b4-4647-b37f-c0480674e585
4021,007-68340-00,New Jersey,SOMERDALE,105 Kennedy Blvd. ,,Somerdale,08083-0000,0b43072904096e60aeb009b892d6f00adc5ea9b7,2025-07-20T15:03:00.489Z,53ef7d48-fd96-4bff-9494-1e7bc7cacef6
4021,035-07180-00,New Jersey,BRANCHBURG (TOWNSHIP OF),1077 US Route 202 North,,Branchburg,08876-0000,2a9f7c57f8e770e0356ec296b1a70bdc36113d7f,2025-07-20T15:03:00.489Z,1a564cb8-69fa-4f09-9b40-3f0ab3bbba87
4021,009-UICT9-00,New Jersey,NASW FOUNDATION,500 Forrestal Rd ,,Rio Grande,08242-0000,d28f75ef0a64e765e844df7cd87af938e2544855,2025-07-20T15:03:00.489Z,14b623eb-f17c-4d04-b366-5006748da4aa
4031,071-29553-00,New York,GOSHEN (TOWN OF),41 Webster Avenue ,,Goshen,10924-0000,9a0e47fb932256de7ec25a077ac1b55b63bd49c5,2025-07-20T15:03:00.489Z,43b22c83-ad4b-46ed-8903-5c691dce216c
4250,073-99073-00,Missouri,GASCONADE (COUNTY),119 E First Street,,Hermann,65041-0000,573befa3d845e49d027e79ad7fdcb9fb89b73ff6,2025-07-20T15:03:00.489Z,d0b00b3c-1336-417e-bfa0-72127e795fc9
4250,009-99009-00,Missouri,BARRY (COUNTY),700 Main,Suite 2,Cassville,65625-0000,e86f718497a1b1c2944523236ff38022957d2977,2025-07-20T15:03:00.489Z,9fedf61a-e9d7-4e7b-89cf-3c49065883e1
4290,161-22598-00,Minnesota,FREEDOM (TOWNSHIP OF),28650 50TH ST,,JANESVILLE,56048-2407,fc82fd7089aec2767d40350105caed0002b8ef25,2025-07-20T15:03:00.489Z,3bbf7ef7-79c3-4119-a91b-dbad81d4d7d9
4264,035-U2HC3-00,New Jersey,WARREN TOWNSHIP SCHOOLS,213 Mt. Horeb Road,,Warren,07059-5628,1dd33beafbaf2f26d96fb5d93a4484d85cb3c8c8,2025-07-20T15:03:00.489Z,2832b361-1184-4755-be3d-611674873cd7
4216,073-99073-00,Kentucky,FRANKLIN (COUNTY),321 West Main Street,,Frankfort,40601-0000,bad375edb31d91b10a2f5acab944313e9a1cab42,2025-07-20T15:03:00.489Z,9cefa36e-206c-4109-8dac-231b4ae58fad
4211,059-30980-00,Tennessee,GREENEVILLE,200 North College Street,,Greeneville,37745-0000,2ab816e28d79ee6ec0734a6eedba669ac75fdb7b,2025-07-20T15:03:00.489Z,6fc44118-2e2b-4f41-88e8-e08bb1748c7f
4264,007-10000-00,New Jersey,CAMDEN,520 Market Street City Hall 4th Floor,,Camden,08101-0000,9be2881802a6c86e2ab731025b6c217349e4d1c7,2025-07-20T15:03:00.489Z,1b227705-1eb6-4012-bd5f-3d474c52a72a
4211,123-08026-00,Tennessee,SWEETWATER UTILITIES BOARD,101 S. Oak St.,,Sweetwater,37874-0000,56bdaf3c00b11bafb52212be11ea0e07b3e89fe1,2025-07-20T15:03:00.489Z,23359742-e78c-4ac6-b737-c773faa07a9c
4261,043-99043-04,Maryland,WASHINGTON (COUNTY),500 Western Maryland Parkway,,Hagerstown,21740-5199,b094df7a7afe311702396a22b153e335a1bc45f2,2025-07-20T15:03:00.489Z,04ca244c-98a9-4638-92ec-c79df50d5728
4264,000-U0MTJ-00,New Jersey,DELAWARE RIVER PORT AUTHORITY,2 Riverside Drive,,Camden,08101-1949,9fd953c6b23375acd23ae41fa16a6d2fe66a572f,2025-07-20T15:03:00.489Z,83e4ea28-9188-4cda-8e71-49d8e5b8ebe2
4216,225-74316-00,Kentucky,STURGIS,106 W.6th Street,,Sturgis,42459-0000,80db3b66d5e2cf3650df83b58a48598d79706681,2025-07-20T15:03:00.489Z,02fbe758-4f7c-4522-ad8c-b49d0d9a873a
4230,085-99085-00,Kansas,JACKSON (COUNTY),400 New York St,,Holton,66436-0000,97a6b8258ff425eb3f9c94ee82585430b834a6fe,2025-07-20T15:03:00.489Z,38fe2919-b342-4e2a-aaa1-b91d70da4e5b
4238,041-38504-00,Missouri,KEYTESVILLE (TOWNSHIP OF),202 N John F. Kennedy Ave.,,Keytesville,65261-0000,9be29a1f4f62a7f1b7c6d12ffda1792863209dff,2025-07-20T15:03:00.489Z,ea526798-dd65-43ac-a17a-e60a99a809f8
1763,067-UT85A-00,Iowa,FLOYD COUNTY SECONDARY ROADS,600 18TH STREET,,CHARLES CITY,50616-0000,0be969d67ed1b87e466a86dd138f55c72a5dbc10,2025-07-20T15:03:00.489Z,e957ea62-231f-43c7-b94b-b5e617469117
4089,009-U4U5C-00,Rhode Island,SHELTER HARBOR FIRE DISTRICT,88 Donizetti Rd.,,Westerly,02891-0000,99913950dd0eeab48c5a41ed73c1c04a02d89a09,2025-07-20T15:03:00.489Z,cde13ddc-0795-4b2c-a2d7-2b309b937872
1650,017-04033-00,New York,"BAINBRIDGE, VILLAGE OF",33 WEST MAIN ST,,BAINBRIDGE,13733-0000,bfa03f1616e20177c5536d51dd246bb2b10d1ba6,2025-07-20T15:03:00.489Z,3c680c31-f171-4fdb-96f4-4e84368924a8
1763,017-U88FP-00,Iowa,COMMUNITY BASED SERVICES,117 1ST AVENUE NORTH EAST,,WAVERLY,50677-0000,1ea7d08a90fe769c837777e5a44f1fa712a0b465,2025-07-20T15:03:00.489Z,8d62e2e6-eccb-484d-8e6e-51feacfe16ff
4021,029-34680-00,New Jersey,JACKSON (TOWNSHIP OF),95 West Veterans Highway,,Jackson,08527-0000,19c5a598ef7f56bfa01c08bc3932da6b7f587c0b,2025-07-20T15:03:00.489Z,03a8a4a6-4453-42be-acbe-109a5e06c079
1976,223-52590-00,Kentucky,MILTON,10179 Hwy 421 N,,Milton,40045-0000,513fec7ec3484f4b4042df799b26e6e14a525555,2025-07-20T15:03:00.489Z,12ed378d-6732-4607-a993-7a06ea8494ba
1971,093-UBC8H-00,Alabama,MARION COUNTY PUBLIC WATER AUTHORITY,130 Industrial Drive,,Hamilton,35570-0000,6184bdb0f929b46837fc71bb081c3158177cf176,2025-07-20T15:03:00.489Z,5c53d27c-188f-4681-b889-2c272e5e9326
1818,075-00F9B-00,Kentucky,FULTON ELECTRIC SYSTEM,501 Walnut Streeet,,Fulton,42041-0000,9abe0a4c5e69c73d688701caa1b1266657d30ae2,2025-07-20T15:03:00.489Z,16f8e062-9ae1-41c0-9dd8-f5f1c7643cff
1979,157-U4TFH-00,Tennessee,MEMPHIS-SHELBY COUNTY AIRPORT AUTHORITY,2491 Winchester Road,Suite 113,Memphis,38116-0000,9fe8f45f56ac3ae6706a6251e8e3fe3ae020afd4,2025-07-20T15:03:00.489Z,cf1ec1dd-9d3b-4005-ae73-ca3e053710f1
1818,111-05068-00,Kentucky,BEECHWOOD VILLAGE,Shelbyville Road Plaza,,Louisville,40207-0000,647f0ccc875baf3b4026976d1c705a1a1ac97908,2025-07-20T15:03:00.489Z,129c9331-e289-4bb3-987e-733f5e8813f6
4211,001-99001-00,Tennessee,ANDERSON (COUNTY),111 S. Charles G. seviers Blvd,,Clinton,37716-0000,c17b722eaefcf27c1d55e60c688a1c5ed15200f0,2025-07-20T15:03:00.489Z,706aa33e-fbe6-44ab-9d1e-13f2cb6ba1d1
4211,175-99175-00,Tennessee,VAN BUREN (COUNTY),455 College Street,,Spencer,38585-0000,4e3bd89fcae1012c2292c4e3787ab834b741bb03,2025-07-20T15:03:00.489Z,d6828af2-b452-4f4f-ab33-19683c68648d
4029,471-99471-00,Texas,WALKER (COUNTY),1301 Sam Houston Avenue,,Huntsville,77340-0000,dc2cdc312a5be6ce8b22eaf3d90cf488661cbc78,2025-07-20T15:03:00.489Z,010bf2be-f186-4923-b53a-eceeff403840
4091,029-UZ4S5-00,Maryland,KENT COUNTY DPW - ROADS DIVISION,"709 Morgnec Road, Suite 103 ",,Chestertown ,21620-0000,9f96e7cf9b6ded3d845fd03372f340a9bf501280,2025-07-20T15:03:00.489Z,850b0a5c-61c6-402f-83c3-456fe2f314ed
1545,099-07912-00,Florida,PALM BEACH COMMUNITY COLLEGE,4200 CONGRESS,,LAKE WORTH,33461-0000,4692389137d031a431c18cfdb0d2b2dabffdc845,2025-07-20T15:03:00.489Z,8f49259c-839c-4331-a56f-fba3f224f4f1
4091,033-0998E-00,Maryland,PRINCE GEORGES COMMUNITY CLG,301 Largo Road ,,Largo ,20774-0000,b3810275c4d592479bb8e6ec9781e7681a5e69bb,2025-07-20T15:03:00.489Z,674e292a-cef1-4f4d-9699-457e46a666d4
1807,000-U8TG9-01,Virgin Islands of the U.S.,V.I. TERRITORIAL EMERGENCY MANAGEMENT AGENCY,"#2C CONTANT, AQ BUILDING",,CHARLOTTE AMALIE,00802-0000,b799675478fe95dfbdce43115055d214b478a4aa,2025-07-20T15:03:00.489Z,0476c1c8-4aa5-4c25-9772-dbe5f3386fa5
1539,019-52125-00,Florida,"ORANGE PARK, TOWN OF",700 ASH ST,,ORANGE PARK,32073-0000,659a6916eb704622c68d1cc2c0cc75919bcd0222,2025-07-20T15:03:00.489Z,6bef671c-066a-4fea-9a33-62bdde73a02c
1763,011-UD4M6-00,Iowa,"KEYSTONE, CITY OF",208 1ST STREET,,KEYSTONE,52249-0000,bba07eab03872e93f220420b8fe795c83cb999f0,2025-07-20T15:03:00.489Z,9d17cd3b-f6d7-48d0-a700-07f0e8510f41
1545,011-UU77Y-00,Florida,ST JOHNS REHAB. HOSPITAL & NURSING CENTER,3075 N.W. 35TH AVENUE,,LAUDERDALE LAKES,33311-0000,9dcc8ae40cf00bdbeece3028038636ee3d08cb56,2025-07-20T15:03:00.489Z,2bf0afe1-d53b-4f87-9d48-c9f4aa830698
4292,081-45224-00,Pennsylvania,LOYALSOCK (TOWNSHIP OF),2501 East Third Street,,Williamsport,17701-0000,03afa1bcfad607e0e2c19d3e3b7668dd4c4432b7,2025-07-20T15:03:00.489Z,2b8a2ca8-5b35-43a6-8d0c-7ea524773efb
4091,045-UM3LP-00,Maryland,FRUITLAND VOLUNTEER FIRE DEPARTMENT,104 East Main Street,,Fruitland,21826-0000,91ee138d153ff129aafb473ac6f764eb7ca5537c,2025-07-20T15:03:00.489Z,2fc5dbc4-5737-40e7-a7ea-f178bb7b110f
4031,077-54881-00,New York,ONEONTA,258 Main Street,,Onemta,13820-0000,a5ff2548a3a0ca2b3c62208a2117331bcf76a27c,2025-07-20T15:03:00.489Z,4f6185df-99cc-4bb1-853d-2dbf45895d57
1976,000-U0014-00,Kentucky,KY DEPARTMENT OF TRANSPORTATION,200 Mero Street,"3rd Floor, Division of Maintenance",Frankfort,40622-0000,0609d0fff672d6d43dcee4b132fc37abeaada750,2025-07-20T15:03:00.489Z,4ccdf211-4774-45a8-99f6-79edbcef174a
4031,007-17EF6-00,New York,HARPURSVILLE FIRE DEPT,2 Main Street,,Harpursville,13787-0000,e167b0c958ac080b9124fa79593f58fa101367eb,2025-07-20T15:03:00.489Z,fae2e1b5-b6e2-4291-bda5-f9df4baa643b
4022,003-42850-00,Vermont,MANCHESTER (TOWN OF),6039 Main Street,,Manchester,05255-0000,9a120bab0627a183890fe5f071f26b11347302cd,2025-07-20T15:03:00.489Z,e055dee1-328a-480e-8806-e6393cf16be2
4028,021-54100-00,Massachusetts,PLAINVILLE (TOWN OF),142 South Street,,Plainville,02762-0000,0d265595f038db03bee67bfce2144ca6a9699679,2025-07-20T15:03:00.489Z,cf2bae34-07e7-4434-a642-3e2b4b69853b
1841,151-65226-00,Kentucky,RICHMOND,239 West Main Street,,Richmond,40475-0000,0ba20a01e4dad98a5f1a2f1b657e797d2f901b2a,2025-07-20T15:03:00.489Z,daf4016e-453a-4765-b625-e3cff05066ed
4160,033-99033-00,Arkansas,CRAWFORD (COUNTY),3703 Pointer Trail E.,,Van Buren,72956-0000,57a65e2ec907c14d45fcb520b4bfbd980d600947,2025-07-20T15:03:00.489Z,e970c607-5165-4c41-9d7c-528fa912eab1
1818,049-UHLB5-00,Kentucky,CLARK REGIONAL MEDICAL CENTER,1107 W. Lexington Ave,,Winchester,40391-0000,b6f2a3f0242e7d5f160acd2a695da7beb4582ea1,2025-07-20T15:03:00.489Z,39b31b86-cdf1-4e1a-b4c0-01abcbf3c4ba
4155,000-UCQJ5-00,South Dakota,"WEST CENTRAL ELECTRIC COOP., INC.",204 N Main St,,Murdo,57559-0017,0fc045b55a975155328155c235035cf9719d5a4f,2025-07-20T15:03:00.489Z,0337348e-fd11-445e-a861-ca9a8b7f6cfd
4028,003-16180-00,Massachusetts,DALTON (TOWN OF),462 Main St.,,Dalton,01226-0000,8cf75e9161cfa2524a4d4371782b2ac9ebc30dc4,2025-07-20T15:03:00.489Z,dd0dfc58-d258-4b9a-b85d-77f2e74b8e95
4167,059-99059-00,North Carolina,DAVIE (COUNTY),123 S. Main St,,Mocksville,27028-0000,3bebf1f7a9b9d17b96cc0e154667ee5ad5f22652,2025-07-20T15:03:00.489Z,8aae4600-28c7-4cbc-b1fd-32848120dab7
1974,157-99157-00,Tennessee,SHELBY (COUNTY),160 N Main,,Memphis,38103-0000,10235a2bb1e7a5ead34bde883c42cd1dbd06c089,2025-07-20T15:03:00.489Z,3bc07e61-9031-422f-8034-1afca53e60ff
1994,013-79740-00,Massachusetts,WILBRAHAM (TOWN OF),240 Springfield St.,,Wilbraham,01095-0000,d576725dc14b4e9b05d6c6e910cd0192cd5e58d6,2025-07-20T15:03:00.489Z,3a24f61b-5865-4f6c-9dc1-a5c5952b1dd7
4189,127-99127-00,Tennessee,MOORE (COUNTY),680 Bonneville Highway,,Lynchburg,37352-0000,fe4b565b8591b9d9f587a98e2eed7fddb894c48f,2025-07-20T15:03:00.489Z,e7532c05-a9bd-4912-a329-2edb308bff6c
4146,021-94094-00,North Carolina,WOODFIN (TOWN OF),90 ELK MOUNTAIN ROAD,,WOODFIN,28804-0000,55840bdf31ed8cb3bd58bfb00cd5a02dac9691d5,2025-07-20T15:03:00.489Z,6cf1b400-631d-44ca-855f-b7cb71bdd7aa
4107,000-UGUVP-00,Rhode Island,DEPARTMENT OF ENVIRONMENTAL MANAGEMENT,235 Promenade Street,,Providence,02908-0000,83de52edbf4072c1ce26f4b56fbbe3309e2cfef6,2025-07-20T15:03:00.489Z,bcf32c93-79c9-45d6-a2c6-24dd51b40c87
4167,000-UKWAX-00,North Carolina,GUILFORD TECHNICAL COMMUNITY COLLEGE,601 High Point Rd,,Jamestown,27282-0000,6eac9408b95f69e35836ad67200b8ab16bbbbd6d,2025-07-20T15:03:00.489Z,f041650b-ebfc-4107-9d6e-795982ffd9d5
4196,119-99119-00,Kentucky,KNOTT (COUNTY),40 Center Street,,Hindman,41822-0000,48409257f5a4cc326cae03f862e64c4fc31c3d18,2025-07-20T15:03:00.489Z,202a6a25-d2c1-4b24-9a4d-7285118c72d4
1561,099-26050-00,Florida,"GLEN RIDGE, TOWN OF",1501 GLEN ROAD,,GLEN RIDGE,33406-0000,95fbc3b64436f907ad22da330d9cb06c9b375f4e,2025-07-20T15:03:00.489Z,648c07b2-b6c4-4fce-abc5-9599a19f868c
4069,000-U4IM4-00,Minnesota,MEEKER COOPERATIVE LIGHT AND POWER ASSOC.,1725 US Highway 12 East,,Litchfield,55355-0000,65a90edb7d99382c42a630553b9566b5e962da32,2025-07-20T15:03:00.489Z,30319db1-fed1-4beb-adea-8a7c20c8e462
1818,000-UHB7V-00,Kentucky,CRITTENDEN-LIVINGSTON COUNTY WATER DISTRICT,620 East Main Street,,Salem,42078-0000,4b51851c252942664e272ca4a90c64be1a0ac606,2025-07-20T15:03:00.489Z,415b9a54-e62b-48eb-a539-d07388e04389
1545,000-UJEID-00,Florida,"SAFESPACE, INC",1845 17TH AVE,,VERO BEACH,32961-0000,c150a1fa46d00df61cacf627751cfb4963e57528,2025-07-20T15:03:00.489Z,00dd381a-4ca4-41b4-b0fb-dc98784f4f4f
1561,000-UTCF9-00,Florida,"WITHLACOOCHEE RIVER ELECTRIC COOPERATIVE, INC.",19491 21ST ST,,DADE CITY,33525-0000,fbfda04877bb0dc67aaf7895c4364508387a0f1b,2025-07-20T15:03:00.489Z,8fe7b847-0e6e-4350-907a-bfcd3eaf19d6
1539,000-U59IF-00,Florida,"THE CENTER FOR DRUG FREE LIVING, INC.",205 SOUTH EOLA DRIVE,,ORLANDO,32801-0000,d8d20334aed818ae860010304454455f5c486f79,2025-07-20T15:03:00.489Z,54b48f66-d692-4701-be09-2f86461315ed
4251,099-034A1-00,Alabama,MONROE COUNTY SCHOOL SUPT,"65 Alabama Ave Room 127, Monroe Co. Court House",,Monroeville,36460-0000,2997a1442edcc32b0a2c153d4dcb2dcb92204217,2025-07-20T15:03:00.489Z,6235d2ff-713d-4552-b218-fea367464dc8
1659,051-UCDHB-00,New Mexico,LOWER LAS ANIMAS CREEK DITCH ASSOCIATION,P O BOX 18,,CABALLO,87931-0000,c8af9d3bbc24f1574345632de7f586a3bf763b00,2025-07-20T15:03:00.489Z,073eb96d-4b7b-4bd4-a99e-338bb9dd1794
1763,113-016FD-00,Iowa,AREA AMBULANCE  AUTHORITY,1030 MOUNT VERNON ROAD SE,,CEDAR RAPIDS,52403-0000,2ffd5e4cb3e95672134ee9c7e1a1f8b5a4b5b94c,2025-07-20T15:03:00.489Z,5ad0922e-b59d-4788-aff5-0527ba65113c
1539,071-10275-00,Florida,"CAPE CORAL, CITY OF",1015 CULTURAL PARK BLVD.,,CAPE CORAL,33990-0000,1decd24577ef7a6e717a05da892f0144944c9e4b,2025-07-20T15:03:00.489Z,c70dba6f-0abd-44d1-a730-b0f834851ca5
1539,073-70600-00,Florida,"TALLAHASSEE, CITY OF",300 SOUTH ADAMS ST,,TALLAHASSEE,32301-0000,e1daa2ca495cb9a4bbd448aacb83ba1cab8487be,2025-07-20T15:03:00.489Z,c51d15cf-64cd-42b0-b1ad-bb256efdeb66
1976,225-74316-00,Kentucky,STURGIS,106 West 6th Street ,,Sturgis ,42459-0000,3c3a2aeee2798092713971f5f6a7f869245f8e66,2025-07-20T15:03:00.489Z,b36d6fe2-b7f2-42e7-8b75-5a9162097ec6
1763,061-66810-00,Iowa,RICKARDSVILLE,20494 SAINT JOSEPHS DRIVE,,RICKARDSVILLE,52039-0000,106c905a5e8f167894f3e1ec48734db235fed8ee,2025-07-20T15:03:00.489Z,5cff08a3-7a00-4664-a7f6-6064e025ff44
1650,017-08AAF-00,New York,PRESTON FIRE DISTRICT,124 CR 19,,OXFORD,13830-0000,e704df1bb02627b2a10d321a494446720775b0f9,2025-07-20T15:03:00.489Z,b75245bb-475d-4f64-9394-c0eba01ac2bf
1545,121-UTHPN-00,Florida,SUWANNEE COUNTY SHERIFF'S OFFICE,200 S. OHIO AVENUE,,LIVE OAK,32064-0000,f09b52069fbbb99fcb4b69f8655442428a4fef4e,2025-07-20T15:03:00.489Z,9a8c156b-111c-4486-9784-329a7d5a9966
1602,086-56625-00,Florida,"PINECREST, VILLAGE OF",12645 PINECREST PKWY,,PINECREST,33156-0000,22e48fd7bb718529bb3d513a99d933f76a56245a,2025-07-20T15:03:00.489Z,31dd13d8-3cc8-4c5a-9dd9-a5cd7139f8f6
1650,105-UBY0D-00,New York,BEAVERKILL VALLEY FIRE CO.,1524 BEAVERKILL ROAD,,LEW BEACH,12758-0000,121de4f80e3f80fd7cf10f6ca7b68684df5e7450,2025-07-20T15:03:00.489Z,e1b1187e-d903-4874-8722-742a95c2f20e
1763,000-UX9OV-00,Iowa,IOWA LAKES ELECTRIC COOPERATIVE,702 SOUTH 1ST STREET,,ESTHERVILLE,51334-0000,8bc31a5d263f9e5b073a2a745e0fcd9951e2ce52,2025-07-20T15:03:00.489Z,a483cd4f-3176-47ac-a0b2-5194cead7e9b
4304,185-U0C7L-00,Kansas,STAFFORD COUNTY ROAD DEPARTMENT,209 N. Broadway,,St. John,67576-0000,73acab121e811a1c2f5eb2f7005410242a125a9c,2025-07-20T15:03:00.489Z,29c4d1fc-af35-4478-82b1-63bfc5a840e1
4102,063-99063-00,Louisiana,LIVINGSTON (PARISH),20355 Government Blvd,,Livingston,70754-0000,fdeea3e7c726541128ff296b0847cd08083df0cc,2025-07-20T15:03:00.489Z,f17d674c-9d21-4643-86a2-e00844c5b846
1976,089-33004-00,Kentucky,GREENUP,1005 Walnut St.,,Greenup,41144-0000,ffaaabadf71a538293f6f002d6cfb2d3ab508934,2025-07-20T15:03:00.489Z,67c647ca-7a27-4016-80ad-ec2b34dedb24
1818,000-U19QZ-00,Kentucky,WEST KENTUCKY RURAL TELEPHONE COOPERATIVE,237 North 8th Street,,Mayfield,42066-0000,cd33008aa1c234f77d32d4825959eb58778ef68d,2025-07-20T15:03:00.489Z,860eea1d-4700-4bc4-8a9b-4ee4284fe822
4143,009-18850-00,Arkansas,DIAMOND CITY,232 Grand Avenue,,Diamond City ,72644-0000,bf9011be9940015beb2935a9605f68c109330f65,2025-07-20T15:03:00.489Z,478ba092-b0d0-4fbf-8cb4-f07c8bc906a9
4031,025-78036-00,New York,WALTON,21 North Street,,Walton,13856-0000,d7c0d47493843d427e58d468ccff6aaf1f787413,2025-07-20T15:03:00.489Z,41a445d8-75f8-42ff-912b-4813454b4aaa
4107,009-67460-00,Rhode Island,SOUTH KINGSTOWN (TOWN OF),180 High Street,,Wakefield,02879-0000,d4866c05e11fea324fea844efd55849f3610b2ef,2025-07-20T15:03:00.489Z,ace68c1b-9ea4-4e10-8e75-0f4338cbad14
4211,145-99145-00,Tennessee,ROANE (COUNTY),220 North Third Street,,Kingston,37763-0000,ce22fdeb77166f963d1655afce409dc5adfaa12a,2025-07-20T15:03:00.489Z,9b4c4dc0-8219-4442-873d-e1f9cc693832
4069,115-63220-00,Minnesota,STURGEON LAKE,3084 Farm to Market Road ,,Sturgeon Lake,55783-0000,a6a252c4cdce891f106b4366dc2fca3bc77f48bd,2025-07-20T15:03:00.489Z,0577fc11-5d00-469a-9e27-4893be022fe0
4069,017-U3NAS-00,Minnesota,CLOQUET AREA FIRE DISTRICT,2801 Dewey Avenue,,Cloquet,55720-0000,048b5e0cc846b2a25db31f7ee97e99d1294edbf1,2025-07-20T15:03:00.489Z,57c3eaf6-456b-4e04-b911-608129c4d72c
1859,000-UNYQ8-00,American Samoa,HIGH COURT OF AMERICAN SAMOA,P O Box 309,,Pago Pago,96799-0000,e346b313c4f2ee4412fd672c6b65a4a9543db157,2025-07-20T15:03:00.489Z,7a486815-556d-4bfd-89c5-aa36714845bb
1971,107-UKL72-00,Alabama,REFORM HOUSING AUTHORITY,510 5th Court NW,,Reform,35481-0000,a081ea3ca8c039c9a4fb10e5d2dbfa72379d6060,2025-07-20T15:03:00.489Z,9c607d29-96a0-4b7a-a31e-f0d59d0aa945
4026,009-07700-00,New Hampshire,BRISTOL (TOWN OF),230 Lake Street,,Bristol,03222-0000,62d434bbe29cc7e8749e45670f6401c84ba64b8e,2025-07-20T15:03:00.489Z,ef892fcd-5776-458e-be7d-2847387ee3e7
1792,019-20575-00,Louisiana,DEQUINCY,300 N. Holly Street,,De Quincy,70633-0000,7c459e14a65963c9d042fa5105cc758241e23c85,2025-07-20T15:03:00.489Z,a2988e9d-d419-4e66-a3d5-cf0b9d62d522
4167,000-U2J38-00,North Carolina,NC EMERGENCY MANAGEMENT,1636 Gold Star Drive,,Raleigh,27607-3371,0475eb58c418d774d69111f1edf2e8f766ee501d,2025-07-20T15:03:00.489Z,d48eaeab-a9c6-414f-827c-0e17122c6389
4211,133-99133-00,Tennessee,OVERTON (COUNTY),317 East University Street,Suite #1,Livingston,38570-0000,4a4c20ee3059e6bd9e5ae1b271ad43ed1f511c70,2025-07-20T15:03:00.489Z,63e43723-e89b-4e42-b418-745a1017f834
4264,009-02320-00,New Jersey,AVALON,3100 Dune Drive,,Avalon,08202-0000,7faf5738c2c0eec3895757b4ff760c04a6b48051,2025-07-20T15:03:00.489Z,e123b8dd-fa97-4452-81e5-15aed1080278
4264,019-17170-00,New Jersey,DELAWARE (TOWNSHIP OF),816 Sergeantsville Road,,Stockton,08559-0000,f649d00b61639787f78442170570df91fbae0481,2025-07-20T15:03:00.489Z,a001a557-289a-468a-a082-d93c177190ff
4264,023-UGIOU-00,New Jersey,OLD BRIDGE BOARD OF EDUCATION,4207 Highway 516,,Matawan,07747-7026,45b8ec7576a85b52f9ac90e7e77a608768b168a1,2025-07-20T15:03:00.489Z,617a917a-b8f7-4c8b-9314-ad5f8383150c
4311,005-82620-00,Utah,WELLSVILLE,75 East Main,,Wellsville,84339-0000,8d019531f209b1ad31e15080c7236ec92b91e046,2025-07-20T15:03:00.489Z,dcd8e6af-ebc4-4499-9ccf-390e1da22fa5
1561,107-15375-00,Florida,"CRESCENT CITY, CITY OF",115 N. SUMMIT STREET,,CRESCENT CITY,32112-0000,5e5b1cee482621aadaa4f768112392405a5adf9a,2025-07-20T15:03:00.489Z,eff88490-f708-4d19-8d42-d70f4805d34b
1561,099-U34ED-00,Florida,PAHOKEE WATER CONTROL DISTRICT,2832 NORTH MAIN STREET,,BELLE GLADE,33430-0000,0a351bafa7dcff4c0b8d5bf94739d89242a668c7,2025-07-20T15:03:00.489Z,fd1ef625-088d-4230-bd11-e9419cf01ae9
1971,073-UFF0Q-00,Alabama,MCADORY AREA FIRE DISTRICT,6841 Pocahontas Road,,Bessemer,35022-0000,474062b90325d8e394be2fc27f1e3d7fe34acc19,2025-07-20T15:03:00.489Z,4cc4bd25-d9c6-4ae5-9491-a2eb636c45bb
4069,131-07714-00,Minnesota,BRIDGEWATER (TOWNSHIP OF),5873 145th Street East,,Northfield,55057-0000,9afbeb322983ab5c66d8c396015dabb960dd5f90,2025-07-20T15:03:00.489Z,4b1a4797-615c-4049-b4b3-8bbdc94771bb
1968,053-48872-00,California,MONTEREY,"735 Pacific Street, Suite A",,Monterey,95004-2818,4e2d9a029e08d8589d8b65ea748ff28cde79e1a5,2025-07-20T15:03:00.489Z,6d1f899f-0b16-4e34-887f-26d6c9bcca37
1976,117-79698-00,Kentucky,VILLA HILLS,720 Rogers Road,,Villa Hills,41017-0000,495de93dea493a338383e0494ef8e7ab182d438d,2025-07-20T15:03:00.489Z,992eefca-e3d7-4cb5-af77-1040aa23bf18
4091,025-37600-00,Maryland,HAVRE DE GRACE,711 Pennington Avenue,,Havre de Grace,21078-0000,99f63a78127b71af3376c83ea1419961e74487ed,2025-07-20T15:03:00.489Z,56bae1b8-12f3-4cbd-8b6f-8888e4e5a4ae
4143,007-66080-00,Arkansas,SPRINGDALE,201 Spring Street,,Springdale,72764-0000,b695c9db7002bbac1de695ffdde21766419fb2a0,2025-07-20T15:03:00.489Z,0c287924-aa68-47da-8cf8-4b83b2af13ec
4107,009-U4U5C-00,Rhode Island,SHELTER HARBOR FIRE DISTRICT,88 Donizetti Road,,Westerly,02891-0000,a830e935d8c395dd0d82a6de70c70480115fd439,2025-07-20T15:03:00.489Z,58194170-2f9b-4c68-b4e5-bc8b85a2249c
1841,085-99085-00,Kentucky,GRAYSON (COUNTY),104 W. Main Street,,Leitchfield,42754-0000,966e838c98681f83ad9c49e279926ead800de182,2025-07-20T15:03:00.489Z,aef1866a-c208-4cb6-943a-8a195bc1f999
1818,117-24778-00,Kentucky,ELSMERE,318 Garvey Avenue,,Elsmere,41018-0000,de5b1f08aabe7bbf3378769771125b57158862f2,2025-07-20T15:03:00.489Z,aefc2e2b-b98e-424b-b00e-6c9182be3cef
1561,009-00026-00,Florida,"FLORIDA INSTITUTE OF TECHNOLOGY, INC.",150 E UNIVERSITY BLVD,,Melbourne,32901-0000,2df684086cce701d302091726aa6e225dd472825,2025-07-20T15:03:00.489Z,0f1b5468-b354-472a-b774-bf2dbda98f01
1545,009-58475-00,Florida,PORT MALABAR,215 HOLIDAY PARK BLVD,,PALM BAY,32907-0000,99c1cf1fddcb2d4993ac00770f93f1ee0e153498,2025-07-20T15:03:00.489Z,bf177656-1a84-48e9-8758-40247882254b
1239,465-00065-00,Texas,VAL VERDE  REGIONAL  MEDICAL CENTER,,,,-0000,cbfeb064112b44e904603969737ae9c7124f9cca,2025-07-20T15:03:00.489Z,711735e3-8328-4864-8120-9bcf944ddf78
1539,103-33675-00,Florida,"INDIAN SHORES, TOWN OF",19305 GULF BOULEVARD,,INDIAN SHORES,33785-0000,cff485b8b7bbeba8c93696b44f9614007e9c5996,2025-07-20T15:03:00.489Z,51d8d81a-6aba-4956-9abe-21ad08f1ddea
1650,107-06145-00,New York,BERKSHIRE (TOWN OF),12633 RT. 38,,BERKSHIRE,13736-0000,f9127c8f8d985fb31fccb83792fca61579eb2053,2025-07-20T15:03:00.489Z,3f19408c-bcf7-4f29-adad-d8e487e3f1b6
4091,019-U2H3P-00,Maryland,DORCHESTER CO. EMERGENCY MANAGEMENT,829 Fieldcrest Road,,Cambridge,21613-0000,b524f38e532e72b69038e7dfbe797a984b835288,2025-07-20T15:03:00.489Z,4530a555-866e-4a92-bde4-511dd700d911
4256,093-25100-00,Oklahoma,FAIRVIEW,203 E Central,,Fairview,73737-0000,f4f7ea6d5dfc2c690037e863b6891013fae70d4c,2025-07-20T15:03:00.489Z,a33d0f82-a722-4461-be0f-9e5b87d7c74c
4290,047-03934-00,Minnesota,BATH (TOWNSHIP OF),29737 762ND AVE,,CLARKS GROVE,56016-0000,9044b9dc5893b489b8ad152414bf1c0624b810db,2025-07-20T15:03:00.489Z,43bef8bf-1d8a-4de6-b8f3-9b3076bfb6ce
4290,055-09244-00,Minnesota,CALEDONIA (TOWNSHIP OF),14298 RUSTIC RD,,CALEDONIA,55921-8701,c97bc9c2080e83248af3d78f26aa316b29265b6a,2025-07-20T15:03:00.489Z,e03b4da1-403e-41b6-a561-daa576221072
1602,011-U277E-00,Florida,SOUTH BROWARD DRAINAGE DISTRICT,6591 SW 160 AVENUE,,SOUTHWEST RANCHES,33331-0000,3dfe4b26a58dd4b482849d17fcc5499039381857,2025-07-20T15:03:00.489Z,0f58a263-3ce2-4391-9cb7-f0164d5bf3b9
4261,021-52425-00,Maryland,MIDDLETOWN,31 West Main Street,,Middletown,21769-0000,ee9dabf59b85a6727000f1ef28905ad8559c2580,2025-07-20T15:03:00.489Z,5b07a94b-cc55-4b06-b8cf-8eefbfa0aa6a
1602,011-UALSJ-00,Florida,"ARCHWAYS, INC.",919 NE 13 STREET,,FORT LAUDERDALE,33304-0000,6a2c542cf9fcf5faab64255e50007dafd0ba13a9,2025-07-20T15:03:00.489Z,2b7d21b7-cb30-49de-a7c8-8262a443234e
1763,133-UDQ6F-00,Iowa,OLIVER LAKE LATERAL NO. 1 DRAINAGE DISTRICT,COURTHOUSE,610 IOWA AVENUE,ONAWA,51040-0000,13870326ffe8dd5262bd1e298bc85465f5202eee,2025-07-20T15:03:00.489Z,a9f538a0-7864-4ed4-8c9a-d8e50feaa8d4
4331,103-UYBQ7-00,West Virginia,HUNDRED VOLUNTEER FIRE DEPARTMENT,161 Penn,,Hundred,26575-0000,3b45f06779a664e5927dbc3b2c92d1614c117521,2025-07-20T15:03:00.489Z,b99049dd-f02e-406f-b3eb-2b7b07a10c9c
1545,099-05200-00,Florida,"BELLE GLADE, CITY OF",110 DR MARTIN LUTHER KING JR. BLVD W.,,BELLE GLADE,33439-0000,551970db3174a31f25cfbb2009f121fb25d27fbc,2025-07-20T15:03:00.489Z,3621781d-2e55-4822-8e02-bbbafd621a6f
1763,155-17175-00,Iowa,"CRESCENT, CITY OF",102 WEST FLORENCE STREET,,CRESCENT,51526-0000,8368f0f3434fcbb7a5b8adee7cfb60d2123398b7,2025-07-20T15:03:00.489Z,ebcc13a3-5910-444c-b421-44c4be00d176
1818,111-22204-00,Kentucky,DOUGLASS HILLS,219 Moser Road,,Louisville,40223-0000,94de86fbcc84ca0d921b884f1c3f87884380b27c,2025-07-20T15:03:00.489Z,5fdabf3f-66ab-421d-925a-53e0bea34de1
1818,089-05374-00,Kentucky,BELLEFONTE,705 Bellefonte Princess Road,,Ashland,41101-0000,d2278b2e38575661d2c5e288b4b1b08686e5f9cf,2025-07-20T15:03:00.489Z,b4c88c03-4e20-4c0a-aa4d-627f27e6375c
1818,021-04133-00,Kentucky,PARKSVILLE WATER DISTRICT,10711 Lebanon Road,,Parksville,40464-0000,5e0a773d88712fd5eee0d73c292a93e16bdb9705,2025-07-20T15:03:00.489Z,2ea6a581-7993-410f-8a9c-3091685cee16
1818,000-U1YGK-00,Kentucky,BIG SANDY WATER DISTRICT,18200 ST. RT. 3,,Catlettsbury,41129-0000,db9df0322f0c210ed577fda9d0829eb8605521c7,2025-07-20T15:03:00.489Z,7476d774-6400-49fe-921c-6159e8a24f6a
1818,111-URZ8T-00,Kentucky,LOUISVILLE METRO HOUSING AUHORITY,420 South 8th Street,,Louisville,40203-0000,d497fad1ec9861fbb640fad4a0064dc83a905af7,2025-07-20T15:03:00.489Z,544b6f29-3653-4172-9c76-bac8868776a3
1818,071-07002-00,Kentucky,HIGHLANDS REGIONAL,5000 Ky Rtc 321,,Prestonsburg,41653-0000,972eeca887a805a77e2e2506e85cc967ae347e27,2025-07-20T15:03:00.489Z,8f56e1b3-0c0a-4a99-a53f-ed173387f483
1818,155-UIA1A-00,Kentucky,LEBANON HOUSING AUTHORITY,101 Hamilton Heights,,Lebanon,40033-0000,0653a50ce45ce68235ad4ae6edeeb7fc094d2293,2025-07-20T15:03:00.489Z,cca4fccf-9351-4f60-ac25-103e963eaf38
1763,023-56145-00,Iowa,"NEW HARTFORD, CITY OF",,,NEW HARTFORD,50660-0000,b4c3a4bc7b1e749d07ad6deb8f0fadace119814e,2025-07-20T15:03:00.489Z,db55d095-2eb5-4b26-af9e-64fc4b0938ed
1545,009-33375-00,Florida,"INDIALANTIC, TOWN OF",216 FIFTH AVE,,INDIALANTIC,32903-0000,8d2aae2a505559172d3b98c12d65a8d21080b196,2025-07-20T15:03:00.489Z,0c27c87b-f7e0-41be-aa0b-55992f34bf6f
1545,099-USQSD-00,Florida,THE HAVEN FOR CHILDREN INC.,21441 BOCA RIO ROAD,,BOCA RATON,33433-0000,95fc7dca6cfd927cc1b705cd0a653dd5a8d3f65e,2025-07-20T15:03:00.489Z,3ff726d3-dcfe-41e4-a62f-f58333b1180d
1561,099-UUIRD-00,Florida,HEALTH CARE DISTRICT OF PALM BEACH COUNTY,324 DATURA STREET,SUITE 401,WEST PALM BEACH,33401-0000,db2c34641aea7eb98816e6999140a2db1250a444,2025-07-20T15:03:00.489Z,5c02644a-44ef-4ca2-911d-54ed5253289b
4251,095-32416-00,Alabama,GUNTERSVILLE,341 Gunter Ave,,Guntersville,35976-0000,6dce826c19159bda7df964ccc02f865cee7a772f,2025-07-20T15:03:00.489Z,e38c0a31-e61a-4e74-bac8-8f81b21e341c
1763,000-UOOZ0-00,Iowa,SOUTHERN IOWA RURAL WATER ASSOCIATION,1391 190TH STREET,,CRESTON,50801-0000,d9bc6952a27148eb0fdbca96a5f33c1ddc6d32f9,2025-07-20T15:03:00.489Z,2fde3b29-0e80-4c40-8606-de2fd5af8528
4247,055-46050-00,Oklahoma,MANGUM,201 N Oklahoma Ave,,Mangum,73554-0000,413fa44dfc83db722ad12b4534d2f0783fc68814,2025-07-20T15:03:00.489Z,457b658e-dac6-4ecb-920a-8d01bdcad650
4247,083-31700-00,Oklahoma,GUTHRIE,101 N 2nd Street,,Guthrie,73044-0000,a6b4b11bf805ade5558a6de90f934b21802ab2be,2025-07-20T15:03:00.489Z,3bc2f545-9c34-4e4c-ada1-7e8b4f1eb13e
4290,055-99055-03,Minnesota,HOUSTON (COUNTY),1124 E WASHINGTON ST,,CALEDONIA,55921-1623,cdac66c4ac002290324078c0c638f73cccf00b3e,2025-07-20T15:03:00.489Z,662be3fd-38c3-46e7-942b-d6974248835f
1763,049-19135-00,Iowa,"DAWSON, CITY OF",P.O. BOX 173,,DAWSON,50066-0000,5d0f973e9548174229900c06ca436958c1578778,2025-07-20T15:03:00.489Z,80dea174-9318-4490-9344-16a095457f5f
4261,000-UBINT-02,Maryland,MARYLAND AVIATION ADMINISTRATION,701 Wilson Point Road,,Baltimore,21240-4282,aabc5365ba46a1f55fadcbc7a5e431b6176ab403,2025-07-20T15:03:00.489Z,378f2b1e-1cc2-4dc9-808a-e8e2f677d7f4
4259,000-U039E-00,Georgia,GEORGIA EMERGENCY MANAGEMENT AGENCY,"935 East Confederate Avenue, Building 5",,Atlanta,30316-0000,6b9b4684180426f0f80d3a3ec22345ce2d9f85c1,2025-07-20T15:03:00.489Z,51fab697-aa22-4fa3-ba32-9ccaddeea636
4264,027-12100-00,New Jersey,CHATHAM,54 Fairmount Ave,,chatham,07928-2375,bcee7114df2df29aeb25956dafbb8686c8774dd4,2025-07-20T15:03:00.489Z,481c2062-a8ba-4a02-8567-6e3f75f565c0
4264,027-18070-00,New Jersey,DOVER,37 North Sussex Street,,Dover,07801-0000,000f1f30b50777359e0c1d7abbf35466a7c75ee9,2025-07-20T15:03:00.489Z,e180b679-6e2d-479b-887e-7f66a707b788
1545,083-0EF2D-00,Florida,MARION COUNTY SCHOOL BOARD,512 SE 3RD ST,,Ocala,34471-0000,37e14d3c97484e79c0bb742ef07083d82e512b67,2025-07-20T15:03:00.489Z,3ff6f48c-6aee-4e6a-8511-8b00df2eac99
1971,033-77280-00,Alabama,TUSCUMBIA,202 E 6th Street,,Tuscumbia,35674-0000,3204cd10a1869f3de5c9f50627e74629127f7d2d,2025-07-20T15:03:00.489Z,810abee0-7783-4cd8-ac5d-c5af37656583
1948,000-UGNOL-01,Virgin Islands of the U.S.,V.I. WASTE MANAGEMENT AUTHORITY,"1 La Grande Princesse, Suite BL 1",,St Croix,00820-0000,4200cf7b48656f06d4b6e80afde273e4226b803d,2025-07-20T15:03:00.489Z,c98ce17c-68be-41bd-84e8-9437b29072b9
1650,025-16793-00,New York,COLCHESTER (TOWN OF),72 TANNERY RD,,DOWNSVILLE,13755-0000,5d48fcafe7e8333369100c21a2354467208018b5,2025-07-20T15:03:00.489Z,585ab2aa-183b-4dc3-a222-8e0978c4f29f
1539,027-U14XF-00,Florida,DESOTO MEMORIAL HOSPITAL,900 N ROBERT AVE,,ARCADIA,34265-0000,89a1cb14c74ac1d3762e8a73982bdbc9eba0f25a,2025-07-20T15:03:00.489Z,02f126ce-0fc5-43e9-84c4-30a0ffc13e3a
1763,153-07390-00,Iowa,"BONDURANT, CITY OF",200 2ND ST NORTHEAST,,BONDURANT,50035-0000,37ae16ba071d7d1146148c37f22bdaa20afe7bdd,2025-07-20T15:03:00.489Z,563936f5-944e-431a-9384-70ca0e3314c2
1763,155-16860-00,Iowa,"COUNCIL BLUFFS, CITY OF",209 PEARL STREET,,COUNCIL BLUFFS,51503-0000,a5486c8fb75509c8d6e0d57e1b1539043a99cd4a,2025-07-20T15:03:00.489Z,1fff2b76-f630-421b-8eab-e6072644ddad
1539,127-UZ5M3-00,Florida,"STEWART-MARCHMAN CENTER, INC.",3875 TIGER BAY RD,,DAYTONA BEACH,32124-0000,8ea8a74b0e027a5d4df82e6e41144a391f0e89a3,2025-07-20T15:03:00.489Z,f2643263-65ae-4535-853b-c0217a90aebe
1763,113-UJFSD-00,Iowa,IOWA ART WORKS,"1127 THIRD STREET, SOUTH EAST",,CEDAR RAPIDS,52403-0000,7b189b37d0d0a88ded444584735ee91b10f684ae,2025-07-20T15:03:00.489Z,f0cdae5c-6a7b-4f28-99b0-fdc8cd64bc30
1545,075-08700-00,Florida,"BRONSON, TOWN OF",660 E HATHAWAY AVENUE,,BRONSON,32621-0000,ba13feddf5fbeb0fc627b654bf2f98c559a3776d,2025-07-20T15:03:00.489Z,0eac9c8b-4a84-4fba-a0e0-dc55a791588a
1602,113-45750-00,Florida,"MILTON, CITY OF",6738 DIXON STREET,,MILTON,32570-0000,c2296f64c6137c75156be4a309012e8b2600a28a,2025-07-20T15:03:00.489Z,b08210bd-01d4-429a-91c0-c4066a7dae93
1792,023-UJB5U-00,Louisiana,LOWER CAMERON HOSPITAL SERVICE DISTRICT,5360 West Creole Highway,,Cameron,70631-0000,5f94b273a39d766e105020ccee84042d9b777cf8,2025-07-20T15:03:00.489Z,a0bd4135-955a-4092-980e-e935f708aba7
4091,025-U5K17-00,Maryland,DARLINGTON VOLUNTEER FIRE COMPANY,2600 Castleton Road,,Darlington,21034-0000,1cd8d1142ceb332f228e41e30e8a7962142e0ac2,2025-07-20T15:03:00.489Z,10130a50-a9fd-42fd-95a5-d0ea8e59e990
1792,053-UL47X-00,Louisiana,JEFFERSON DAVIS PARISH POLICE JURY,304 N. State St.,,Jennings,70546-0000,daf818ea3a0d8abfa5b20c94dec51d8fd9c5434a,2025-07-20T15:03:00.489Z,bf436e4b-9fae-4eb7-af4e-02a270e5e66e
1561,015-99015-00,Florida,CHARLOTTE (COUNTY),18500 MURDOCK CIRCLE,,PORT CHARLOTTE,33948-0000,c6e6d203d0c2f598f7bbda951016a7846f11f3e5,2025-07-20T15:03:00.489Z,b5755b61-88c7-41bd-8c9b-70a17fe50d32
4022,021-75925-00,Vermont,WALLINGFORD (TOWN OF),75 School Street,,Wallingford,05773-0000,5e0dcd6dc4b5f136f2c6521ab352d16ddf859a99,2025-07-20T15:03:00.489Z,39045704-7c88-47b5-893e-79db91ec3a8c
4021,031-U9M90-00,New Jersey,WEST MILFORD TOWNSHIP BOARD OF EDUCATION,46 Highlander Drive,,West Milford,07480-0000,49e1940598084006e91c97ab570e431baa7855da,2025-07-20T15:03:00.489Z,4c6e3a20-b318-4bb9-8e49-685d12a93695
1971,103-U0015-00,Alabama,HARTSELLE UTILITIES,1010 Sparkman Street,,Hartselle,35640-0000,e6397c1e55fd1a65a6fd149c55dc68c59c888a65,2025-07-20T15:03:00.489Z,928689a3-edff-4b26-9201-730df28b4a38
1818,107-23230-00,Kentucky,EARLINGTON,103 West Main Strret,,Earlington,42110-0000,d1ae5e86fe29ab8b4cfec0327b6bf116a73a7d0b,2025-07-20T15:03:00.489Z,21cb2395-7c70-4ebe-81c1-b224045d4ad1
1971,123-19336-00,Alabama,DADEVILLE,216 South Broadnax Street,,Dadeville,36853-0000,9f889fddf8c07525d04532d5e785a1cef1d17059,2025-07-20T15:03:00.489Z,a1d57d1d-8b3e-472f-8c1e-f315cb0e3ce6
4017,049-99049-00,Puerto Rico,CULEBRA (MUNICIPIO),"Pedro Marquez St., Dewey neighborhood",,Culebra,00775-0000,e665123ac81ff520c9333b9f90239b0113c1765f,2025-07-20T15:03:00.489Z,46e9a42b-6b71-41b8-b7fe-391ff242e11c
4022,019-16150-00,Vermont,COVENTRY (TOWN OF),168 Main Street,,Coventry,05825-0000,fb03713da10fa092a74387ad966124bb45279cae,2025-07-20T15:03:00.489Z,b061b262-5a43-402c-bb02-97fd521a83a4
4069,017-61708-00,Minnesota,SPLIT ROCK (TOWNSHIP OF),7210 Highway 27,,Sturgeon,55783-0000,7ae97eb730f1b9586c6bd9045a944f93856a0010,2025-07-20T15:03:00.489Z,c0ca3e2e-fabd-464f-8180-4dc64c186c44
1971,065-99065-00,Alabama,HALE (COUNTY),998 Church Street,,Greensboro,36744-0000,a49a034bd10037a375697c46aec87bf1ddc4951d,2025-07-20T15:03:00.489Z,aee2f2c9-9f5b-4506-9328-6b3666c8242b
4021,013-40890-00,New Jersey,LIVINGSTON (TOWNSHIP OF),357 So. Livingston Ave,,Livingston,07039-0000,51151f1ec195c20b4d2767831e5f69814076372f,2025-07-20T15:03:00.489Z,bb7bf76f-0ad7-4662-b3b4-280d57dd87b7
1859,000-UQZSH-00,American Samoa,LBJ TROPICAL MEDICAL CENTER,LBJ,,Fagatogo,96799-0000,60a735e12bc274eb068958a776d405a4e2ede6a3,2025-07-20T15:03:00.489Z,4f4e419e-f297-4252-ab92-292217651de5
4021,027-61890-00,New Jersey,RANDOLPH (TOWNSHIP OF),502 Millbrook Avenue,,Randolph,07869-0000,5bd9cb543ba9694076a92ba766a367e7c0cd7071,2025-07-20T15:03:00.489Z,963fcc9a-6973-43cb-8a91-348d38f44cf3
4091,037-99037-00,Maryland,ST. MARY'S (COUNTY),23090 Leonard Hall Drive ,,Leonardtown ,20650-0000,3049c87601d936f425086ef49e7eba0cd742b662,2025-07-20T15:03:00.489Z,f6f1f8ab-0069-4a5a-a950-67085a9ace4a
4264,005-99005-00,New Jersey,BURLINGTON (COUNTY),49 Rancocas Road,,Mt. Holly,08060-1317,80f33542ef9bb90b9e80cd283dba9c60f4e85ff9,2025-07-20T15:03:00.489Z,70cad6f7-87e1-4879-87b3-b7641d452822
4251,071-99071-00,Alabama,JACKSON (COUNTY),102 E Laurel St,,Scottboro,35768-0000,5488cff99aaf41b5a43716b3b5f5932e8262d1de,2025-07-20T15:03:00.489Z,771c09a4-7792-4093-b761-7cf765185ee5
4091,000-UJW38-03,Maryland,MARYLAND TRANSPORTATION AUTHORITY,"2310 Broening Highway, Suite 150",,Baltimore,21224-0000,e8725ac3e2d0d0e33c7304c44e5b0268c4f939c7,2025-07-20T15:03:00.489Z,0cd36e92-7889-4133-9716-d6584debcd2c
4287,095-10450-00,Kansas,CANTON (TOWNSHIP OF),13565 SE 90th Ave,,Spivey,67142-0000,7743ed257925d74f6184aa30eeab954a36a2c533,2025-07-20T15:03:00.489Z,05a098ca-f455-4996-9b89-fc2e67c2ccb8
4247,013-99013-00,Oklahoma,BRYAN (COUNTY),323 W Beech Street,,Durant,74701-0000,861ef530417c026f680b4f31bf521cceac4beb42,2025-07-20T15:03:00.489Z,fcad6c34-9df9-478f-9138-0f883086d374
4261,025-0232E-00,Maryland,HARFORD COUNTY SHERIFF,45 South Main Street,,Bel Air,21014-0000,74cad9233ede6bdfc56e378e9c63ec31667cab3a,2025-07-20T15:03:00.489Z,687908cd-7e99-4dfa-a452-2f9203f716b1
1539,049-75375-00,Florida,"WAUCHULA, CITY OF",126 S 7TH AVE.,,WAUCHULA,33873-0000,bb24e199ec5b76c7cae51213b35b47ac03b39863,2025-07-20T15:03:00.489Z,9a39a174-06c3-4917-b550-25a5037701bb
1539,105-00105-00,Florida,WEBBER INTERNATIONAL UNIVERSITY, 1201 NORTH SCENIC HIGHWAY,,Babson Park,33827-0000,2b0ab1d50d5011984e37643d860c49e3e77ee6ca,2025-07-20T15:03:00.489Z,61f2115b-d21f-4bec-be0d-599fc9923028
4256,000-UHDF0-00,Oklahoma,"NORTHEAST OKLAHOMA ELECTRIC COOPERATIVE, INC.",27039 S 4440 Rd,,Vinita,74301-0000,49fb9d907273d533ad0218dd3802bc965cd5ffc4,2025-07-20T15:03:00.489Z,4465e17a-7026-40ff-85c3-1f3f6be0e879
1650,007-U0HUF-00,New York,"TOWN OF BINGHAMTON VOL. FIRE CO., INC.",457 PARK AVENUE,,BINGHAMTON,13903-0000,3230865d4d85a53d6eebbefa1075a26319c9c60c,2025-07-20T15:03:00.489Z,3c096d36-5326-4d0c-91e7-e84727628bea
1650,077-040AD-00,New York,MORRIS CENTRAL SCHOOL,65 MAIN ST,,Morris,13808-0000,81291a070de2373206938185768dc39a8f32b426,2025-07-20T15:03:00.489Z,a68562a2-091f-4c5f-9d15-c162755a7982
1650,007-U4RJX-00,New York,OUAQUAGA FIRE CO,2178 RT 79,PO BOX 84,OUAQUAGA,13826-0000,f7bd58d4300dcb6021b8937eb203b79c240be3de,2025-07-20T15:03:00.489Z,e926ef1a-b2c0-47f5-9f0c-2b382d79395e
1763,057-02973-00,Iowa,DES MOINES COUNTY SHERIFF'S OFFICE,512 NORTH MAIN STREET,STE 2,Burlington,52601-0000,062f9333d4a2714cec46858a0ab711927c5e1c7c,2025-07-20T15:03:00.489Z,d1db9f05-8ea7-449f-9350-edb732b1a3be
1561,011-URXBZ-00,Florida,SOUTH BROWARD HOSPITAL DISTRICT,3501 JOHNSON STREET,,HOLLYWOOD,33021-0000,c213c6b6e6c8f588ca74811c958072c8511e5af5,2025-07-20T15:03:00.489Z,7315eeb5-d02e-4e7c-af34-271c79f448f3
1818,107-49368-00,Kentucky,MADISONVILLE,65 North Main Street,,Madisonville,42431-0000,b0631afe4ba78ef4a8fb363e44afcb10ae71d5da,2025-07-20T15:03:00.489Z,8ba6d87c-5388-413b-b398-259ab82fc95c
4091,019-060F8-00,Maryland,LAKES & STRAITS FIRE CO,2103 Farm Creek Road ,,Wingate ,21675-0000,0737a6d65c4649c3c52d298fb5c89b52c995d386,2025-07-20T15:03:00.489Z,846629b9-31d1-4827-b067-51e8bb68a0fc
4256,121-U7LY5-00,Oklahoma,TOWN OF CARLTON LANDING,1210 N West St,,McAlester,74501-0000,f1933ec6891aab1fbac96013fabb483b22a9dd13,2025-07-20T15:03:00.489Z,2e507aac-0a0f-48d3-80b6-753d9b4852ad
4028,023-60330-00,Massachusetts,SCITUATE (TOWN OF),600 Chief Justice Highway,,Scituate,02066-0000,1c247da232570d2da03018c30a4d45a002590133,2025-07-20T15:03:00.489Z,c13f3b8c-60ad-41cf-ba78-293853767b36
4287,095-59400-00,Kansas,RICHLAND (TOWNSHIP OF),4492 SE 100 Street,,Kingman,67068-0000,dd2c30781d0dfbf35d517fda2475a2f3d952cfe1,2025-07-20T15:03:00.489Z,c698c5a0-ec76-4463-8c06-f9a6947d2ea1
4264,007-U1P63-00,New Jersey,CAMDEN COUNTY IMPROVEMENT AUTHORITY,2120 Voorhees Town Center,,Voorhees,08043-1911,68e231810b34456536371a358490556fe269c4e0,2025-07-20T15:03:00.489Z,6a809f2f-3378-46d2-8c67-f7f6626f9c4a
1979,183-31000-00,Tennessee,GREENFIELD,222 N. Front St.,,Greenfield,38230-0000,d7b0e23f7b7237f7834387b6b4c4dfda58a993cb,2025-07-20T15:03:00.489Z,e1c24015-b646-4e50-bce9-3ab9201b3b04
4021,039-U9FQU-00,New Jersey,ROSELLE PARK BOARD OF ED,510 Chestnut Street,,Roselle Park,07204-0000,9f18a9281ccc3e41d358dbfa6367225d73066bdd,2025-07-20T15:03:00.489Z,284f1616-5ea7-4859-92a4-45fbea3795e4
1818,059-07236-00,Kentucky,KNOTTSVILLE FIRE DEPT,9436 State Route 144,,Philpot,42366-0000,1e001e0b07189bf7622f3a53da6b3f9d45980572,2025-07-20T15:03:00.489Z,98d22dc1-659a-46e9-b98e-13813059a3b2
4021,007-UL9ZV-00,New Jersey,CHERRY HILL PUBLIC SCHOOLS,45 Randolo Ter.,,Cherry Hill,08034-0000,0c98a37d5a85cf5dc1c138c68407309811c97d7c,2025-07-20T15:03:00.489Z,b6fd4062-2a21-4503-a545-63dd663a63e7
4021,025-70110-00,New Jersey,SPRING LAKE (SPRING LAKE BEACH),423 Warren Avenue,,Spring Lake,07762-0000,9286d97d4ab4aacc5aec866911c138630f69e3e0,2025-07-20T15:03:00.489Z,e503eeb0-17a0-47f7-99ae-1c881d94f010
1971,049-UJ0WA-00,Alabama,NORTH JACKSON COUNTY WATER AUTHORITY,21700 AL Hwy 117,,Ider,35981-0000,f413bda5188f0ffee649fa6880a06d5e4db17dbe,2025-07-20T15:03:00.489Z,9b6ed19a-0f57-466d-9ef0-b2abb0eef08b
4238,049-UHE1L-00,Missouri,CAMERON SPECIAL ROAD DISTRICT,NE A Hwy,,Cameron,64429-0000,c0783fe95627451cec2b60b7e359782ee04c83ff,2025-07-20T15:03:00.489Z,9aba32fe-069b-43c4-a85d-6363b890f898
1561,007-68525-00,Florida,"STARKE, CITY OF",209 N THOMPSON,,STARKE,32091-0000,a455e78c9b2d9ffa433dcedec69f3d522c401e55,2025-07-20T15:03:00.489Z,9659419e-2bf8-4215-b963-c441ec5c6023
1539,103-18575-00,Florida,"DUNEDIN, CITY OF",1042 VIRGINIA STREET,,DUNEDIN,34698-0000,6a657d5356c3e6cfb0e2f31014a2c28f3f5199dc,2025-07-20T15:03:00.489Z,55b7180d-6d3f-4ec7-aa0c-5b6b50664617
1763,129-UF4MS-00,Iowa,MISSOURI RIVER DRAINAGE DISTRICT,20813 KELTING AVENUE,C/O MERRILL SARGENT,PACIFIC JUNCTION,51561-0000,429fab0c27f03c24a8b56d6b0ab9c1141f4bb278,2025-07-20T15:03:00.489Z,c8539495-9802-4d7b-86f4-8fd0ea02a76f
1545,085-UT0PE-00,Florida,"HIBISCUS CHILDREN'S CENTER, INC",2400 N.E. DIXIE HIGHWAY,,JENSEN BEACH,34957-0000,5acf4e6a7df972e8fccc21dca99c72da722ed56f,2025-07-20T15:03:00.489Z,63025e86-f929-417b-8099-addd43582b43
1561,099-U3Z9L-00,Florida,"JEFF INDUSTRIES, INC.",113 EAST COAST AVENUE ,,HYPOLUXO,33462-0000,0212d9beb68fb065dbb838413bd072e68e8a9b5e,2025-07-20T15:03:00.489Z,277c3967-77a2-4a0d-aedd-6bf758c09860
1650,095-17651-00,New York,CONESVILLE (TOWN OF),700 POTTER MOUNTAIN ROAD,,GILBOA,12076-0000,dc73906cdf325fa2e16a34d4bb9a9833b7b637c2,2025-07-20T15:03:00.489Z,95af80a0-fdcc-496c-9ad1-fc36478a697b
1561,103-U96WA-00,Florida,"ST. MICHAEL'S HOUSING, INC.",2285 STATE ROAD 580,,CLEARWATER,34623-0000,a4453b9499d40960bbac6eb42fbfad07a1c0a59b,2025-07-20T15:03:00.489Z,e173b10c-9820-486c-874f-38bc5b396426
4022,023-50275-00,Vermont,NORTHFIELD (TOWN OF),51 South Main Street,,Northfield,05663-0000,2284017e13fa018564c589ec5e805220ee58c339,2025-07-20T15:03:00.489Z,9f67b902-92ee-4e32-8fe2-6adb384cd59b
4026,003-11780-00,New Hampshire,CHATHAM (TOWN OF),1688 Main Road,,Chatham,03813-0000,d753f0ebf3a673e75ec7cbf474fa0c130c681076,2025-07-20T15:03:00.489Z,33d0ad1b-4a1a-4921-9b35-5125c586729e
4021,011-76070-00,New Jersey,VINELAND,"640 East Wood Street , P.O. Box 1508",,Vineland,08362-1508,8f5e92bd3bc814300ba108af7b2b2cedf6bd5bf9,2025-07-20T15:03:00.489Z,30c7117a-e08e-4e85-81ee-7eba4d460b39
1818,007-83064-00,Kentucky,WICKLIFFE,321 Court Street,,Wickliffe,42087-0000,f8c8a858e3bf77ec06bd97d502ac37616545d328,2025-07-20T15:03:00.489Z,b8bb5eda-a55f-43a9-a3ce-499b5bd45288
4562,039-U64H3-00,Oregon,LANE COUNTY SCHOOL DISTRICT 52,4640 Barger Dr,,Eugene,97402-0000,b22e021d65baf5d7226839e18409439bd9640dc9,2025-07-20T15:03:00.489Z,377879db-f0c2-440d-8c6f-f4400063ec8f
1971,015-38272-00,Alabama,JACKSONVILLE,"506 Chinabee Avenue, SE",,Jacksonville,36265-0000,98f3b464d66634364b0808dd43d09766476c3e31,2025-07-20T15:03:00.489Z,39e87dd1-42eb-4bc8-938b-b2ff4ff13c92
4021,021-UHERJ-00,New Jersey,HAMILTON TOWNSHIP FIRE DISTRICT 5,61 Ruskin Avenue,,Hamilton ,08610-0000,075d1d596dccd5cb8792825e6ed3e5d9e8c47978,2025-07-20T15:03:00.489Z,44ad3ac9-4e88-4b51-94bb-145ecdcf87ef
4021,039-48510-00,New Jersey,MOUNTAINSIDE,1385 Rt. 22,,Mountainside Borough,07092-0000,49fc7dcb134ea53d49d017fe4fa6839c683bd9d6,2025-07-20T15:03:00.489Z,f2928817-f8e9-41d2-928a-74a171a2483d
1539,049-U8HHF-00,Florida,"PEACE RIVER REFUGE & RANCH, INC",2545 STONER LANE,,ZOLFO SPRINGS,33890-0000,4fa7a2be92adff3ac20c7b0ec5cc311cdaef2ba9,2025-07-20T15:03:00.489Z,4afc7377-aa79-4c62-bb89-60b71e22b896
1545,055-07176-00,Florida,HIGHLANDS COUNTY SHERIFF'S OFFICE,434 FERNLEAF AVENUE,,SEBRING,33825-0000,ae5d1b9f75f8bb819c345e35ea656505bea87fb2,2025-07-20T15:03:00.489Z,038887dc-7032-491b-ad6a-4d776f63af7a
1561,055-166E7-00,Florida,HIGHLANDS COUNTY SCHOOL BOARD,426 SCHOOL STREET,,Sebring,33870-0000,658b1d794e4e3c1cc2f65494683556c70ad2ff59,2025-07-20T15:03:00.489Z,a5acf27f-1abb-40df-b100-fe55ecccc579
1659,017-06270-00,New Mexico,"BAYARD, CITY OF",800 CENTRAL AVENUE,,BAYARD,88023-0000,82db6af9d6c62823fae9a65893b6e41ff6d10761,2025-07-20T15:03:00.489Z,ac533b9f-2465-4bdf-90d6-1d8dfbe7f959
1974,099-000F9-00,Tennessee,LAWRENCEBURG POWER SYSTEM,1609 Locust Avenue,,Lawrenceburg,38464-0000,1c18a22090ed57bb7fe465b161d4845385392f7f,2025-07-20T15:03:00.489Z,8c094d9e-ad5d-4fdf-8de6-1031c35760fe
4021,013-46380-00,New Jersey,MILLBURN (TOWNSHIP OF),435 Essex Street,,Millburn,07041-0000,ab29574297d4288d114be56a141ed37644e2f2f9,2025-07-20T15:03:00.489Z,8c01e121-e8c6-4110-9089-254f9e518e49
4026,009-74740-00,New Hampshire,SUGAR HILL (TOWN OF),1411 Route 117,,Town of Sugar Hill,03586-0000,df9a444c19cd6e3405f884f1e1107a41ce2fcec0,2025-07-20T15:03:00.489Z,69513c84-a09b-42a1-9029-f5f1bd0d5bcf
4028,023-28285-00,Massachusetts,HANOVER (TOWN OF),550 Hanover St.,,Hanover,02339-0000,d23ac3b35d9281ec09fd2bfc9d6101d63afcd70b,2025-07-20T15:03:00.489Z,e10e2e87-bcd2-4c7e-a713-b24bef844830
1946,093-99093-00,Puerto Rico,MARICAO (MUNICIPIO),#5 Ruiz Belvis ,,Maricao,00606-0000,c47419653a233bd87efc1ff62959df16706d8965,2025-07-20T15:03:00.489Z,321cc9bb-3348-4cb8-9259-635bb6eb7d9d
4028,001-U8RU0-00,Massachusetts,WEST BARNSTABLE FIRE DISTRICT,2160 Meetinghouse Way,,West Barnstable,02668-0000,f58dab19f8422980e80e60938790b944bda41a97,2025-07-20T15:03:00.489Z,a6ff993b-431e-4935-a41f-84ae1fc6a21e
4021,003-72480-00,New Jersey,TETERBORO,510 RT 46 West,,Teterboro,07608-0000,474d40c0c7b1f04e63d5e05eba65c2a0a845d877,2025-07-20T15:03:00.489Z,8b7295a6-39b2-4109-8b27-a519693bd438
1979,183-21540-00,Tennessee,DRESDEN,117 W. Main St.,,Dresden,38225-0000,ed6f5e29df1c0aaba4d8b26171d240bbd4abe05a,2025-07-20T15:03:00.489Z,22ac1288-5305-4a87-926e-64664cfd8379
4256,063-35400-00,Oklahoma,HOLDENVILLE,100 N Creek,,Holdenville,74848-0000,f20858acc791a61108e30e32f348f2d26b7345f7,2025-07-20T15:03:00.489Z,e891c740-af05-44f3-b9b4-cc59732070e6
4287,035-02300-00,Kansas,ARKANSAS CITY,118 W. Central Ave.,,Arkansas City,67005-0000,a57f829c6040edad5aef60a09a35bef54ab6e7e8,2025-07-20T15:03:00.489Z,dd517715-a5e2-4755-8882-78864dfe7720
4250,145-UJTCT-00,Missouri,STELLA SPECIAL ROAD DISTRICT,18649 Tiger Rd.,,Stella,64867-0000,8b11e20f543f2532b4e4557eb3e1e14e39c4bcda,2025-07-20T15:03:00.489Z,348698d5-ea35-4a1c-8ac5-58688ffc4e1d
1763,095-UT83U-00,Iowa,IOWA COUNTY SECONDARY ROADS,400 EAST PINE STREET,,MARENGO,52301-0000,436b94e207d6f81f3cd33c2705744ace6cc4634a,2025-07-20T15:03:00.489Z,7e855ac8-a121-4486-a3bf-7017009009b0
1539,075-06F2A-00,Florida,LEVY COUNTY SHERIFF'S OFFICE,9150 NE 80TH AVE,,BRONSON,32621-0000,aac5d6e982c8805674cadace41e8785453116a22,2025-07-20T15:03:00.489Z,d1c9fd42-75ef-420a-ad01-bd32ed24cd34
1539,127-40065-00,Florida,LEMON BLUFF WATER ASSOCIATION,721 LEMON BLUFF ROAD,,OSTEEN,32764-0000,021fbb4744babd2c539895591c1f5ab44b3f6cd3,2025-07-20T15:03:00.489Z,8bbf5746-c0b6-45e1-a89c-a0b66cb04ca4
1602,086-20650-00,Florida,"EL PORTAL, VILLAGE OF",500 NE 87TH STREET,,EL PORTAL,33138-0000,9590ae9206c039a87ad6a98700fd95dc3e2d4845,2025-07-20T15:03:00.489Z,0aef3b0f-8412-4876-b1a2-8423f3b72b07
1763,105-87240-00,Iowa,"WYOMING,  CITY OF",141 WEST MAIN STREET,,WYOMING,52362-0000,e26a6edd46dc307eeea39255485a0ed8152a29d4,2025-07-20T15:03:00.489Z,7fefc269-3560-45f5-a687-abb094707746
4022,003-63550-00,Vermont,SHAFTSBURY (TOWN OF),61 Buck Hill Road,,Shaftsbury,05262-0000,0bf279f6fb93bb9425299627b068a0abe8509122,2025-07-20T15:03:00.489Z,65866cf2-26d5-4659-a8f9-f95fd9cb3f44
4031,025-UL9GR-00,New York,DELHI JOINT FIRE DISTRICT/DELHI FIRE DEPARTMENT,140 Delview Terrace Extension,,Delhi,13753-0000,f41c41f08d1707ae0a17615c95b2243e42568594,2025-07-20T15:03:00.489Z,be530915-59c3-4b43-ae48-92247c40606d
4124,113-99113-00,Arkansas,POLK (COUNTY),507 Church Avenue,,Mena,71953-0000,61a16d2b5ad29efb1a0c9dead2c046b5320f0945,2025-07-20T15:03:00.489Z,b8d85270-0975-461d-9740-f75ec71db949
4021,027-23910-00,New Jersey,FLORHAM PARK,111 Ridgedale Avenue,,Florham Park,07932-0000,432b2b9a82f1ca75871662d19f29843c50be1625,2025-07-20T15:03:00.489Z,f5087546-83d5-4cc5-9489-5453792779df
4251,051-48712-00,Alabama,MILLBROOK,3390 Mian Street,,Millbrook,36054-0000,4a249093e3f56ec96ac1c6ce236d76c2520e28db,2025-07-20T15:03:00.489Z,359da926-518b-4873-8aa5-c7c7c2412728
1545,011-28450-00,Florida,"HALLANDALE BEACH, CITY OF",400 S. FEDERAL HIGHWAY,,HALLANDALE BEACH,33009-0000,cea3421efb26e0705729e128d8f585cc7982b851,2025-07-20T15:03:00.489Z,780ce449-dc31-43cf-be5e-006ee0d0f212
1971,083-UF1A4-00,Alabama,LIMESTONE COUNTY ASSOC. OF VOLUNTEER FIRE DEPT.,10709 Lucas Ferry Rd,,Athens,35611-0000,6f73042c58bbdb545802ba5065d446c852abe739,2025-07-20T15:03:00.489Z,0b60e2af-77c7-4c3a-8dcb-6da8b2a86084
1792,000-UOTNB-00,Louisiana,UNIVERSITY OF LOUISIANA LAFAYETTE,310 E. Lewis St.,,Lafayette,70504-0000,552a54c49101c71098203cc446695ea1f1e6af5d,2025-07-20T15:03:00.489Z,1f6bdde8-ada8-40aa-8a7d-a87fd42ff682
4183,000-UPEOK-00,Nebraska,CEDAR-KNOX PUBLIC POWER DISTRICT,56272 West Highway 84,,Hartington,68739-0000,caaa45cb44e4391fe740d99b560e094ec9a89dff,2025-07-20T15:03:00.489Z,57d92324-0d37-4595-9fb4-b8083fa5a70d
1545,057-71000-00,Florida,"TAMPA, CITY OF","306 E. JACKSON ST., 4N",,TAMPA,33602-0000,3620b1f7b91692abadc45af7433cea8222dbc3c6,2025-07-20T15:03:00.489Z,08c17b0e-e628-4725-a6cf-a2d95ef75bb7
1246,000-92003,Louisiana,LA DEPT OF TRANSP & DEVELOPMENT,"1201 CAPITAL ACCESS RD - BATON ROUGE, LA",,,70802,9bcdfa7671facd08fdd03b75a659158e92ec48e8,2025-07-20T15:03:00.489Z,53af530b-d18c-428f-b5bc-27214cef976e
4021,017-UQ7SI-00,New Jersey,HUDSON COUNTY SCHOOLS OF TECHNOLOGY,8511 Tomelle Avenue,,North Bergen,07047-0000,4e83caabb3d4e1a665f989c1b2ef1b6d8215e14f,2025-07-20T15:03:00.489Z,04ecbcc9-e734-44b9-ba4a-70972010a746
1971,043-UF6N8-00,Alabama,CULLMAN COUNTY SWCD CAMP MEADOWBROOK,2344 County Road 747,,Cullman,35058-0000,7b455acdf5ef83e9c9f1accbd4ae74a3b9b317df,2025-07-20T15:03:00.489Z,7a382f13-e00c-4107-b008-b80f4a51ccb7
4021,003-80270-00,New Jersey,WESTWOOD,101 Washington Ave.  ,,Westwood,07675-0000,587e11e40d9e32c0148ea43ea61758376ba594bf,2025-07-20T15:03:00.489Z,6c6ec829-7e57-43a6-9d29-920c347b5453
1545,097-URSZ6-00,Florida,GOOD SAMARITAN VILLAGE @ KISSIMMEE,1550 ALDERSGATE DRIVE,,KISSIMMEE,34746-0000,a04d14f2f32a85845da1e53fbf0713debb69b804,2025-07-20T15:03:00.489Z,801df79a-a5c9-46c2-a4bd-1ff873839cf5
1247,085-00000,Puerto Rico,LAS PIEDRAS MUNICIPIO,JOSE CELSO BARBOSA ST. ROAD #198 KM.22.0,,,00771,d955c0e9ee7f4af38c9e0c420aa3895bd0ea5e43,2025-07-20T15:03:00.489Z,0017e953-0287-47df-aeb3-b6ad73fffaef
1251,031-66400,Mississippi,"SEMINARY, CITY OF","203 NORTH OAK AVE, PO BOX 295, SEMINARY,MS",,,39479,d93408424feefca96f8b81a954ac9da86d4c0289,2025-07-20T15:03:00.489Z,e474de29-f42f-46b5-96f8-d51883e04bd7
1247,000-92145,Puerto Rico,OFFICE OF THE COMISSIONER FOR MUNICIPAL AFFAIRS,"255 PONCE DE LEON, SAN JUAN (BOX 70167)",,,009360162,9c0caae705334093f36c73aa14cf3d4468393d07,2025-07-20T15:03:00.489Z,be75c834-38d6-4f4b-93ca-a9d32e0ffa3d
1249,131-00000,Florida,WALTON COUNTY,"103 MONTGOMERY CIR, DEFUNIAK SPGS, FL",,,32435,dd82f1e6c26aede8527350696ddf399d10ae0875,2025-07-20T15:03:00.489Z,fc19e08b-dcac-4110-b8b9-f3d7b6b891f7
1251,045-78200,Mississippi,WAVELAND CITY OF,"301 COLEMAN AVE, WAVELAND, MS",,,39576,cea28e1ea1299ccd91b118e7c6959b536ff7af26,2025-07-20T15:03:00.489Z,b90b38b6-88f5-4936-a12c-6a997c27001e
4021,025-06970-00,New Jersey,BRADLEY BEACH,701 Main Street,,Bradley Beach,07720-0000,2f86a6285fe41baf14c5fc9cab5453bf3bec0a46,2025-07-20T15:03:00.489Z,ad8b15e1-00a9-427a-ba1e-51ef9ed1dbd8
4021,037-65700-00,New Jersey,SANDYSTON (TOWNSHIP OF),133 Route 645,,Sandyston,07826-0000,7a764d2dd67385114a244f4e8bf5102e05a91149,2025-07-20T15:03:00.489Z,bb0c66cd-3b51-4962-92af-5f61b347033b
4021,003-02346-00,New Jersey,BOROUGH OF ENGLEWOOD CLIFFS,482 Hudson Terrace,,Englewood Cliffs,07632-0000,92756b462ca32f67572983bf1d52c8fdeddb778f,2025-07-20T15:03:00.489Z,44c669a3-52f8-42f3-8b4c-253b711efab8
1818,111-UAFH4-00,Kentucky,ANCHORAGE FIRE & EMS,1400 Evergreen Road,,Anchorage,40223-0000,95afbee5fbef9c733e35b0a2c8da5665bdcc82fa,2025-07-20T15:03:00.489Z,5c3c6623-9726-40bc-806e-fa2cc0468c4d
1247,105-90000,Puerto Rico,ACADEMIA SANTA TERESITA DE NARANJITO,"CARR. 152, KM 3.9, BARRIO CEDRO ARRIBA",,,00719,7ffafbdb40493e47632f2945bdd5ac3858ba6a7a,2025-07-20T15:03:00.489Z,f87b929e-220b-45a8-bd7a-c14a233138a3
1249,133-00000,Florida,WASHINGTON COUNTY,"711 3RD STREET, CHIPLEY, FL",,,32428,aa3d993280b22f9fb76cc35f261254ebec0d9a15,2025-07-20T15:03:00.489Z,bd50c73b-9378-47fb-80f9-fa5b4115f19f
1249,087-92100,Florida,UTILITY BOARD - CITY OF KEY WEST,"1001 JAMES ST, KEY WEST, FL",,,330400000,5a2de0837057e417e2fcd06d9e12c6d8afd722f6,2025-07-20T15:03:00.489Z,6b88093b-03f3-4bb3-8afb-b2d759a2fcdd
1249,087-92101,Florida,MONROE COUNTY MOSQUITO CONTROL DISTRICT,"5224 COLLEGE RD, KEY WEST, FL",,,33040,4552f5ec5713f181bf67d6f11a4b6dadfbf856d1,2025-07-20T15:03:00.489Z,d70434e0-af2a-4f38-8383-45ba09538102
1247,061-90000,Puerto Rico,"EDUCATIONAL ENTERPRISES OF PR, INC. (ROSA-BELL)","CALLE OVIEDO #42, TORRIMAR, GUAYNABO",,,00966,dd5bd6f128b4f6be62ecd4e818e0ef0e3657faab,2025-07-20T15:03:00.489Z,459ed011-456b-40b3-882f-c2916d3cca66
1247,021-00000,Puerto Rico,BAYAMON MUNICIPIO,PO BOX 1588,,,00960,f2fff5ad1959bed3602c60f93dc3718f7bec59cb,2025-07-20T15:03:00.489Z,9dcc5a13-bae7-4742-bbbe-7ad81ef2196a
1251,045-92010,Mississippi,HANCOCK COUNTY SCHOOL DISTRICT,"17304 HIGHWAY 603, KILN, MS",,,395560000,4f6b7c123becb330867d55e7f0582825be84a00a,2025-07-20T15:03:00.489Z,01291e25-06ed-4e1a-8937-9ae3d815f089
4091,041-UFGI2-00,Maryland,TALBOT COUNTY HEALTH DEPARTMENT,100 South Hanson Street ,,Easton ,21601-0000,bd24dde473d680d3feb1907421c578c8798cf5a5,2025-07-20T15:03:00.489Z,8761e269-be46-469c-8099-45fd7af7e30d
4146,115-99115-00,North Carolina,MADISON (COUNTY),348 MEDICAL PARK DR.,,MARSHALL,28753-0000,b031fe453b90b12171be9d1f47b4194c53bbd81f,2025-07-20T15:03:00.489Z,36f9c63c-9d0a-4be8-898d-1e4566ae3bab
4155,093-62155-00,South Dakota,SUMMERSET CITY,12150 Siouxland,,Summerset,57718-0000,60849f65a934ba6978c01bc212b543be62f58a9f,2025-07-20T15:03:00.489Z,2a20438b-1251-4c00-a256-54db95025bac
4264,021-33150-00,New Jersey,HOPEWELL,88 East Broad Street,,Hopewell,08525-0000,0778067310a73e29abd188d139ae1343ca1dc21f,2025-07-20T15:03:00.489Z,1eee77e0-42c7-4dc2-ae53-250e5bd8ecab
4264,007-28800-00,New Jersey,HADDON HEIGHTS,625 Station Avenue,,Haddon Heights,08035-0000,b5ff823b27ac6f96f88d916d2fc8e3ea99a02a03,2025-07-20T15:03:00.489Z,02fd6f0e-7b05-4ae3-8775-89e855343e55
1561,011-107C0-00,Florida,BROWARD COUNTY SCHOOL BOARD DISTRICT,4200 A NW 10TH AVENUE,,OAKLAND PARK,33309-0000,dd327c10ebdc4d1fac366fa666ccf58bcb18f8c7,2025-07-20T15:03:00.489Z,3d78c69d-a019-429e-a7e5-574d5fc8f992
1602,011-14125-00,Florida,"COOPER CITY, CITY OF",9090 SW 50TH PLACE,,COOPER CITY,33328-0000,bd6bbf99ec4540cb184eee6fffcf17961669f1f7,2025-07-20T15:03:00.489Z,ab7d4610-5e0f-4a56-b5c2-50be0309c9ef
4155,000-UM9IF-00,South Dakota,WEST RIVER ELECTRIC ASSOCIATION,1200 W 4th Ave,,Wall,57790-0000,d18b98a9413bb20836cade6980d75ace5cc63440,2025-07-20T15:03:00.489Z,632c9dec-9170-41b4-994c-8aeed48f8d2d
4238,177-U4FP2-00,Missouri,HENRIETTA SPECIAL ROAD DISTRICT,101 W First St,,Henrietta,64036-0000,6b7e5253fc57621892689a3b88e7566ce63ea2e0,2025-07-20T15:03:00.489Z,1de695f3-2969-4e3f-a9b4-604a4f153eed
4091,029-UEQ1F-00,Maryland,KENT COUNTY PUBLIC WORKS,709 Margnec Road,Suite 101,Chestertown,21620-0000,d84776fa026b3bdf56fc074ec5b7bcd4dc8a4c07,2025-07-20T15:03:00.489Z,3dab724f-f9e7-4d89-a624-8b212144d8a4
4160,000-U0414-00,Arkansas,ARKANSAS DEPARTMENT OF PARKS AND TOURISM,#1 Capitol Mall,,Little Rock,72201-0000,2d2ffe52daabad113522f298b567a3e377962c09,2025-07-20T15:03:00.489Z,933953e5-b53c-4d38-ad53-6832da05b2c5
4167,000-UCZCS-00,North Carolina,NORTH CAROLINA A & T STATE UNIVERSITY,1601 E. Market Street,,Greensboro,27411-0000,9500539579f83853b9f36efb40cc44e2a0313320,2025-07-20T15:03:00.489Z,524c5e05-ad97-42fc-8be9-80e65d11cfb7
4288,019-50275-00,Wisconsin,MEAD (TOWN OF),N 10516 Bachelors Ave,,Greenwood,54437-0000,9e45ae837296050894740fb7fffaa786a4862dc8,2025-07-20T15:03:00.489Z,95cb3b3c-2f11-4b38-9a0e-7eca702a72c2
4264,041-04990-00,New Jersey,BELVIDERE,691 Water Street,,Belvidere,07823-0000,b53b9ac70d694b61f156b01103bf9d98c063a40d,2025-07-20T15:03:00.489Z,a2b4c21d-6517-4a54-bfca-43fab7316a56
4211,089-99089-00,Tennessee,JEFFERSON (COUNTY),581 West Old AJ Hwy,,New Market,37820-0000,5c4c2163396b59a2d46a1d25f7833c792aa47826,2025-07-20T15:03:00.489Z,e721f59d-ec89-466f-aaf3-89528692625d
4261,005-UUM7X-00,Maryland,WHITE MARSH VOLUNTEER FIRE COMPANY,5419 Ebenezer Road,,White Marsh,21162-0000,97da284693270ad96ccae1e35a8ccc95506998e9,2025-07-20T15:03:00.489Z,6ef01e8a-54ea-44be-bc85-1b2233ee32f1
4261,017-45750-00,Maryland,LA PLATA,305 Queen Anne Street,PO Box 2268,La Plata,20646-0000,6f44bc164eb58de890d48ac6bd49a55e54cdd49c,2025-07-20T15:03:00.489Z,1b6529f4-72a4-48c2-a670-6b2ff34c40be
4264,009-17560-00,New Jersey,DENNIS (TOWNSHIP OF),571 Petersburg Road,,Dennisville,08214-0000,a2b0e2d743ac3014762cac7c860ec533e70f021b,2025-07-20T15:03:00.489Z,679be2b0-b4d0-419f-a9a0-bc2bfe91fde3
4216,137-73110-00,Kentucky,STANFORD,305 East Main Street,,Stanford,40484-0000,183c05aea317371e735a0af395711e38b0464f62,2025-07-20T15:03:00.489Z,86a758ca-21b6-46b6-bae2-e869ebee0064
1792,051-02CC4-00,Louisiana,JEFFERSON PARISH SHERIFF'S OFFICE,1233 Westbank Exp,,Harvey,70058-0000,9d0f36ec67feaa2068507182b93cd3858f7e3db7,2025-07-20T15:03:00.489Z,a9687845-98dc-4e7b-bf9e-5618f39b64c6
4250,189-76246-00,Missouri,VINITA PARK,8374 Midland,,Vinita Park,63114-0000,bc9a8dd0633f8cdb48d8dcd51b2621026aa10ea6,2025-07-20T15:03:00.489Z,404d8fbe-7e92-4f75-90d4-09f35bc769b7
1561,000-U8CZZ-01,Florida,UNIVERSITY OF FLORIDA,BUILDING 106 MOWRY ROAD,,GAINESVILLE,32611-0000,91cf066f5eb1b3d8f68150dee86e6e7f0b897a18,2025-07-20T15:03:00.489Z,4f146104-fbe0-495a-aac8-4d4f4abc3d93
4210,043-U96DQ-00,West Virginia,BRANCHLAND MIDKIFF PUBLIC SERVICE DISTRICT,3670 McClellan Highway,,Branchland,25506-0000,2f48e387b7811afed329d4c3ceb806768efd58eb,2025-07-20T15:03:00.489Z,e0889b52-7191-4008-b9ec-38e5013fa1d5
1561,000-UR06H-00,Florida,"TRI-COUNTY ELECTRIC COOPERATIVE, INC.",2862 W US 90,,MADISON,32340-0000,3d8c28ce2345daf6ca303d2a9c0879c9231a36d8,2025-07-20T15:03:00.489Z,4ebc7c3c-4598-42f4-9bc0-53c85e347f27
4031,057-64639-00,New York,ST. JOHNSVILLE,16 Washington Street,,St. Johnsville,13452-0000,c4da8f60f42ac4c2437c301d4308a356a024f6cf,2025-07-20T15:03:00.489Z,204e2e2e-7645-423c-b761-770cd29ba6e7
4174,063-04030-00,Arkansas,BATESVILLE,500 East Main Street,,Batesville,72501-0000,52503896b03ae19531d307629fc0c45f1e1da049,2025-07-20T15:03:00.489Z,ac517887-2a85-4f60-a5a0-de9130f80d64
4230,201-29900-00,Kansas,HANOVER (TOWNSHIP OF),101 South Bern Street,,Hanover,66945-0000,fe0552531d4d9509978885cba2b75fdf58b3b30d,2025-07-20T15:03:00.489Z,5cd5db80-18a0-45dd-a2b7-dc561a025915
4264,001-08710-00,New Jersey,BUENA VISTA (TOWNSHIP OF),890 Harding Hwy,,Buena,08310-0000,faf5eab162825488b91cf37c99bedf8d5da1e51d,2025-07-20T15:03:00.489Z,d3e7a845-bf4d-44a3-851b-af9d93896afa
1971,059-99059-00,Alabama,FRANKLIN (COUNTY),405 Jackson Aveune North,,Russellville ,35653-0000,42ceed391a1b8cd325779cf817e69fc7f35e8eef,2025-07-20T15:03:00.489Z,c215295e-a739-4090-a9e9-0fbe877998ea
1974,013-99013-00,Tennessee,CAMPBELL (COUNTY),570 Main ,Suite 15A,Jacksboro,37757-0000,adaff54f02f2b6dc20150515e9e58f943a7d57c4,2025-07-20T15:03:00.489Z,0386ce32-68a3-4e1e-8acb-e7de5c774d17
4124,037-99037-00,Arkansas,CROSS (COUNTY),"705 East Union Street, Room 4",,Wynne ,72396-0000,8722f3fd0ed40f7f5f1409a4abf6964d80c23982,2025-07-20T15:03:00.489Z,d0ffa63e-a72a-403b-bd58-5ff42ce84685
4211,093-02882-00,Tennessee,UNIVERSITY OF TENNESSEE,112 Conference Center Building,,Knoxville,37288-0000,e515bde35fe2a2aa23022fd74640c23e5d14f9d6,2025-07-20T15:03:00.489Z,bdd9121c-0f5b-41f6-b877-3a739f7ab97b
4146,027-99027-00,North Carolina,CALDWELL (COUNTY),905 West Ave.,,Lenoir,28645-0000,f3783d466cc367938610bd2c4adb700eed23f9ac,2025-07-20T15:03:00.489Z,4815b19c-b3dc-4b6f-9e25-03750b7ee0c3
4238,113-80422-00,Missouri,WINFIELD,51 Harry's Way,,Winfield,63389-0000,f3a10128071636bf03d21fc6d2de0fecfd1062a9,2025-07-20T15:03:00.489Z,c802dccb-ec74-49a6-875a-2fd32da68ac7
4107,007-00748-00,Rhode Island,CENTRAL FALLS HOUSING DEPT,30 Washington Street,,Central Falls,02863-0000,29ddf8900d00e7cc7c2d9f79adec390419dd47d0,2025-07-20T15:03:00.489Z,58357199-37d4-463d-9155-2e48b2981413
4174,045-00807-00,Arkansas,VILONIA SCHOOL DISTRICT,11 Eagle Street,,Vilonia,72173-0000,6549d05153b1c3429bae690346a4e81345b613a6,2025-07-20T15:03:00.489Z,835525f5-fda9-434c-abd3-5fff9dc7cb45
4167,151-02080-00,North Carolina,ASHEBORO,146 North Church Street,,Asheboro,27203-0000,5c4c9712e0c49b1203b8458a21457de85e72dc99,2025-07-20T15:03:00.489Z,86005105-0311-47bd-ab2c-50e2e5432a95
4174,145-99145-00,Arkansas,WHITE (COUNTY),300 North Spruce Street,,Searcy,72143-0000,28350ffcbe172fca9e62d721a597334b3d4c76ad,2025-07-20T15:03:00.489Z,25be6ada-4c20-40a1-aa55-f985dd534d7b
4174,045-44750-00,Arkansas,MAYFLOWER,2 Ashmore Street,,Mayflower,72106-0000,2672be1fc7ebc6c6a436217dc50348076ede0ca9,2025-07-20T15:03:00.489Z,cc685492-11b5-403d-8316-02bb68b86933
4102,053-UL47X-00,Louisiana,JEFFERSON DAVIS PARISH POLICE JURY,304 N State Street,,Jefferson Davis,70546-0000,33c292c7344dc1ae970ecc1d4316c0bb47f023c9,2025-07-20T15:03:00.489Z,68cddcf3-2bda-4ee9-8148-bacf56a7ba6a
4107,009-U42BK-00,Rhode Island,MSGR. M. F. CLARKE CATHOLIC REG. SCHOOL,5074 Tower Hill Road,,Wakefield,02879-0000,f9f0bdbf9ce7f0073117e2015d4f38d0ff3cb289,2025-07-20T15:03:00.489Z,8024a38f-d184-41bc-a89d-4245ab3c90e3
1561,095-UHQTD-00,Florida,VISTA LAKES,610 SYCAMORE STREET,SUITE 140,CELEBRATION,34747-0000,376a487df4289c0a57b53be9306b7fdfc8a17641,2025-07-20T15:03:00.489Z,67d0f318-05c0-42df-ae56-cbfc3227a3a5
1763,081-29955-00,Iowa,"GARNER, CITY OF",135 WEST 5TH STREET,,GARNER,50438-0000,7f234496894d7d036472cb97348b05f968ee0428,2025-07-20T15:03:00.489Z,438ea427-943e-4423-a5a6-a1aeb294d861
1545,047-77400-00,Florida,"WHITE SPRINGS, TOWN OF",10363 BRIDGE STREET,,WHITE SPRINGS,32096-0000,98409fd190b746ecf5523838d3338187e0a05bf9,2025-07-20T15:03:00.489Z,37e1c07d-2546-4cb0-b822-ef77d5dded84
1763,033-51420-00,Iowa,"MESERVEY, CITY OF",CITY HALL,,MESERVEY,50457-0000,c9673762b84fe6ecdf228b21f7fbd19ade6dc6e4,2025-07-20T15:03:00.489Z,391801d2-c014-404d-bcf7-3f528b86b27d
1545,101-075DE-00,Florida,ST LEO UNIVERSITY,"33701 STATE ROAD,  SUITE 52",,ST. LEO,3574 -0000,af17a8bc164ac39944d7bc495f471e72171e7921,2025-07-20T15:03:00.489Z,c02eb51b-f441-40d1-b1d8-43e2d6d44da4
1763,129-73155-00,Iowa,"SILVER CITY, CITY OF",403 MAIN STREET,,SILVER CITY,51571-0000,c711882846163b54dd6785fa8ba4908e77882c76,2025-07-20T15:03:00.489Z,1e12aa48-15f9-4ef1-b7d6-e400a9b3bfd4
1650,105-42235-00,New York,LIBERTY (TOWN OF),2751 STATE ROUTE 52,,LIBERTY,12754-0000,5249e61167a1c5b0bd103598566d0131ba42380e,2025-07-20T15:03:00.489Z,f4add201-1fa9-453c-baea-f37c59c7891a
1792,113-24180-00,Louisiana,ERATH,115 W. Edwards,,Erath,70533-0000,14effb1d0ee397e5b8e72cb37b6101d9b6279597,2025-07-20T15:03:00.489Z,17967254-25d2-4529-a964-c655e581927c
4089,009-01205-00,Rhode Island,HOPE VALLEY WYOMING FIRE DIST,996 Main St.,,Hope Valley,02832-0000,0003a36daf783b3f17b645d35a443a2d7e69a941,2025-07-20T15:03:00.489Z,e50dc130-27a8-4e70-9051-66477ffcef93
4091,017-0014B-00,Maryland,CHARLES COUNTY HEALTH DEPT,4545 Crain Highway ,,White Plains,20695-0000,e3d0123252135cf3d9f3d9e2b2255b28badbabb1,2025-07-20T15:03:00.489Z,d250ef10-6d8e-4eeb-a694-6b2222687b0f
1539,017-U2SEE-00,Florida,NATURE COAST EMERGENCY MEDICAL SERVICES,3380 E. GULF TO LAKE HIGHWAY,,INVERNESS,34453-0000,025f168df17bed0c1e311b40c78d6be79bfab134,2025-07-20T15:03:00.489Z,aed4e096-e565-481d-8737-1397b8d58862
1539,015-99015-00,Florida,CHARLOTTE (COUNTY),18500 MURDOCK CIRCLE,,PORT CHARLOTTE,33948-0000,65035343a1fb7f533924b7189dca61fb6e8e5fd4,2025-07-20T15:03:00.489Z,07591a68-b15a-494e-8ef9-01cb2ce1ffe0
1545,023-15FE7-00,Florida,COLUMBIA COUNTY SCHOOL BOARD,372 WEST DUVAL STREET,,Lake City,32055-0000,e47f628d54d6cd3267264c22fc0e06a2754454f6,2025-07-20T15:03:00.489Z,1481b607-1ae1-41bd-9312-89439461133e
1539,021-99021-00,Florida,COLLIER COUNTY,3301 E. TAMIAMI TRAIL,"OMB, 2ND FLOOR",NAPLES,34112-0000,f4de3b917142545a1db346ccbda21f6a1f78d42a,2025-07-20T15:03:00.489Z,f335a426-1bd5-45b9-89b7-11b1c2ff77ab
1971,115-U2CSI-00,Alabama,PELL CITY SCHOOLS,1000 Bruce Etheredge Pkwy Ste 201,,Pell City,35128-0000,057c8d6615a24d7123f78e3c48270177e5943408,2025-07-20T15:03:00.489Z,4dad9f66-9286-4a62-a10c-a6262dafc037
4021,025-08637-00,New Jersey,KEANSBURG BOARD OF EDUCATION,100 Palmer Place,,Keansburg,07734-0000,4bdb992b022b4ef1c800d8b6030cd680c30ea3ad,2025-07-20T15:03:00.489Z,3cded7b3-4b46-4d5e-a6e4-27d2be307a00
4176,069-02836-00,Alabama,ASHFORD,525 N Broadway,,Ashford,36312-0000,65a3b341082bde5a60e4d3d816059afcb86f7fe7,2025-07-20T15:03:00.489Z,eabdeb4d-68b4-4868-b353-eed1cc899770
4230,059-99059-00,Kansas,FRANKLIN (COUNTY),1428 S Main St.,Suite 5,Ottawa,66067-0000,7dd3022e9f8d551fa5d1848aea172e90312594f5,2025-07-20T15:03:00.489Z,0535e111-7e02-4053-b7eb-fa1a590af822
4021,025-07C1B-00,New Jersey,KEYPORT BOARD OF EDUCATION,370 Broad Street,,Keyport,07735-0000,f1e21ec26d6601d592652594272fa1ad823dec7e,2025-07-20T15:03:00.489Z,78849d6c-2189-4d05-bd4d-a03d8037e294
1818,035-01033-00,Kentucky,MURRAY ELECTRIC SYSTEM,401 Olive Street,,Murray,42071-0000,3d30aa8e9b56b9368a0e68aa149366824c7cf364,2025-07-20T15:03:00.489Z,752fd080-04c5-4be0-a43e-f92154c9defc
4238,081-45398-00,Missouri,MADISON (TOWNSHIP OF),1509 Depot St,,Gainsville,64632-0000,9af123f604fc7d07023c01cfc45e7825bda63f0c,2025-07-20T15:03:00.489Z,5afa35f0-d7a8-49ee-9a38-0ba2c6c1e94c
4196,195-99195-00,Kentucky,PIKE (COUNTY),146 Main Street,,Pikeville,41501-0000,173a2419d1014127b42f0e0a954e17ef0f9eb0db,2025-07-20T15:03:00.489Z,4f9a547d-6cbd-4c75-bac4-874fd9fb19e2
1561,071-U0QH0-00,Florida,LEE MEMORIAL HEALTH SYSTEM,226 CLEVELAND AVENUE,,FOR MYERS,33901-0000,bf6fadb1d02d8ce58305d86b71dd6bbdc58d585d,2025-07-20T15:03:00.489Z,92faa464-97d7-4a32-b4fd-d73b5ab166bf
1561,069-12925-00,Florida,"CLERMONT, CITY OF",685 WEST MONTROSE STREET,,CLERMONT,34711-0000,e980638275faf33980bf166d10d64116f87736fc,2025-07-20T15:03:00.489Z,27fc56b0-cd23-476c-b29b-ae86d613631b
4320,141-UZ0UE-00,Tennessee,PUTNAM COUNTY SCHOOL SYSTEM,1400 East Spring Street,,Cookeville,38506-0000,c9b6b69cc604bae32b17df8ae7953ca2bf1bb0b2,2025-07-20T15:03:00.489Z,ea206a6c-89f3-475e-bfaa-09047ab2f2e5
4029,405-99405-00,Texas,SAN AUGUSTINE (COUNTY),100 West Columbia,Room 105,San Augustine,75972-0000,e53d28704f1c1e47c547f46f54ebacf82eb67573,2025-07-20T15:03:00.489Z,dbaec557-76c9-40e4-8803-1b538bcd1aa9
4022,021-11950-00,Vermont,CASTLETON (TOWN OF),556 Main Street,,Castleton,05735-0000,27d26f1c3643ed5d878e05db35e66783cf0ca3ae,2025-07-20T15:03:00.489Z,e3c3cfcd-2855-4dce-a122-c631198fa3cf
4320,105-41760-00,Tennessee,LENOIR CITY,530 Hwy 321 North,,Lenoir City,37771-0000,4d03721d575c1ee608e860c921e994aa74ef5cb8,2025-07-20T15:03:00.489Z,0e9ba830-6a73-4912-bb82-5d44974b9a9d
4021,000-UXE9R-00,New Jersey,DEPT. OF TREASURY STATE OF NEW JERSEY,50 West State Street (8th Floor),P.O. Box  211,Trenton,08608-0000,deedf60b4c9f0310ec93747beda284f69c6f7d5a,2025-07-20T15:03:00.489Z,9ba21012-be47-42d9-9bbd-a7fbcdd4f2c5
4304,145-25750-00,Kansas,GARFIELD,217 3rd Street,,Garfield,67529-0000,5856d9353146048547838230bf23f4af90f21ae5,2025-07-20T15:03:00.489Z,78d8a222-382e-4200-ad8e-e80ad7949945
4021,015-UKCG8-00,New Jersey,DEPTFORD TOWNSHIP FIRE DISTRICT #1,1370 Delsea Drive,,Deptford,08096-0000,fa6119202c7c655c65d01b8af1225923b8d8008a,2025-07-20T15:03:00.489Z,1145419d-1dbe-4d06-b3f6-75cd5ffdd0b5
4031,057-99057-00,New York,MONTGOMERY (COUNTY),6 Park St,,Fonda,12068-0000,2f9684d95d893bd2c0721ded0bea1dc80e3dba55,2025-07-20T15:03:00.489Z,d2b35f00-dffc-417e-8328-aa41c9e5ff82
4026,019-62340-00,New Hampshire,PLAINFIELD (TOWN OF),110 Main St,,Plainfield,03770-0000,961b3f06f13491fcbf61110a94eac91fc443d890,2025-07-20T15:03:00.489Z,79a0edbd-c89b-4656-80e3-139d66536b9b
4022,007-34600-00,Vermont,HUNTINGTON (TOWN OF),4930 Main Road,,Huntington,05462-9712,cfaacffeb13f01e0e8b2422731d66d77fc3c6bfa,2025-07-20T15:03:00.489Z,a6e0e722-1381-4f22-b8c6-4c2dc50b4b55
4028,023-00170-00,Massachusetts,ABINGTON (TOWN OF),215 Central Street,,Abington,02351-0000,c333b65d0c4c019e6b5d773a376a5a59f94de1b1,2025-07-20T15:03:00.489Z,9cd6c532-590a-4527-8e9f-fde3d9c2eb08
4031,077-41520-00,New York,LAURENS,37 Brook Street,,Laurens,13796-0000,7b3b58bdb11055c83132450e82b7c3138f83ac9a,2025-07-20T15:03:00.489Z,e75954b7-dbac-4f43-a2c5-0e56f1c1e0c3
4021,027-19210-00,New Jersey,EAST HANOVER (TOWNSHIP OF),411 Ridgedale Ave.,,East Hanover,07936-0000,2669e56f77904e72f8f2b9f2658c54e134e39410,2025-07-20T15:03:00.489Z,f843e539-5feb-4d00-a848-4865c2904726
4021,025-01075-00,New Jersey,ASBURY PARK BOARD-EDUCATION,603 Mattison Avenue,,Asbury Park,07712-0000,24d5f2a80407d2da24a775a5714f2aff05473883,2025-07-20T15:03:00.489Z,0d9a8723-ab4d-4c7e-9e10-49432c872cbc
4259,143-99143-00,Georgia,HARALSON (COUNTY),155 Van Wert Street,,Buchanan,30113-0000,f54de5cdaa51f9d227bf1e9778e62c49644f6ebb,2025-07-20T15:03:00.489Z,025fb874-6051-4e80-a34e-89c8dc1e13ac
4264,000-UPEVN-00,New Jersey,SOUTH JERSEY TRANSPORTATION AUTHORITY,100 Trooper Lane,,Hammonton,08037-0351,1cf5f0662c1669581ebc17a470e6336e6416dd17,2025-07-20T15:03:00.489Z,52843f79-f2aa-45bf-8898-11293439af9e
4250,143-99143-00,Missouri,NEW MADRID (COUNTY),379 Bloomfield Road,,New Madrid,63869-0000,cb195c1594a6c5a63f447b38953751f05259b172,2025-07-20T15:03:00.489Z,b8472f12-8ba4-410b-8c87-84acb8b0c93e
4264,021-29310-00,New Jersey,HAMILTON (TOWNSHIP OF),2090 Greenwood Avenue,,Hamilton,08650-0000,b5c49858f998379a14d469a6cf428497c740843d,2025-07-20T15:03:00.489Z,d3b74e2d-8b66-4d43-a5f5-944868b19560
4264,005-49020-00,New Jersey,MOUNT LAUREL (TOWNSHIP OF),100 Mount Laurel Road,,Mount Laurel,08054-1507,437dcf627d3d3b643cbdd9e85b4a73cf443d674c,2025-07-20T15:03:00.489Z,8d73d2a6-8412-44b1-bf27-52ef9df285b7
4264,005-ULILT-00,New Jersey,MEDFORD LEAS,1 Medford Leas Way,,Medford,08055-2254,4a45bd7ddcdcb06630e6b4f100ea60e1b7e1eb79,2025-07-20T15:03:00.489Z,f73bf0c4-2c9b-475a-8142-e3c32bfdc119
4230,005-11550-00,Kansas,CENTER (TOWNSHIP OF),4950 Haskill Rd,,Effingham,66023-0000,e1388ec0cacb536535b4be517fbff7d30c9cf88c,2025-07-20T15:03:00.489Z,b925980b-2c3e-4ff9-a853-7ccad0f58d84
4230,043-17750-00,Kansas,DENTON,510 Main Street,,Denton,66017-0000,83bf9c507d3e227136147e63eb888d85e387c932,2025-07-20T15:03:00.489Z,d4a49b57-92a9-4127-a529-089b950e0fd9
4230,073-38425-00,Kansas,LANE (TOWNSHIP OF),2405 EE50 Rd.,,Virgil,66870-0000,155602ad58f29397d81ad3f77ef80280602ef46a,2025-07-20T15:03:00.489Z,777abfe2-d463-4104-b830-05c374e9ecd4
4247,047-23950-00,Oklahoma,ENID,401 W. Owen K. Garriott,,Enid,73701-0000,abb74e39511194096466ff71c02ef0ebe11d4297,2025-07-20T15:03:00.489Z,9e2cb498-c83d-42c7-bd74-2bc47931644c
4236,067-68116-00,West Virginia,RICHWOOD,6 White Avenue,,Richwood,26261-1338,9112dbab6ccc7064896b78ab107b5b207475e007,2025-07-20T15:03:00.489Z,6332da4d-69ff-4069-8d02-25b74ea50582
4264,009-80210-00,New Jersey,WEST WILDWOOD,701 Glenwood Avenue,,West Wildwood,08260-0000,afdf9c8fe845f2ee72bf89317824ca49e024c4b5,2025-07-20T15:03:00.489Z,9a28f39d-a41b-42c0-acd4-58c74fb776c9
4250,077-70000-01,Missouri,SPRINGFIELD,301 E Central,,Springfield,65801-0000,10317aee390ab526c309ff5588ebc4d225040c07,2025-07-20T15:03:00.489Z,68118776-4757-41ea-99ea-7c45c3fe581c
1763,085-22890-00,Iowa,"DUNLAP, CITY OF",716 IOWA AVENUE,,DUNLAP,51529-0000,996a47a520aa4163faabb7cff1ee42c2b0acac72,2025-07-20T15:03:00.489Z,3c515caa-0f52-4b11-82f6-b13bc2355485
1561,127-UJP9P-00,Florida,STETSON UNIVERSITY,450 EAST MINNESOTA AVENUE,,DE LAND ,32723-0000,b7f8884d56ed97eed3d0355c05031cec61f158d4,2025-07-20T15:03:00.489Z,9520be4b-1e8f-46e2-b26c-33c48679ab02
1971,059-59496-00,Alabama,PHIL CAMPBELL,580 Railroad St,,Phil Campbell,35581-0000,acc1d2305e03aafbcfccc1271fbc24cd37ffc96d,2025-07-20T15:03:00.489Z,61061d98-7b27-41d4-8d96-63b9fd767c73
1763,000-UXWJJ-00,Iowa,CONSUMERS ENERGY COOPERATIVE,2074 242ND STREET,PO BOX 1058,MARSHALLTOWN,50158-0000,7e2444e2db277250c7eda204db3285ccb4036866,2025-07-20T15:03:00.489Z,ff65d2d7-9486-4c68-8ff9-e733071070ee
1539,103-99103-00,Florida,PINELLAS (COUNTY),400 S. FT. HARRISON AVE," CTY ANNEX, SUITE 111",CLEARWATER,33756-0000,f9a5f925c4f7b81a6b1be76948a17bfd3e702733,2025-07-20T15:03:00.489Z,af5a1671-d3f1-4393-94a9-65dab71f34b0
1974,085-99085-00,Tennessee,HUMPHREYS (COUNTY),102 Thompson Street,,Waverly,37185-0000,5938fa717f289ec5ad49d7c115cf9b6d440dd8c3,2025-07-20T15:03:00.489Z,020a8117-d74b-41f6-81d9-301d35242251
1976,149-47062-00,Kentucky,LIVERMORE,105 W 3rd Street,,Livermore,42352-0000,4ef8dea4abf2152bb3b6bb9ca1030c5ec12d1723,2025-07-20T15:03:00.489Z,5cce4304-33f2-4759-9deb-cfa5ed541f25
4069,035-40148-00,Minnesota,MAPLE GROVE (TOWNSHIP OF),7243 Co. Road 23,,Brainerd,56401-0000,df5c5673f54731298f5ff7ebff341eb1dfd488c1,2025-07-20T15:03:00.489Z,1b9f78c0-5d79-4e5f-8011-ebdb5701adab
1976,101-99101-00,Kentucky,HENDERSON (COUNTY),"20 N. Main Street, Suite 300",,Henderson,42420-0000,e169c749eda58d5653651f47f0caf254eb25d181,2025-07-20T15:03:00.489Z,a9c5d5f6-7cfe-469f-9810-a8ffda4a6e24
4021,013-UTDIL-00,New Jersey,NEIGHBORHOOD ASSOCIATION OF MILLBURN TOWNSHIP,12 Taylor Street,,Millburn,07041-0000,2c87bc72fdabb5de92d766087334f638ff7bafe9,2025-07-20T15:03:00.489Z,7649c18f-6bcd-495c-897b-351fdb998a43
4143,000-URKLW-00,Arkansas,ARKANSAS DEPARTMENT OF EMERGENCY MANAGEMENT,Building 9501 ,Camp Joseph T Robinson,North Little Rock,72199-2199,a68e4d68ddff323faeba4aaf110bd397be04306d,2025-07-20T15:03:00.489Z,e35e8c70-62cb-4d30-b1ff-e2b1ab436392
4153,109-0923D-00,North Carolina,UNION FIRE DEPT,4588 Reepsville Road,,Vale,28168-0000,c1bb47f1a3bda54c05d9c2e88d2feaedfd2fb7d0,2025-07-20T15:03:00.489Z,6853faf1-9da8-43d8-aa4d-265a90d14328
4124,000-U1Y25-00,Arkansas,RICH MOUNTAIN ELECTRIC  COOPERATIVE,515 Janssen Avenue,,Mena,71953-0000,f875ab8d701e6de7c1717b7e757518a4291e7108,2025-07-20T15:03:00.489Z,c8b87f11-0785-4977-a263-c81e3d8fc3ac
4117,087-51200-00,Oklahoma,NEW CASTLE (CORPORATE NAME NEWCASTLE),422 South Main Street,,Newcastle,73065-0000,403ea9a6e749676772d9b2455e726b6260cde928,2025-07-20T15:03:00.489Z,08837b2d-0191-4638-814f-a4f5da87527d
1545,085-UQJTN-00,Florida,MARTIN COUNTY SCHOOL DISTRICT,500 EAST OCEAN BLVD.,,STUART,34994-0000,95956301e9ffc28fb74d555b2d91a424b5dbcc64,2025-07-20T15:03:00.489Z,bde908bc-be49-4c84-ac3c-595a56823860
1650,095-16628-00,New York,"COBLESKILL, VILLAGE OF",SCHOHARIE,,SCHOHARIE,12043-0000,e57fb1ebdd4fbcb4b8ad3277b9404d1264d6635c,2025-07-20T15:03:00.489Z,b8c8239e-7ac2-4534-a46f-6a2a0f75dffe
1602,086-UQ95K-00,Florida,FAIRCHILD TROPICAL BOTANIC GARDEN,10901 OLD CUTLER ROAD,,CORAL GABLES,33156-0000,3b775a4605ae4a44af054efcdc291484967e44dd,2025-07-20T15:03:00.489Z,86bda940-10ce-49a3-a6a8-9be367480884
1539,049-0302A-00,Florida,SCHOOL BOARD OF HARDEE COUNTY,1001 -1009 N 6TH AVE,,Wauchula,33873-0000,c7b399b72b2674dc12030fb84273bb5f42139c4a,2025-07-20T15:03:00.489Z,f3991718-fc67-47ec-a047-0e991921dcaa
4238,229-02E74-00,Missouri,WRIGHT COUNTY ROAD & BRIDGE,5109 Hwy 5,,Hartville,65667-0000,d06fb6a65fa9eefbbdc7dbd25b236a7e19dfbdd7,2025-07-20T15:03:00.489Z,3f8fc462-7fcb-4c79-8cf0-ff5d3f9d25ca
4238,115-08650-00,Missouri,BROOKFIELD,116 W. Brooks,,Brookfiled,64628-0000,ab0c3164da99fa13912c456628d9abb3e111b478,2025-07-20T15:03:00.489Z,afbe8cc0-21e8-4d01-abf8-f9f4e7775951
1561,061-64825-00,Florida,"SEBASTIAN, CITY OF",1225 MAIN STREET,,SEBASTIAN,32958-0000,405ffae74683154e8ccedb5242f86f536f23341c,2025-07-20T15:03:00.489Z,fa4ec0af-e60b-4c7c-97bf-606cefbf9c2f
1968,015-17022-00,California,CRESCENT CITY,377 J Street,,Crescent City,95531-0000,8e7f82a5a5d7c659fcf32d883946bd5618afda96,2025-07-20T15:03:00.489Z,c589eec6-5245-49f7-adb3-78781b8a6599
1818,067-U49U1-00,Kentucky,CARDINAL HILL REHABILITATION HOSPITAL,2050 Versailles Road,,Lexington,40504-0000,95d3e6c6e002af95b9f1974130575490367fa9a3,2025-07-20T15:03:00.489Z,21528a91-fef7-4dc8-8278-343321334c5f
1539,027-UPVEN-00,Florida,HURRICANE ISLAND OUTWARD BOUND,8806 SW START CENTER ST,,ARCADIA,34269-0000,1d261837d4e33b1382c1c1fb0dae0874e4c21259,2025-07-20T15:03:00.489Z,2bd27719-6f54-4304-a0fc-6961f6782c7c
1763,085-46155-00,Iowa,"LOGAN, CITY OF",108 WEST 4TH STREET,,LOGAN,51546-0000,15a692781353d43b19ef5ae4d2ba72404f73b207,2025-07-20T15:03:00.489Z,87d5da2e-cd83-43d7-880a-d32f45f9081e
4089,009-01208-00,Rhode Island,HOPE VALLEY AMBULANCE SQUAD,5 Fairview Ave.,,Hope Valley,02832-0000,2f33d83044e427d74e45c413dcf6cde8a85415f7,2025-07-20T15:03:00.489Z,4f59911b-2bce-47c8-8069-f4d216934f27
4250,213-036A1-00,Missouri,WESTERN TANEY COUNTY FIRE,221 Jefferson Rd.,,Branson,65616-0000,7e0e6a8bea949f1f9f65cce024a88fd0122a0fc8,2025-07-20T15:03:00.489Z,0080603f-79c0-4546-b7ca-2ffe0e2e902b
1561,061-UPVCM-00,Florida,INDIAN RIVER FARMS WATER CONTROL DISTRICT,4400 20TH STREET,,VERO BEACH,32966-0000,dbfadf63ddb680871257e773ce585b7ec3fa9f80,2025-07-20T15:03:00.489Z,ac91d97c-bc55-4b59-b9d6-c38829e628b6
4264,019-13750-00,New Jersey,CLINTON (TOWNSHIP OF),1225 Route 31 South,,Lebanon,08833-0000,a7bf31bc7de483cca69ff3438efebf780a6c5e94,2025-07-20T15:03:00.489Z,24b561bf-2286-48d0-8772-5561df5b9a2b
4250,133-99133-00,Missouri,MISSISSIPPI (COUNTY),200 North Main Street,,Charleston,63834-0000,60b12c1a47608875d1643b92aeb62eb8475436ea,2025-07-20T15:03:00.489Z,c3b1867e-2c2e-4855-9026-4db601c9ac4d
1539,089-30750-00,Florida,"HILLIARD, TOWN OF",15879 WEST CR 108,,HILLIARD,32046-0000,03cc197bcba28dc65a0425439086814ff6655930,2025-07-20T15:03:00.489Z,5b65519d-524c-48db-b967-2e07ae7c5e10
4219,000-UU9A1-00,West Virginia,WV DIVISION OF HOMELAND SECURITY,"1900 Kanawha Blvd., East","Building 1, Room EB-80",Charleston,25305-0360,c50bb84212e5fbd3f5e7b8eab0c639dab4e894c1,2025-07-20T15:03:00.489Z,35b9d1ac-edf3-422a-973f-6eaba54cbaf8
1763,000-UL3IQ-00,Iowa,SOUTHERN IOWA ELECTRIC COOPERATIVE INC.,22458 HIGHWAY 2,,BLOOMFIELD,52537-0000,2c9418dc3161c9efc5bccabb5d612f05b7e233b7,2025-07-20T15:03:00.489Z,32333397-fe2d-432a-99d9-862420ae0c78
1561,000-UCRX8-00,Florida,DEPARTMENT OF FINANCIAL SERVICES,200 E GAINES STREET,,TALLAHASSEE,32399-0000,6626ad7d16456a9d047a25f46b00bdfe3f0bc5ff,2025-07-20T15:03:00.489Z,16070e17-b9bd-487e-b3a7-a26d8b061e8c
1561,000-UDM42-00,Florida,FLORIDA DEPARTMENT OF VETERAN'S AFFAIRS,11351 ULMERTON ROAD,ROOM 311K,LARGO,33778-0000,8a50e96b9ae492db005733db5d1838a37ab94426,2025-07-20T15:03:00.489Z,50b34d85-3a87-4d8f-955b-6fb9aa1d2cf5
1545,000-UBLE4-00,Florida,UNIVERSITY OF MIAMI,7108 FAIRWAY DRIVE,SUITE 340,PALM BEACH GARDENS,33418-0000,469c0a786262766c4773aff989fb083eb5010a67,2025-07-20T15:03:00.489Z,a13b67cd-66ad-4030-a39e-a224cca46a5a
4091,039-UMEOR-00,Maryland,SOMERSET COUNTY HEALTH DEPARTMENT,7920 Crisfield Highway,,Westover,21871-0000,1c6392559c42c1a405686ff64f2247c6a1a6278e,2025-07-20T15:03:00.489Z,6abfba8d-5472-437b-a15b-f1c565837c3e
4234,057-U91RZ-00,Iowa,DES MOINES COUNTY SECONDARY ROAD DEPT.,13522 Washington Road,,West Burlington,52655-0000,8f5293d02b653f2c0d873bae19d2e4edf1cf325e,2025-07-20T15:03:00.489Z,4dfd0a5f-e804-4602-a833-4a115501fc7d
4057,000-UOFYE-00,Kentucky,BIG SANDY RECC,504 Eleventh Street,,Paintsville,41240-0000,922196ef71e16c589dac85535713cdb0c67522a7,2025-07-20T15:03:00.489Z,2847c6d5-74de-4524-b445-4e28e492733d
4069,137-00874-00,Minnesota,ALDEN (TOWNSHIP OF),7390 Laine Road,,Alden,55616-0000,cc1e28558a54419b966a6152aaabcd7266f52afe,2025-07-20T15:03:00.489Z,df659ea5-ba4c-4705-a52a-0a39cb1fe36a
4069,000-UL0NF-00,Minnesota,"MN. DEPT. OF PUBLIC SAFETY, DIV. OF EMERG. MGMT.","444 Cedar Street, Suite 223",,St. Paul,55101-6223,7e384e7533419d2790410c82952cc5163e61da22,2025-07-20T15:03:00.489Z,af454081-14c1-40fa-aa23-fb732dfe86f3
1818,165-99165-00,Kentucky,MENIFEE (COUNTY),12 Main Street,,Frenchburg,40322-0000,df126a0edc1f93b6818f589c9817f0e49b33af7a,2025-07-20T15:03:00.489Z,09daa97e-a55f-4da5-9de5-8d34c6274e39
1818,111-74082-00,Kentucky,STRATHMOOR VILLAGE,2221 Gladstone Avenue,,Louisville,40205-0000,7051ddbb7cffb9b0ace40034e0b5f8929476f5dc,2025-07-20T15:03:00.489Z,799956c0-df0a-43af-a87f-eb7e3ec43f63
4176,003-32272-00,Alabama,GULF SHORES,1905 West 1st St,,Gulf Shores,36542-0000,1e37e83a51613a1e47c3437bfaf53bf9c23b68bb,2025-07-20T15:03:00.489Z,224a66ac-f561-4858-85ae-f91a91ff0be0
4236,007-78580-00,West Virginia,SUTTON,450 4th Street ,,Sutton,26601-0000,fe01005f50838caaee5b3420098b7cf6d7bb5b82,2025-07-20T15:03:00.489Z,75beec7c-5aa0-47d9-a93d-ccfe3ca8ecdb
1818,089-99089-00,Kentucky,GREENUP (COUNTY),"Room 102, Courthouse, Main Street",,Greenup,41144-0000,8ee9476fe4eb002c5772688ae89821cbd782ca0e,2025-07-20T15:03:00.489Z,153e98a1-b44e-4659-ab7b-867605a2ca03
4251,035-99035-00,Alabama,CONECUH (COUNTY),102 County Shop Road,,Evergreen,36401-0000,5d77e7b7e2491a934a2b22a1a43c106862ea5254,2025-07-20T15:03:00.489Z,048acb62-bd66-46d8-bc50-20186bce1293
4230,159-26075-00,Kansas,GENESEO,802 Silver Avenue,,Geneseo,67444-0000,8421f10bad654e44c1ee907613163cf56c30967d,2025-07-20T15:03:00.489Z,0436e3c8-75a4-4e0c-b69b-fb092cdd4162
1650,017-57507-00,New York,PHARSALIA (TOWN OF),COUNTY ROAD # 8,,EAST PHARSALIA,13758-0000,89328315482e925031ebf3f65dd3536daf0c7b8d,2025-07-20T15:03:00.489Z,0a8bb485-4391-4189-b1a4-fff589d800c6
1561,023-08F27-00,Florida,LAKE CITY COMMUNITY COLLEGE,149 SE VOCATIONAL PLACE,,Lake City,32055-0000,2e09581285caa1196541ad8344bf154414124556,2025-07-20T15:03:00.489Z,d6312083-45d2-41ee-8dc8-f86b893b996c
1659,017-UV2IH-00,New Mexico,UPPER GILA IRRIGATION ASSOCIATION,117 BOX CANYON ROAD,,CLIFF,88028-0000,cb43497270fe75a3c4a866cc27f7e6bf3c4a2fcf,2025-07-20T15:03:00.489Z,05748c22-5b54-45ab-97d1-d5fb4bb3eb53
4021,015-26340-00,New Jersey,GLASSBORO,1 S. Main St.,,Glassboro,08028-0000,b24adee3a101e298e6baadde999da67659da1044,2025-07-20T15:03:00.489Z,57e0fd2f-676a-41ea-9e44-de27331d9635
4021,031-URC8R-00,New Jersey,LITTLE FALLS BOARD OF EDUCATION,560 Main Street,,Little Falls,07424-0000,2fcce85b0adfe7f04805b16fd0e7b2924113bce4,2025-07-20T15:03:00.489Z,3db1416a-35aa-4f99-a86d-ad0650a95c43
1818,107-67710-00,Kentucky,ST. CHARLES,P.O. BOX  246,,St. Charles,42453-0000,c57b13c01b03db1eff19ea88ddb0978c5b4d6d7e,2025-07-20T15:03:00.489Z,7c053ba7-3e55-47fc-a777-484dce0d60ff
1976,000-UIFYB-00,Kentucky,KY DIVISION OF EMERGENCY MANAGEMENT,100 Minuteman Parkway,,Frankfort,40601-0000,74c225e8acc85a5f0fcd760d89b48fe9894502ea,2025-07-20T15:03:00.489Z,d617dd4b-4567-498d-aaf5-23e88cb696fe
4026,013-06500-00,New Hampshire,BOW (TOWN OF),10 Grandview Road,,Bow,03304-0000,db37dfdbdfcccc6f8c9bc6b1d986620ea5a1a692,2025-07-20T15:03:00.489Z,caab341a-d10b-4bf7-9094-cbb6cce0f4f7
4028,011-034E5-00,Massachusetts,BEMENT SCHOOL,94 Old Main St.,,Deerfield,01342-0000,9ecdf10bf812a924ca8703c291111af821f1e08c,2025-07-20T15:03:00.489Z,a337f7aa-e0f4-482b-bc7d-c99beda7ba06
4028,021-16495-00,Massachusetts,DEDHAM (TOWN OF),55 River Street,,Dedham,02026-0000,7c4d2f6634b2bf49863211e11f1f61d06108d356,2025-07-20T15:03:00.489Z,6f31eab0-4c40-4185-8e89-e4248d073d61
4021,005-UVUZX-00,New Jersey,BORDENTOWN TWP FIRE DIST. # 2,262 Crosswicks Road,,Bordentown,08505-0000,3cf4ada6b4b171f464fa64ca22fe6a852955fd23,2025-07-20T15:03:00.489Z,2372740d-c93a-4716-9949-0cd6aebc2435
4021,015-UKZGY-00,New Jersey,LOGAN TOWNSHIP MUA,69 Jefferson,,Logan Township ,08085-0000,7a4aecfc9d4bdb1b41dd0fe4d5586192b8fc346b,2025-07-20T15:03:00.489Z,ad016a64-5910-47e5-bae1-652f5a275e04
4021,011-UI9EL-00,New Jersey,UPPER DEERFIELD TWP BOARD OF EDUCATION,1369 Highway 77,,Seabrook,08302-0000,5aa28f760503b823772d91a741d3b17ce2dad6c5,2025-07-20T15:03:00.489Z,7955b905-8e2a-46bc-b221-00b6a95be8aa
4021,035-53280-00,New Jersey,NORTH PLAINFIELD,263 Somerset Street,,North Plainfield,07060-0000,23ab71560358d663ca8d84f19fc02e6740033337,2025-07-20T15:03:00.489Z,f2c36a8e-d8e5-4f67-a0ee-4ac9826d7693
4021,029-59910-00,New Jersey,POINT PLEASANT BEACH,416 New Jersey Avenue,,Point Pleasant Beach,08742-0000,e30d535d1b6c548471594d2402c711c655d975cf,2025-07-20T15:03:00.489Z,c99dd5bb-83b5-4d75-9c59-e6a57984cdd6
4021,019-U6F62-00,New Jersey,FRANKLIN QUAKERTOWN FIRE DISTRICT,67 Quakertown Rd,,Pittstown,08867-0000,a4cc8766a4c7fdf31436d1808cd7d29d672e35c2,2025-07-20T15:03:00.489Z,907f76d8-f423-44a6-831f-2cb169278421
1539,009-07D0A-00,Florida,BREVARD COUNTY SHERIFF'S OFFICE,700 PARK AVE,,TITUSVILLE,32780-0000,83012964b271618cc6692f7512704b209c42c095,2025-07-20T15:03:00.489Z,f5b8be5a-34a0-4c4c-bd5d-5ad45791e42b
4264,023-01D56-00,New Jersey,MONROE TOWNSHIP SCHOOL DIST,423 Buckelew Avenue,,Monroe Township,08831-0000,4e0d971a3b85fdde8d941ed4ff226f8b0600800e,2025-07-20T15:03:00.489Z,4618fa0e-b1bd-4979-9c57-9a2bf5e3769f
4264,007-UD4TR-00,New Jersey,STERLING BOARD OF EDUCATION,801 Preston Avenue,,Somerdale,08083-0000,49682d6bb3918e751d5c2af6646cdae2418dc942,2025-07-20T15:03:00.489Z,811ef44e-0c93-455f-9eaa-f669d311503a
4264,023-31470-00,New Jersey,HIGHLAND PARK,221 South 5th Avenue,,Highland Park,08904-2608,a58a3b7d64982112d3a7539fa9735b6325de81f6,2025-07-20T15:03:00.489Z,21d2d514-ca97-4948-b2b8-75ec60fb6a74
4234,000-UOE95-00,Iowa,IOWA DNR/WILD LIFE BUREAU,502 E 9th St,,Des Moines,50319-0000,edcb0def56b66581340ce73aae0c12eac03c8e30,2025-07-20T15:03:00.489Z,a5307d4b-6da9-459c-91bf-f7a10d8cfa6a
4238,001-US25G-00,Missouri,ADAIR COUNTY PUBLIC WORKS SD #1,1120 N. Green Street,,Kirksville,63501-0000,ff7c66900fa0febc435c9bbe33c12156f0e0c02f,2025-07-20T15:03:00.489Z,affebe27-f8f5-449c-932c-55335f6e4ebf
4210,081-75172-00,West Virginia,SOPHIA,100 East Rail Road Avenue,,Sophia,25921-0000,0e568ba8730ae6371dcee9f2d6aaf2ca882c1c8a,2025-07-20T15:03:00.489Z,7f087db0-9c1e-4545-8ebc-13fb21d03c27
4238,111-U5C6U-00,Missouri,UNION TOWNSHIP DRAINAGE DISTRICT,118 S. Main St.,,La Grange,63448-0000,1322bd851dd33cafc9639eb90700eab03b53eae6,2025-07-20T15:03:00.489Z,801351e8-421f-431f-93cd-aae5f41a83d3
4230,073-35000-00,Kansas,JANESVILLE (TOWNSHIP OF),13 E Washington,,Hamilton,66853-0000,65fa71723d2c72a69f92b3306b154945040e4ae4,2025-07-20T15:03:00.489Z,72911ca9-937c-4667-9025-a9bfca7c37fc
4287,173-21550-00,Kansas,ERIE (TOWNSHIP OF),35626 W. 111 Street South,,Milton,67106-0000,6130499ab73e9a4f89311e00821637fd6fc456a5,2025-07-20T15:03:00.489Z,7c235a3c-c484-4863-ae1c-ea196a942980
4256,000-006E9-00,Oklahoma,GRAND RIVER DAM AUTHORITY,226 West Dwain Willis Avenue ,,Vinita ,74301-0000,0f63ea5e71e4e713ca2ea69ca2b95c928712d12b,2025-07-20T15:03:00.489Z,8d33c4f0-0edd-436c-b4d8-58e2fc39ad82
4264,023-65790-00,New Jersey,SAYREVILLE,167 Main Street,,Sayreville,08872-1149,04c553a7a1695965fcce7baffeade198bd337989,2025-07-20T15:03:00.489Z,3f86b9a0-fd31-4fe0-9327-675a3ffece3c
1561,127-14C9A-00,Florida,VOLUSIA COUNTY SCHOOL DISTRICT,200 N CLARA AVE,,Deland,32720-0000,05f3dbae974ae75936ad9a2b705ae99dde127ff3,2025-07-20T15:03:00.489Z,07653859-0830-475b-bc16-d9ea690c9a3b
1763,129-UNPMU-00,Iowa,GLENWOOD MUNICIPAL UTILITIES,1071/2 SOUTH LOCUST STREET,,GLENWOOD ,51534-0000,8619baecebc60b981595aa0bbd5bda17d86452e0,2025-07-20T15:03:00.489Z,1d1b5cdf-3df9-4369-ad62-c2a27b36d2ac
1763,065-70050-00,Iowa,"ST. LUCAS, CITY OF",101 WEST MAIN STREET,,ST. LUCAS,52166-0000,5bd45d8ca513f6a5389b55a196ff2689bedfe463,2025-07-20T15:03:00.489Z,93246d1a-24bb-49ba-8d1b-23fae008835f
1650,077-58420-00,New York,PLAINFIELD (TOWN OF),129 COUNTY HIGHWAY #18A,,UNADILLA FORKS,13491-0000,54ec0b7276388bc8dad72faff0043b7cfc11685b,2025-07-20T15:03:00.489Z,d454a452-283d-44d6-818b-77897ca39c7a
1971,015-05F0A-00,Alabama,WEBSTER'S CHAPEL FIRE DEPT INC,1552 AP Hollingsworth Road,,Wellington,36279-0000,2bdab810fa18331cef32b83a7ed39891f7223e7a,2025-07-20T15:03:00.489Z,aebec710-4d0f-4d0b-8265-2a9bce7aa887
1650,025-99025-00,New York,DELAWARE (COUNTY),1 PAGE AVE.,,DELHI,13753-0000,a3fa4c329027946982c92a6c6a49cdd14021541d,2025-07-20T15:03:00.489Z,b24469b3-d695-413d-bd1e-9cd53c7a7437
1763,175-46515-00,Iowa,"LORIMOR, CITY OF",503 MAIN STREET,,LORIMOR,50149-0000,2c840946e81c687584f46a7dac3a6aed3e5b8e40,2025-07-20T15:03:00.489Z,962fbcd8-8676-4f1f-8d84-69d7bd21c448
4304,097-UIO0S-00,Kansas,KIOWA COUNTY ROAD AND BRIDGE,1002 S. Grove St.,,Greensburg,67054-0000,634a397673e1be87e3065951c100f7a42aa6ebc5,2025-07-20T15:03:00.489Z,6264865c-21e0-4d15-a1b1-11a7cf47d4fd
1974,099-99099-00,Tennessee,LAWRENCE (COUNTY),"200 West Gaines Street, Suite 201 ",,Lawrenceburg,38464-0000,54d4311f09618676765fa983f38eb4d827b1f21c,2025-07-20T15:03:00.489Z,cfdcdd8a-9563-4bd8-a3cc-57df92aab205
1974,000-UHXAT-00,Tennessee,UNIVERSITY OF TENNESSEE,600 Henley Street,Suite 112,Knoxville,37996-0000,5151a9be65e6c057eaf0d8cd359a87374e4e5504,2025-07-20T15:03:00.489Z,b06deefe-dc20-4d27-910d-5ea8adeb72cb
4069,035-30734-00,Minnesota,IDEAL (TOWNSHIP OF),35458 Butternut Point Road,,Pequot Lakes,56472-0000,8f72f41249b7ded9a4768a74683bf7e053240658,2025-07-20T15:03:00.489Z,5d06bcc9-8e3b-4f21-92e4-4922354b178d
1968,087-U1TDI-00,California,SANTA CRUZ PORT DISTRICT,135 5th Avenue,,Santa Cruz,95062-0000,eb84abab9d415e4078bfe9e19e93de93c3e0b610,2025-07-20T15:03:00.489Z,eb799649-0309-402c-98e6-b87c2015cf5a
1971,103-U0IYZ-00,Alabama,WEST MORGAN - EAST LAWRENCE WATER & SEWER AUTH,2547 Kirby Bridge Road,,Decatur,35609-0000,e7db715b098d55ef9458565d451de388d05a0d0d,2025-07-20T15:03:00.489Z,20319ef9-d091-4c0b-b372-db022417bd6c
1974,107-99107-00,Tennessee,MCMINN (COUNTY),6 East Madison Avenue,,Athens,37303-0000,4074efea7396aa3d13fc9e4a3b7aea089d93cf50,2025-07-20T15:03:00.489Z,402f57e8-2ec4-4775-b2d5-113f47d7cef7
4008,121-99121-00,Kentucky,KNOX (COUNTY),406 Court Square,,Barbourville,40906-0000,b1917abdc75ecd8e12107324b9c013f00f6aa710,2025-07-20T15:03:00.489Z,1ff13813-4286-45b3-b7f9-e894d3f6c2d3
4069,001-59368-00,Minnesota,SHAMROCK (TOWNSHIP OF),49954  Lake Avenue,,McGregor,55760-0000,7ac2b410f5dcc9824e22b16e8b49c4144430f476,2025-07-20T15:03:00.489Z,4cdc0560-d2e4-49f1-ba07-a8843519a742
4143,089-99089-00,Arkansas,MARION (COUNTY),105 South Berry Street,,Yellville,72687-0000,6c4a2af8e1f16340c39bcc841b6fa0abad43c544,2025-07-20T15:03:00.489Z,687fec5b-3c53-4c49-b2a6-924d98fd24b6
4176,003-57144-00,Alabama,ORANGE BEACH,4099 Orange Beach Blvd,,Orange Beach,36561-0000,42dea871e6100fef37e4339e43b0312df3740a7d,2025-07-20T15:03:00.489Z,ae5f98a7-6f9b-4eaf-b262-4a64c03631c4
4091,021-10900-00,Maryland,BRUNSWICK,1 West Potomac Street,,Brunswick,21716-0000,8ffeda19995147b527010bfd122c1502a26433a7,2025-07-20T15:03:00.489Z,fcb05805-6442-4e71-88e5-c9e617bb8bd0
1561,061-UKLC1-00,Florida,"MCKEE BOTANICAL GARDEN, INC.",350 US HIGHWAY 1,,VERO BEACH,32962-0000,e8893c47665c43654a2ec642a3f936cfee81c7b4,2025-07-20T15:03:00.489Z,30e16bac-63fb-4160-9bc1-815df477e653
1561,086-UI2NW-00,Florida,FLORIDA INTERNATIONAL UNIVERSITY,11200 SW 8TH ST,,MIAMI,33199-0000,47a156a7c14e12ea8d798d09f47cd7cd33253249,2025-07-20T15:03:00.489Z,1750db02-a966-4ace-9d36-82e6cf827d6b
1602,086-UB6UG-00,Florida,MATER ACADEMY HIGH SCHOOL,7901 NW 130 STREET,,HIALEAH GARDENS,33016-0000,790c76adfe3e101d8a2df26074eccae251ca55ff,2025-07-20T15:03:00.489Z,e9148f4d-405f-4116-a09a-e8ba1d675e61
1971,049-37312-00,Alabama,IDER,10793 Alabama Hwy 75,,Ider,35981-0000,88f705f27504268712b9800f1a9f2cf81e519e23,2025-07-20T15:03:00.489Z,c00a78ee-7b4a-4cce-a98f-d54ab64b609c
4238,117-06580-00,Missouri,BLUE MOUND (TOWNSHIP OF),11539 Liv 416,,Bluemound Twp,64601-0000,7247b18349229cfbeb51f2ff2367909d42f2632c,2025-07-20T15:03:00.489Z,5ce6b35c-8c05-4bb2-98cc-d04797c093bb
4107,005-49960-00,Rhode Island,NEWPORT,43 Broadway,,Newport,02840-0000,95766b5e11d9f6f1dacea82dc3fe10dd3a0485ba,2025-07-20T15:03:00.489Z,7075e13b-f00a-459d-9d5c-df1eba0bbb1a
1763,015-07480-00,Iowa,"BOONE, CITY OF",923 8TH STREET,,BOONE,50036-0000,13a3587d129f7f9343549b893d68f775fccaf95a,2025-07-20T15:03:00.489Z,b75df2a4-b192-4fcd-9bee-5e8678ac2121
4250,189-UZX01-00,Missouri,METROPOLITAN ST. LOUIS SEWER DISTRICT (MSD),2350 Market,,St. Louis,63103-0000,2cd8d877ac3b71fefc23aea078b28f9b0e1d7e28,2025-07-20T15:03:00.489Z,19d48f81-196d-4dee-9934-0de7df4e77d3
4261,033-20050-00,Maryland,COTTAGE CITY,3820 40th Avenue,,Cottage City,20722-0000,0eaa31aaa72c5bad4f473808f279ce7bcfc383a4,2025-07-20T15:03:00.489Z,9b9419fb-d9ce-424d-9a15-b016215d1c04
4264,003-00B50-00,New Jersey,NORTHERN HIGHLANDS SCHOOL DIST,298 Hillside Avenue,,Allendale,07401-1447,4787f05412830d0ef6d4c2ed420cfb891055d08d,2025-07-20T15:03:00.489Z,ab0395d2-536d-49bf-ac50-830d256e925e
4211,000-U01FB-00,Tennessee,LAFOLLETTE UTILITIES BOARD,302 North Tennessee Avenue,,Lafollette,37766-0000,4cda2815040a40ddd827d2f04ccfbf6651fcbf24,2025-07-20T15:03:00.489Z,883a8ab7-4185-4170-b011-d62aa6ba3ee7
4264,007-UQA8U-00,New Jersey,BARRINGTON BOROUGH BOARD OF EDUCATION,311 Reading Avenue,,Barrington,08007-1051,df87a260a72bf4d8b44b16418c44d353228daa60,2025-07-20T15:03:00.489Z,f492ea00-9118-4a0d-ba54-287b4e365f29
4264,025-47130-00,New Jersey,MONMOUTH BEACH,22 Beach Road,,Monmouth Beach,07750-1345,c0afebb3afeef200586f8798078b0b86c136305a,2025-07-20T15:03:00.489Z,43b98ed5-ca54-4599-b2fe-cceb0ce4ff30
4274,031-99031-00,Oklahoma,COMANCHE (COUNTY),"315 SW 5th Street, Room 303",,Lawton,73501-0000,f7691e73bcc47b1f0a9e8214d7694debdc518334,2025-07-20T15:03:00.489Z,1059ad0a-d005-4ae5-9a69-30ceb897fb62
1247,127-90741,Puerto Rico,HOGARES RAFAEL IBARRA,"TORRELAGUNA 432, SAN JOSE, RIO PIEDRAS",,,00923,4e1e4581eadb9c4717c0a6a7942ab95339e66db7,2025-07-20T15:03:00.489Z,2e729917-eaaa-45c4-a412-2bd51ad9b8f9
1246,051-39475,Louisiana,"KENNER, CITY OF","1801 WILLIAMS BLVD. KENNER, LA",,,70062,03e5d67ea932a2a1e36f1e3dcf796eedc5b10077,2025-07-20T15:03:00.489Z,29f83a0c-3b14-41eb-9816-ca5218c3e4d7
1246,095-91010,Louisiana,ST JOHN PARISH SHERIFFS OFFICE,"1801 W. AIRLINE HWY, LAPLACE, LA",,,70068,cb6921bc72c35e30680def294c23671a7f2ad2ec,2025-07-20T15:03:00.489Z,32aa25ba-ab7a-4218-94f2-552562731aad
4324,099-99099-00,Oklahoma,MURRAY (COUNTY),1000 Highway 110,,Dougherty,73032-0000,9b2d3c6a19bc0120f275f3c5b10fb7c52348a239,2025-07-20T15:03:00.489Z,1844cfd3-27fd-4c25-a1b4-b5249b6c404a
4022,017-73675-00,Vermont,TUNBRIDGE (TOWN OF),271 VT Route 110,,Tunbridge,05077-0000,c5a7f2e5d670ab58d46409e6a4c69c6beeb3db01,2025-07-20T15:03:00.489Z,375dada3-6d80-4574-aca1-838ba32b96a6
4057,125-99125-00,Kentucky,LAUREL (COUNTY),101 S. MAIN STREET,SUITE 320,LAUREL,40741-0000,1b64784dca29cea504129ce915e39da4e3b4c572,2025-07-20T15:03:00.489Z,4d506114-4034-4125-9e21-464a80fab838
4021,019-72510-00,New Jersey,TEWKSBURY (TOWNSHIP OF),167 Old Turnpike Road,,Califon,07830-0000,c25be0ade06507cac27d369de1e7179cdfd75cb2,2025-07-20T15:03:00.489Z,146c7393-20fd-4141-8e0e-7db21e027ba0
4021,009-UZXKZ-00,New Jersey,DENNIS TOWNSHIP BOARD OF EDUCATION,601 Hagen Road,,Dennis Township,08210-0000,be2e38e651d4e9bf991abf93887d9233d90553e8,2025-07-20T15:03:00.489Z,f6947de0-1617-4a8b-b829-f61d96edc00d
4022,023-03250-00,Vermont,BARRE (TOWN OF),149 Websterville Road,,Barre Town,05678-0000,ecf4e4962187e25acf17471e4bb476920dab6192,2025-07-20T15:03:00.489Z,bd812099-83a5-477d-8950-3b3d2939e7d2
4031,007-0F0F7-00,New York,BINGHAMTON POLICE DEPT,38 Hawley Street,,Binghamton,13901-0000,838075da9be382d0f861126925baa67fea9bca24,2025-07-20T15:03:00.489Z,b215b090-c827-4830-96db-c4fa7a4885eb
4022,027-12250-00,Vermont,CAVENDISH (TOWN OF),37 High Street,,Cavendish,05142-0126,933bbc6b7b02e82b22dff76530a80b0d61baa95b,2025-07-20T15:03:00.489Z,93bc3c42-613a-41ef-afe3-ee086686662e
4028,003-24120-00,Massachusetts,FLORIDA (TOWN OF),379 Mohawk Trail,,Drury,01343-0000,7476a5eed63507c3b2bdfeab55f617e95172b16f,2025-07-20T15:03:00.489Z,0a075ff7-95ce-4a8c-a9e4-513541ba6f34
4028,005-UN04B-00,Massachusetts,SWANSEA WATER DISTRICT,700 Wilbur Street,,Swansea,02777-0000,a9239c43d5170d928b0fc65454029d709e434af5,2025-07-20T15:03:00.489Z,6c70427f-37b8-4b43-b757-47a4f533cf21
4031,107-51121-00,New York,NICHOLS (TOWN OF),54 East River Rd,,Nichols,13812-0000,de4587bfd49fb7f1c8233bcc50c08232440f099e,2025-07-20T15:03:00.489Z,22247200-a059-4765-803b-f36de6b20909
4250,209-99209-00,Missouri,STONE (COUNTY),108 E 4th St.,,Galena,65656-0000,c2415d0dd9e7a1e4aa54d8a3b6a62d2ab5a740ac,2025-07-20T15:03:00.489Z,2a8d6b9b-7a27-4656-9323-04d74bcc93b5
4256,061-99061-00,Oklahoma,HASKELL (COUNTY),202 E Main,Suite 8,Stigler ,74462-0000,d417b9111c86e4708d06846fd05a9f9a6aaff2eb,2025-07-20T15:03:00.489Z,9c3c6f70-1e53-4c30-a0de-5c25fb8e6cde
4247,043-99043-00,Oklahoma,DEWEY (COUNTY),Broadway & Ruble,,Taloga,73667-0000,9b8577706c0f53c0d27b3e79dc73bfd64ca6bde1,2025-07-20T15:03:00.489Z,785d6a3d-c141-4fbf-8a32-fe905d44a172
4288,017-22750-00,Wisconsin,EDSON (TOWN OF),31595 County Hwy MM,,Boya,54726-0000,1fece99cb9c5ae2dd2971f2b47f962571f01262e,2025-07-20T15:03:00.489Z,9c643f62-4af4-41e1-a4d3-6b652b4e919f
4259,317-0100C-00,Georgia,WASHINGTON CITY HALL,102  East Liberty Street,,Washington,30673-0000,8640a584ae942569446571988df24827e46e243f,2025-07-20T15:03:00.489Z,0d607aa3-23e4-4afc-9c2f-cc7296da35a9
4259,045-99045-00,Georgia,CARROLL (COUNTY),323 Newnan Street,,Carrollton,30117-0000,b748ff9234a8e5b133941d36cd832f866316d546,2025-07-20T15:03:00.489Z,b24e7625-e09c-4351-af79-5d6ec2f066a7
4261,510-04B14-00,Maryland,ASSOCIATED CATHOLIC CHARITIES,320 Cathedral Street,,Baltimore,21201-0000,781c033c7e121d3471a5095380e9a2c64e7956ae,2025-07-20T15:03:00.489Z,00a88be6-fa98-4d26-8993-b27aec2d1a35
4261,510-UJRRL-00,Maryland,MD ZOOLOGICAL SOCIETY/DBA THE MD ZOO IN BALTIMORE,1876 Mansion House Drive,,Baltimore,21117-0000,288bf6812216308e783e7f93df4d6e1507799103,2025-07-20T15:03:00.489Z,a5a97923-1c20-443d-8563-9f3c4fc7a646
4216,031-99031-00,Kentucky,BUTLER (COUNTY),110 North Main Street,,Morgantown,42261-0000,97c8aaf2b24a7dc3b3bc83b913440e8404aa2ec8,2025-07-20T15:03:00.489Z,59ae863a-ded1-41cd-94d4-3ab388701b65
4211,009-99009-00,Tennessee,BLOUNT (COUNTY),341,,Maryville,37804-0000,3e08af8a867dc2751d3cff876d01cc269aa47d2e,2025-07-20T15:03:00.489Z,d603025a-3e97-44c6-9ddc-2bbbaa8c2076
4247,149-17300-00,Oklahoma,CORN,213 W Main,,Corn,73024-0000,0bc06fb60dcc6d306056cf6acc840eb854de1b13,2025-07-20T15:03:00.489Z,3852cc01-f9f8-4071-8542-9f1ed7f41d9a
4238,083-10450-00,Missouri,CALHOUN,201 E Main,,Calhoun,65323-0000,c5d9b0d5304ad9c5906a87d8270563a0a4faf944,2025-07-20T15:03:00.489Z,5cbe4251-9e4e-469d-8b1c-ec2a88b662d1
4091,025-UZ2Z1-00,Maryland,"LEVEL VOLUNTEER FIRE CO., INC.",3633 Level Village Road,,Havre de Grace,21078-0000,9811e5909e9efcdd3533eff18b444ee305c0e7b5,2025-07-20T15:03:00.489Z,f97b25b9-fa6f-4735-b859-a26dbdd23d27
1539,019-27400-00,Florida,"GREEN COVE SPRINGS, CITY OF",321 WALNUT ST ,,GREEN COVE SPRINGS,32043-0000,edd280c4c96abce765dabc9d5519dc50d74d726c,2025-07-20T15:03:00.489Z,9255fd24-bef9-4b41-988b-aa01914bef9b
1650,053-20401-00,New York,DERUYTER (TOWN OF),811 UTICA ST. STATE RT. 13,,DERUYTER,13052-0000,754b1a951855c3c525a5f33f5899f70da7d2037a,2025-07-20T15:03:00.489Z,813fa177-1af8-4781-9908-7bb27f698344
1545,061-74150-00,Florida,"VERO BEACH, CITY OF",1053 20TH PLACE,,VERO BEACH,32960-0000,69455403a3353428fe1e27e90b2052a9a187c037,2025-07-20T15:03:00.489Z,9e51d4c6-f44f-43a5-95c5-21636743c8ad
4022,021-16825-00,Vermont,DANBY (TOWN OF),130 Brook Road,,Danby,05739-0000,0cdcac071e250150a01f1af67a47eb0b750a631f,2025-07-20T15:03:00.489Z,cf1c3424-3b78-415a-92e0-5ab5a1d88d9b
4069,061-44998-00,Minnesota,NASHWAUK (TOWNSHIP OF),County Road 8,,Nashwauk,55769-0000,d2f38909a75fd999e60f5a894901cb9f7b0406ee,2025-07-20T15:03:00.489Z,f6aece5f-4a9e-4917-8fa9-a527a09d9bb6
4210,081-0294A-00,West Virginia,RALEIGH EMERGENCY SVC AUTH,162 Industrial Park Road,,Beaver,25813-0000,3f91223aeb4856218141665d644339f24913054e,2025-07-20T15:03:00.489Z,9b0ac390-566a-4005-857b-e111791f0f01
4069,035-UFI0B-00,Minnesota,DEERWOOD PUBLIC WORKS,22157 Industrial Road,,Deerwood,56401-0000,680b0942c7ba64a93c0f24dfde34ac8a2cf6e9c6,2025-07-20T15:03:00.489Z,d238f368-66df-4a2e-9ed4-f14a6cefb64a
4091,005-UJ7QH-00,Maryland,PIKESVILLE VOLUNTEER FIRE COMPANY,40 East Sudbrook Lane,,Pikesville,21208-0000,1e11a55b027ca3e4f210d84be562dd64e5a0d5f5,2025-07-20T15:03:00.489Z,9d5ef160-3b48-4990-8d05-bd5081656c56
4021,001-UXMR3-00,New Jersey,HAMILTON TOWNSHIP MUNICIPAL UTILITIES AUTHORITY,6024 Ken Scull Avenue,,Mays Landing,08330-0000,242c5e0e1955f1f7ba83391c9370a2ddce2d74f0,2025-07-20T15:03:00.489Z,6b9a6ffb-f350-492a-b22b-ff7cc5d1e3ca
4026,000-UN6TE-00,New Hampshire,UNIVERSITY OF NEW HAMPSHIRE,MAIN STREET,,DURHAM,03824-0000,ec2533fbdcdde35257fe7dfc3ba2a2f9516e13c5,2025-07-20T15:03:00.489Z,cd8b6c86-21d5-456e-b8eb-ee0824bd501b
1763,071-022A7-00,Iowa,FREMONT COUNTY ROAD DEPARTMENT,2014 290TH AVENUE,,Sidney,51652-0000,affa15da5369dfcda2b1089d64e048d8512da6cb,2025-07-20T15:03:00.489Z,a841606b-8965-46c0-910c-0d3899f8771f
1561,075-16AB7-00,Florida,LEVY COUNTY SCHOOL BOARD OF,480 MARSHBURN DR,,BRONSON,32621-0000,e93c1b821ca3ddad4e3ed9257f427db9a0ba0397,2025-07-20T15:03:00.489Z,6b6c1120-5967-443c-81cc-c95689e611fc
4562,047-03250-00,Oregon,AUMSVILLE,595 Main Street,,City of Aumsville,97325-0000,66cbd277d4341032d968ddd6270daa6ac489bcb9,2025-07-20T15:03:00.489Z,ced3e92f-3c72-4830-a41d-fe82947d72be
1976,055-99055-00,Kentucky,CRITTENDEN (COUNTY),"107 South Main Street, Suite 208",,Marion,42064-0000,0ecb315634c14ddd564eeea966b21c9ab877c3ea,2025-07-20T15:03:00.489Z,b236e7dc-f77f-4daa-be82-352908c50be4
1561,001-UBZL1-00,Florida,"GAINESVILLE COUNCIL ON AGING, INC.",1311 SW 16TH STREET,,GAINESVILLE,33260-0000,6ebbe2eea2d71426616be5993025767827076077,2025-07-20T15:03:00.489Z,73f38717-14ea-43ad-ab0f-199956e23ff7
4029,181-99181-00,Texas,GRAYSON (COUNTY),100 West Houston,,Sherman,75090-0000,0685cb7941b1c1f7bc6b966a44d222298d2dbc10,2025-07-20T15:03:00.489Z,f8e979dc-edad-4d57-9375-44722762a843
4017,033-99033-00,Puerto Rico,CATANO (MUNICIPIO),96 Las Nereidas Avenue,,Trujillo Alto,00963-0000,4c3a4068c5a8cc7cd7cb7e45f7d055a2c63afa00,2025-07-20T15:03:00.489Z,e95ce55b-9234-4529-b05f-b1c8a7bc36c8
4026,009-58340-00,New Hampshire,ORANGE (TOWN OF),8 Town House Road,,Orange,03741-0000,37ec09402cc58e6488244a56a64ba3f19e3e92b2,2025-07-20T15:03:00.489Z,275286f1-2fa2-44e9-afe8-ae302024d21e
4029,000-U00FB-00,Texas,TX PARKS AND WILDLIFE DEPARTMENT,4200  Smith School Road,,Austin,78744-0000,9c3ee6aeb49d38d2bdcb283746af251c642920f7,2025-07-20T15:03:00.489Z,0bda68d7-799e-4366-967d-970259465d2b
1539,071-0C6A1-00,Florida,COMMUNITY HOUSING RESOURCES,2401 LIBRARY WAY,,Sanibel,33957-0000,b9da09b6e247aa25d130e908c83d4696ac38efd6,2025-07-20T15:03:00.489Z,a25a75c0-eff3-4e27-b3ec-1e059d9df533
4256,115-99115-00,Oklahoma,OTTAWA (COUNTY),102 E Central,Suite 202,Miami,74354-0000,e9334588295610baf766a1d0f7c04e9026057c8a,2025-07-20T15:03:00.489Z,5e1ea878-edbe-4440-b91d-b8c728cb00be
1561,115-49675-00,Florida,"NORTH PORT, CITY OF",5650 NORTH PORT BOULEVARD,,NORTH PORT,34287-0000,c171f7d595d9dd094eca30cf45c24032991f7d21,2025-07-20T15:03:00.489Z,7ca02cbb-c244-4b00-ad9f-b644194bf55b
1763,181-UYYSR-00,Iowa,MARTENSDALE ST. MARY'S COMMUNITY SCHOOL DISTRICT,390 BURLINGTON,,MARTENSDALE,50160-0000,4a2a8bf6f3a0b6b48c844a8e12a8a8301f0f0fb7,2025-07-20T15:03:00.489Z,28fec210-afbe-4058-8c30-10d772505eb7
1545,023-08F27-00,Florida,LAKE CITY COMMUNITY COLLEGE,149 SE VOCATIONAL PLACE,,Lake City,32055-0000,3a6054e96375b8e1db4564f84fefa5cf1948c185,2025-07-20T15:03:00.489Z,42ccde79-4571-440d-8389-006136f00108
1971,073-36448-00,Alabama,HUEYTOWN,1318 Hueytown Road,,Hueytown,35023-0000,7025f92774e91fb30c0752ecff8c516cb5a4b280,2025-07-20T15:03:00.489Z,cd1db636-ece7-440b-ae40-010d5402e0b8
4028,023-U4SLY-00,Massachusetts,WAREHAM FIRE DEPARTMENT,273 Main St,,Wareham,02571-0000,17000912ced26a087fac0450832859edc959ddfc,2025-07-20T15:03:00.489Z,19eca599-dde6-4aef-aeea-63ae9d8024a6
1859,000-UGF2M-00,American Samoa,AMERICAN SAMOA TELECOMMUNICATIONS AUTHORITY,P O Box M - Fagatoao,,Pago Pago,96799-0000,6b8b079e716a27d03400d43caf10188247c60f17,2025-07-20T15:03:00.489Z,ab028fc9-eb76-44e7-b28f-b7763a6f6994
4211,145-64440-00,Tennessee,ROCKWOOD,110  N. Chamberlain Ave,,Rockwood,37854-0000,8d16de593cee2954b159bc9ff6d0895321b9f357,2025-07-20T15:03:00.489Z,c216d98d-407a-4674-ae59-78189d2e9018
4031,077-28959-00,New York,GILBERTSVILLE,107 Lovers Lane,,Gilbertsville,13776-0000,68b73e1eecbc9d9ebeb2e6a0dd47fdb9d9fe5505,2025-07-20T15:03:00.489Z,9ffa5802-8b90-415b-8e6a-4b7abbe0b62d
1818,035-54642-00,Kentucky,MURRAY,104 North 5th Street,,Murray,42071-0000,43f890afbfe66bfe88289c455aa01c45b3bf5c28,2025-07-20T15:03:00.489Z,fffe165b-a125-4986-a84b-117fa63a92e7
1818,185-01E9D-00,Kentucky,LA GRANGE FIRE & RESCUE DEPT,121 West Main Street,,LaGrange,40031-0000,d2032fa8ae318f5dc66f0b5b73cc5347cf4fe8dd,2025-07-20T15:03:00.489Z,cda2d2a2-f05d-4975-8067-dcd3a5bee881
4155,105-99105-00,South Dakota,PERKINS (COUNTY),100 E Main St,,Bison,57620-0000,44e55062b53e499955df121f9b24a728d38de573,2025-07-20T15:03:00.489Z,a37aa261-98fd-4125-805e-fe93df13fcdd
1979,167-17680-00,Tennessee,COVINGTON,200 W Washington Avenue,,Covington,38019-0000,7d7bd51e5ee4beaf71693253b7f82969e9b1a272,2025-07-20T15:03:00.489Z,5c5f5be0-155f-4afd-80fa-7cd1858f84bb
1979,017-99017-00,Tennessee,CARROLL (COUNTY),625 High Street,,Huntington,38344-0000,4bbb7fb3099efc0985b21c85ad0381ed199a5e32,2025-07-20T15:03:00.489Z,58a076c9-09e7-4b18-9f81-fada97eec03d
4264,003-82570-00,New Jersey,WOOD-RIDGE,85 Humboldt Street,,Wood-Ridge,07075-0000,75970ce5098b2d0802337bce8794189074ee8c56,2025-07-20T15:03:00.489Z,ea4e1a4a-5c6e-4bdc-ba99-062ba90df0d1
1650,111-75935-00,New York,ULSTER (TOWN OF),1 TOWN HALL DRIVE,,LAKE KATRINE,12449-0000,453ac17af3a1758f1ce0e52fd59dbd8e9e152504,2025-07-20T15:03:00.489Z,d9ed6b20-f38a-4fb3-8901-99f4056ff32f
1561,099-U464I-00,Florida,WEST PALM BEACH HOUSING AUTHORITY,1715 DIVISION AVENUE,,WEST PALM BEACH,33407-0000,ad699718b35d683e31b1b90e6dc59747de05c400,2025-07-20T15:03:00.489Z,01a07976-4614-4f7d-9ee5-9ae7544eaad3
1763,179-60465-00,Iowa,"OTTUMWA, CITY OF",105 EAST THIRD STREET,,OTTUMWA,52501-0000,d7257596ad076daccbac7578da4ed1d250cdd63f,2025-07-20T15:03:00.489Z,8aa18e7d-c7cc-4d46-b63e-4676cc14887c
4298,000-UTXHC-00,South Dakota,FEM ELECTRIC ASSOC. INC.,800 5th Ave,,Ipswich,57451-0000,9012d49f8035ecb3a1702c1f47a89d61b7761afd,2025-07-20T15:03:00.489Z,da876f97-d5e8-4472-b9ca-2f6913463ba5
1976,219-99219-00,Kentucky,TODD (COUNTY),202 Washington Street,,Elkton,42220-0000,73164e42d41e55eb6b0de81b8c9304e7cd4537aa,2025-07-20T15:03:00.489Z,39db38df-eb9d-45f7-af4d-27be9c79d02d
1939,000-U4YRR-02,Virgin Islands of the U.S.,V.I. POLICE DEPARTMENT,"Leander Jurgen Command, Cruz Bay",,St. John,00830-0000,9a8d51186b75387cb0df5e9428c513cc5552df92,2025-07-20T15:03:00.489Z,315baa2b-436c-4426-89ca-323142bd2510
1979,131-99131-00,Tennessee,OBION (COUNTY),1 Bill Burnett Circle,,Union City,38261-0000,0e143cfc7abf2e07831ab7b59906683964735f94,2025-07-20T15:03:00.489Z,eb269e89-e25d-4792-98c7-8f43819a8822
1971,115-58896-00,Alabama,PELL CITY,1905 1st Avenue North,,Pell City,35125-0000,3db9abe24d07e99208dbcb014de9724bce6129ac,2025-07-20T15:03:00.489Z,96b30244-11cd-4ea7-8f9b-3b652d465732
1976,153-99153-00,Kentucky,MAGOFFIN (COUNTY),203 E. Maple St.,,Salyersville,41465-0000,b4107fd58fbe8d308b7ab2c6aacdb0280d365d0f,2025-07-20T15:03:00.489Z,d573bdfb-91ea-4645-a003-4699aaaf6eaf
4146,149-13980-00,North Carolina,COLUMBUS,95 Walker Street,,Columbus,28722-0000,36c46154b3466d9bec7a52a1db2f649c76c7717d,2025-07-20T15:03:00.489Z,c32612b0-6b8a-4312-85f4-4e3013958989
1818,033-UVHU0-00,Kentucky,CALDWELL COUNTY HOSPITAL INC,101 Hospital Drive,,Princeton,42445-0000,80bb5b63271012f75b6f8d7a39c7889727deff62,2025-07-20T15:03:00.489Z,0db763f7-4a65-436d-b536-1a4c0222b512
1792,109-06F75-00,Louisiana,BAYOU DULARGE FIRE DEPT,1038 Falgout Canal Rd.,,Theriot,70397-0000,b4d6cdcd8e7fbcd721e591c90da65450deccf9a9,2025-07-20T15:03:00.489Z,c5be7237-5997-4885-a029-6fed1d9b267a
1818,073-28900-00,Kentucky,FRANKFORT,315 West Second Street,,Frankfort,40601-0000,068d7f7fb2bc355dff3269481ea9dea275b83543,2025-07-20T15:03:00.489Z,1bc4ff91-2ce2-4d4b-afa7-5c6bfbeb0ec2
1561,009-61500-00,Florida,"ROCKLEDGE, CITY OF",1600 HUNTINGTON LANE,,ROCKLEDGE,32955-0000,f3a5ee943dc741cc160f0b6d7b52892696f70801,2025-07-20T15:03:00.489Z,d0c22ef1-8790-4169-9f10-1ccbc1065622
1650,007-17EF7-00,New York,WINDSOR FIRE DEPT,25 ACADEMY ST. ,,WINDSOR,13865-0000,1cd6cb342232c8ab955830b56b2053dc228e7b65,2025-07-20T15:03:00.489Z,1294547b-13a4-4573-a964-03fb871c8d2c
1545,101-16125-00,Florida,"DADE CITY, CITY OF",38020 MERIDIAN AVENUE,,DADE CITY,33525-0000,dc2ffc7c648154d68a323a131fc0ecd7a72fe51c,2025-07-20T15:03:00.489Z,d9ec61b8-b6f9-42b7-9f98-88799e8e7467
1971,093-UU741-00,Alabama,MARION REGIONAL MEDICAL CENTER,1256 Military Street South,,Hamilton,35570-5003,20fe225425f8b3759eaeb07d305ad24183d042c8,2025-07-20T15:03:00.489Z,61f9d29a-677d-4e06-b192-3fcb93631a07
4247,000-UD3HZ-00,Oklahoma,"ALFALFA ELECTRIC COOPERATIVE, INC.",121 E Main Street,,Cherokee,73728-0000,c128fd3c67386f7db31c0819832225ae095ee766,2025-07-20T15:03:00.489Z,e516e825-1c50-4e01-be7a-f3eaf37911ff
4250,009-0A976-00,Missouri,MINERAL SPRINGS ROAD DISTRICT,Mineral Spring Road Dist 0 10,,Cassville,65625-0000,7ebe9007a9adfec3213ae18b4c70bb36aec4b508,2025-07-20T15:03:00.489Z,0dd35591-bda3-4d08-a41e-409189c83385
1545,035-22550-00,Florida,"FLAGLER BEACH, CITY OF",105 S. SECOND STREET,,FLAGLER BEACH,32136-0000,7930c72e99bf8f804b50e88f386f3fd1ab2c4b3b,2025-07-20T15:03:00.489Z,915004c0-9f6f-434f-947a-4b6317adea64
4091,035-UDQHR-00,Maryland,QUEEN ANNE'S COUNTY DEPT. OF EMERGENCY MANAGEMENT,100 Communications Drive,,Centreville,21617-0000,df91954a8b25fd8709b47d8c51609d1a6cb55082,2025-07-20T15:03:00.489Z,d979d22f-4a08-4a88-b87d-230a949b18b5
4288,000-U4QGY-00,Wisconsin,WISCONSIN DEPT OF TOURISM,S 3661 State Rd 131,,La Fargo,54639-0000,9370e853ef0d2cb27f1e87e9965a4eb0740e2f1a,2025-07-20T15:03:00.489Z,59b6f553-ab34-4e03-9e13-042715a09915
4261,013-76725-00,Maryland,TANEYTOWN,17 East Baltimore Street,,Taneytown,21787-0000,8b212fd4db77a0945c38460fbca0888f81486ab6,2025-07-20T15:03:00.489Z,688bd629-fc0d-4bfe-9f46-09d91d4e20d3
4117,000-00607-00,Oklahoma,"CANADIAN VALLEY ELECTRIC COOPERATIVE, INC",Interstate 40 and U5377,,Seminole,74868-0000,67079886a2453304665daf665eadac1006a25035,2025-07-20T15:03:00.489Z,008d6d30-723b-44f6-bc42-7e0d838d0dc7
4290,049-67990-00,Minnesota,WANAMINGO (TOWNSHIP OF),42930 COUNTY 8 BLVD,,WANAMINGO,55983-0000,a9b32e1ee920a0abb99dee5174ca8ec906ba1f2c,2025-07-20T15:03:00.489Z,54bacc92-ce92-4288-91f8-7d4a66c48bbe
4290,161-31706-00,Minnesota,JANESVILLE,101 N MOTT ST,PO BOX O,JANESVILLE,56048-3063,837a9274938ce40be56ba5a3fd8c34b1c42929a8,2025-07-20T15:03:00.489Z,8464cba8-c2e4-464f-9968-22442649df79
1650,043-47823-00,New York,MOHAWK,28 COLUMBIA ST,,MOHAWK,13407-0000,d75699272d1f864ccfeba0d2ddedbe3be117616f,2025-07-20T15:03:00.489Z,87896392-ba70-45d5-8ca2-806cec614166
4250,099-U7UWX-00,Missouri,SALINE VALLEY FIRE PROTECTION DISTRICT,1771 Springdale Blvd,,Fenton,63026-0000,ea278bae26b262cc05a5404dd6257fc9c9b0a473,2025-07-20T15:03:00.489Z,bba269f8-0e86-4cf8-bf18-896839c465b0
1763,197-69015-00,Iowa,"ROWAN, CITY OF",101 MAIN STREET,,ROWAN,50470-0000,f74a571d3090b5cf5a0ed371ff93dabde2cfe6ff,2025-07-20T15:03:00.489Z,def02068-4521-4f9c-8da5-472d0162e28c
1539,057-11686-00,Florida,TAMPA GENERAL HOSPITAL,2 COLUMBIA DRIVE,,Tampa,33601-0000,c409ca7cce428f45d3a5fc6d40a9162e00b6cb8e,2025-07-20T15:03:00.489Z,6e7028f6-8cd8-42ec-8231-74206945f8bb
1602,086-UPO3Q-00,Florida,"FAMILY RESOURCE CENTER OF SOUTH FLORIDA, INC.",155 S MIAMI AVE,SUITE 500,MIAMI,33130-0000,f0ff746f9f5911bdc9c995e35020a5dfe0a5c2aa,2025-07-20T15:03:00.489Z,635d37d2-a622-4c7e-bd4f-a943770c27c3
1602,011-UIZ07-00,Florida,CORAL SPRINGS IMPROVEMENT DISTRICT,10300 NW 11TH MANOR,,CORAL SPRINGS,33071-0000,9620f44fe5a149723887e6f0f54837c354375922,2025-07-20T15:03:00.489Z,87339923-bad6-49c9-9bab-9b1859a0af65
1602,086-70075-00,Florida,"SURFSIDE, CITY OF",9293 HARDING AVE,,SURFSIDE,33154-0000,c6174d881e945b04d99327a17362c92bce60ca98,2025-07-20T15:03:00.489Z,16a04330-13bb-4ab9-bca8-333f19bbe9a1
1818,189-99189-00,Kentucky,OWSLEY (COUNTY),"1 Main Street, Courthouse Room 106",,Booneville,41314-0000,cd86c876efe606de65db2cb2f7c9089983ac1fbd,2025-07-20T15:03:00.489Z,327e825a-9744-41cb-a579-d5a58cc22984
1818,157-UU3Q0-00,Kentucky,HARDIN-SOUTH MARSHALL FIRE PROTECTION ASSOC INC,171 2nd Street,,Hardin,42048-0000,e78a293201113a0c20e15883394919306311acf0,2025-07-20T15:03:00.489Z,03ff623d-27dc-44ad-80d3-657915581fa1
1818,000-UMOLH-00,Kentucky,FOUR RIVERS BEHAVIORAL HEALTH,425 Broadway,,Paducah,42001-0000,ee2869d4d95ab0d886d52db2217acbc5e4975971,2025-07-20T15:03:00.489Z,42b94a17-2fdc-4be7-9e54-64300c95176b
4069,115-99115-00,Minnesota,PINE (COUNTY),635 Northridge Drive NW,,Pine,55063-0000,a7538e7f6fe4faaee669f3d39a68c261d7fa97c4,2025-07-20T15:03:00.489Z,af9a2a47-22ca-49ef-bd92-1fd8f9092e01
1763,000-U2Y2G-00,Iowa,IA DEPARTMENT OF CULTURAL AFFAIRS,600 EAST LOCUST,,DES MOINES,50319-0000,e76c5206219c1711799f8a6073b785dfcb02583e,2025-07-20T15:03:00.489Z,bf2f54d6-0710-4bba-a78a-95c75702a965
1650,000-U0099-00,New York,OFFICE OF GENERAL SERVICES,EMPIRE STATE PLAZA,40TH FLOOR,ALBANY,12242-0000,a48bfe7fa456a39dd9c1ab46e541ed48375db304,2025-07-20T15:03:00.489Z,e16ef3ac-1c33-4363-a8d4-fabd2e049ec7
1763,000-U4YEN-00,Iowa,MUSCATINE LOUISA DRAINAGE DISTRICT #13,2331 BURLINGTON ROAD,,MUSCATINE,52761-0000,fc00a82d14e6593e9e6e4f08ea08c1c3809d791a,2025-07-20T15:03:00.489Z,8ba7fa5a-09d8-41ef-b460-83b2244ed252
1545,109-00018-00,Florida,"FLAGLER HOSPITAL, INC.",400 HEALTH PARK BLVD,,Saint Augustine,32086-0000,65ae79c5ea7809a8515d75fbc1b938bdbbb5995c,2025-07-20T15:03:00.489Z,eeb0aeae-99ee-4d97-aa21-0497ee21b1de
1763,053-42960-00,Iowa,"LAMONI, CITY OF",190 SOUTH CHESTNUT STREET,,LAMONI,50140-0000,8a73a9378a920f3ac5c5f9de028055531c4c0d08,2025-07-20T15:03:00.489Z,50fa0df1-4a33-432b-8b9e-fe7ad0d3ab9f
4247,109-01D79-00,Oklahoma,UNIVERSITY OF CENTRAL OKLAHOMA,100 N University Drive,,Edmond,73034-0000,3bdaeca6c2882f157ce6de930b38ff5d57a3f065,2025-07-20T15:03:00.489Z,5979b21b-861d-4223-bb97-be85016fce11
4250,071-UE60N-00,Missouri,UNION FIRE PROTECTION DISTRICT,1401 West Springfield,,Union,63084-0000,0a6352a411ad4a65178b980cad6d0de0c94dc2eb,2025-07-20T15:03:00.489Z,2bb72c09-8998-4a5e-a386-ad667bacc64d
4250,183-US0RX-00,Missouri,CONSOLIDATED NORTH COUNTY LEVEE DISTRICT,1155 Payne Rd.,,Portage Des Sioux,63373-0000,d74ac38faa240b25644d04e35dbbe37a1a555dff,2025-07-20T15:03:00.489Z,ba7bbb68-1af9-4233-888b-cd867f69c8b5
4290,047-29636-00,Minnesota,HOLLANDALE,110 PARK AVE W,PO BOX 76,HOLLANDALE,56045-4423,2ba0b0a34ee6a63dcbd5cd83a35f31c8dfca1edc,2025-07-20T15:03:00.489Z,fa18c84e-050c-4704-bdf0-08c643be8c99
1763,019-86565-00,Iowa,"WINTHROP, CITY OF",354 WEST MADISON,,WINTHROP,50682-0000,ca9a6b193a4b951c8468d496d5ca8689a093dbc5,2025-07-20T15:03:00.489Z,0a51d2ee-a921-4932-8465-7a9dee0d2633
1545,085-65225-00,Florida,"SEWALL'S  POINT,  TOWN OF",1 SOUTH SEWALL'S POINT RD,,SEWALL'S  POINT,34996-0000,388ca225ddbc5857fe703f1e91170d0793ede47b,2025-07-20T15:03:00.489Z,fe34d3b9-d061-4e61-9379-3e86e888a717
1561,109-00486-00,Florida,"THE ARC OF ST JOHN, INC.",2101 ARC DRIVE,,Saint Augustine,32084-0000,28e63ce9a10b4654dda56b90d0674d5c69ca1792,2025-07-20T15:03:00.489Z,05469914-deb2-4c72-85e0-43cd5f92159e
1763,169-73515-00,Iowa,"SLATER, CITY OF",105 GREENE ST,,SLATER,50244-0000,2bc0e68c2c9d26266c106ac8fa4a8c261ea78f01,2025-07-20T15:03:00.489Z,5114e784-3b65-4882-9f94-319b5986402a
4264,007-UABCX-00,New Jersey,PAUL VI HIGH SCHOOL,901 Hopkins Road Suite B,,Haddonfield,08033-0000,e7fdd76242f45459d280f20c06ed4c5a61d7c777,2025-07-20T15:03:00.489Z,26be20dc-ec14-4d16-9f96-0b5f43f7aa2f
4259,265-99265-00,Georgia,TALIAFERRO (COUNTY),113 Monument Street,,Crawfordville,30631-0000,62b8aa7cad596771e6ac483ee03d9b6d8a383204,2025-07-20T15:03:00.489Z,fe16c7eb-6833-44dd-aff2-3ce8a0299e9d
1545,105-02550-00,Florida,"AUBURNDALE, CITY OF",ONE BOBBY GREEN PLAZA,,AUBURNDALE,33823-0000,9ce4475b9730caca4b293d8940ec65be9d1ba93c,2025-07-20T15:03:00.489Z,6337b3c4-6d9a-4c5f-816a-e2c444157641
4250,109-99109-00,Missouri,LAWRENCE (COUNTY),1 Courthouse Square,Suite 101,Mt. Vernon,65712-0000,bcc444a51cdbaeb7d237d5ac6cc71389f0f1e0d0,2025-07-20T15:03:00.489Z,20d272bd-9cff-4cc3-884d-dac1a7bdd624
1763,079-75810-00,Iowa,"STRATFORD,CITY OF",805 SHAKESPEARE  AVENUE,,"STRATFORD,",50249-0000,f1b5264ba4375fe77e3bd368d19ae31932b3c39d,2025-07-20T15:03:00.489Z,f6e53447-9976-4ab4-a1fc-976e74223a90
1763,000-UG6A3-00,Iowa,MAQUOKETA VALLEY ELECTRIC COOP,109 NORTH HUBER STREET,,ANAMOSA,52205-0000,fb6366c68358b78291145e435d011d79218a6969,2025-07-20T15:03:00.489Z,1d5b5504-05ec-4e3a-a1ea-30bcb12cbcf6
1545,003-00337-00,Florida,BAKER COUNTY SCHOOL DISTRICT,392 SOUTH BLVD EAST,,MACCLENNY,32063-0000,e429d8580cbb67d0bcfcf1ed9aa84f584b3e94a2,2025-07-20T15:03:00.489Z,3d02a75f-d0d8-4752-87e4-45602692dc5a
4304,083-UL8ZR-00,Kansas,HODGEMAN COUNTY LANDFILL,29987 SE LL Road,,Jetmore,67854-0000,c60f2832d67b915fe9ed89dbe2def114d8e17ece,2025-07-20T15:03:00.489Z,740935f2-6794-4d76-b7dd-27d5c2617909
1650,077-55695-00,New York,OTSEGO (TOWN OF),811 COUNTY HIGHWAY 26,,FLYCREEK,13337-0000,410407f2275a6d8bd167adb4d3ef189a62cf9b02,2025-07-20T15:03:00.489Z,33fe0c88-e388-46c3-9a4f-5a32ed615b56
1763,191-U97TS-00,Iowa,FREEPORT WATER & SEWER DISTRICT,2597 SCENIC VIEW ROAD,,DECORAH,52101-0000,39375d1f2b0cea2ced80bd914400d33e7d7b2d2b,2025-07-20T15:03:00.489Z,ecab6373-d3b9-489f-aa58-d03aa68564e3
1561,103-12875-00,Florida,"CLEARWATER, CITY OF",112 S. OSCEOLA AVENUE,,CLEARWATER,33756-0000,bc06528c08717493dff0d1a7949442dd0391e656,2025-07-20T15:03:00.489Z,2e69e10a-e243-489b-a9a1-998f444f6fea
4334,017-94045-00,Iowa,SUMNER,105 E 1st Street,,Sumner,50674-0000,7a929201b05c99ed90ce6e8b8dd51f66478f6834,2025-07-20T15:03:00.489Z,fa3a9db0-503d-4792-b233-969b0396ab0f
1792,001-63645-00,Louisiana,RAYNE,801 The Boulevard,,Rayne,70578-0000,f039040f691147d0e5a41fb527debae267e28bf6,2025-07-20T15:03:00.489Z,6f009f33-6664-4d14-8565-e0f32250012b
1545,071-99071-00,Florida,LEE COUNTY,2115 SECOND STREET,,FORT MYERS,33901-0000,64b20b506953e563f73d9ccb41a653367c1c9547,2025-07-20T15:03:00.489Z,bc58a678-289a-41cd-81be-c26dc89b7bf0
1561,081-U6XEQ-00,Florida,PALMETTO/PALMS OF TERRA CEIA BAY COMM. DEV. DIST.,2625 TERRA CEIA BAY BLVD.# 701,,PALMETTO,34221-0000,7c33fc4eb40044bdcd947932cb565077edcbdffe,2025-07-20T15:03:00.489Z,419955f2-14d7-4be5-b2c1-d42b7bf0c59f
4021,015-30180-00,New Jersey,HARRISON (TOWNSHIP OF),114 Bridgeton Pike,,Mullica Hill,08062-0000,f96429642ea20300c23369f4c3ae72d7ce48516d,2025-07-20T15:03:00.489Z,2ba5e7c0-c0bc-4541-8742-6ad3c724a1aa
1971,000-UNX38-00,Alabama,ALABAMA DEPARTMENT OF CORRECTIONS,301 S. Ripley Street,,Montgomery,36104-4425,b9bf7e6b5d24330f2227f2c4694a9f905c9fc580,2025-07-20T15:03:00.489Z,7081617d-5a7c-4eb9-863f-c184fdbae7c1
1792,019-UYOJV-00,Louisiana,CALCASIEU GRAVITY DRAINAGE DISTRICT 8 OF WARD 1,2841 Goos Road,,Lake Charles,70611-0000,d930c40981ba32f1fd742c2b2c19090942436a74,2025-07-20T15:03:00.489Z,33862ad1-7b5c-4345-8cd2-019d5fbb5744
4022,023-UPAQS-00,Vermont,"NORTHFIELD, VILLAGE OF",51 S. Main Street,,Northfield,05663-0000,3eb79eb5e3eed84635940f1b7572a79f21c50a45,2025-07-20T15:03:00.489Z,c20f02fe-33db-4889-b260-0f2e3f828dec
4031,025-13261-00,New York,DELAWARE COUNTY PLANNING BOARD,Page Ave,,Delhi,13753-0000,68e09299b85d5bb067411d2faa25e44b9a64a662,2025-07-20T15:03:00.489Z,941f9d4b-4096-4ea4-b254-6106bb788ee7
1971,115-02320-00,Alabama,ARGO,100 Black Jack Rd,,Trussville,35173-0000,e4ab1c8ea543f65a9345726732ac7a399f4514d4,2025-07-20T15:03:00.489Z,1f63f5f8-7a5e-45a1-8200-66d104d41bf8
1971,125-UE785-00,Alabama,LAKEVIEW FIRE PROTECTION DISTRICT,21289 Phyllis Drive,,Lakeview,35111-0000,4ae553cefd71712554de37d19b52874ccc5e168e,2025-07-20T15:03:00.489Z,f3372057-527b-4dfd-8318-a6653d7b732c
4022,017-15700-00,Vermont,CORINTH (TOWN OF),2628 Goose Green Road,,Corinth,05039-0000,5f92839e955eaca2b4454564d70aa20a588c74de,2025-07-20T15:03:00.489Z,804e0dc3-5be8-4deb-ad7a-414df72b9595
4031,007-49396-00,New York,NANTICOKE (TOWN OF),755 Cherry Valley Hill Road,,Maine,13892-0000,45977751a76cc2acbf21792318ab96c6fb446e10,2025-07-20T15:03:00.489Z,3c06d910-e3aa-4a8d-9710-a00b6570ca99
1818,039-UL2YJ-00,Kentucky,CARLISLE COUNTY SANITATION DISTRICT #1,2286 US 51N,,Bardwell,42023-0000,78e5b49d6c78c2a0bd6eefd79ab19023c22704da,2025-07-20T15:03:00.489Z,48ad6f09-d072-4ae3-a8c5-2f95b606237e
1818,079-UOBLK-00,Kentucky,BLUEGRASS 911 CENTRAL COMMUNICATIONS,308 W. Maple Avenue,Suite 5,Garrard,40444-0000,fcd26746ff2922824481f3141677005c9c7b8aa3,2025-07-20T15:03:00.489Z,6da4f3d5-e7ab-4603-b9c5-2a3b09e73439
4031,107-U38I9-00,New York,COBURN FREE LIBRARY,275 Main St,,Owego ,13827-0000,345dbf1c36a94c5190c9ce7251bdcede9b81c947,2025-07-20T15:03:00.489Z,ee139040-c806-4674-bce5-bfee9dd8034d
4562,039-U0Y4K-00,Oregon,BLUE RIVER WATER DISTRICT,51162 McKenzie Hwy,P.O. Box 292,Blue River,97413-0000,e4de98e4c923933da09c40c59fb88a5d24a2f737,2025-07-20T15:03:00.489Z,2e89ac73-6ede-4deb-876e-a17dc4d149f3
4021,029-UM75Q-00,New Jersey,TOMS RIVER TOWNSHIP BOARD OF FIRE COMMISSIONERS #1,45 West Water Street,,Toms River,08753-0000,a0393924632bc9231348915f840f649e6cbd057d,2025-07-20T15:03:00.489Z,d5c4c0f8-4ee1-4c44-916d-75a490b4bdce
4250,215-50042-00,Missouri,MORRIS (TOWNSHIP OF),11205 Oak Tree Dr.,,Mountain Grove,65711-0000,1ed8b8c2175a5cf884382eb6db6241d69407d43e,2025-07-20T15:03:00.489Z,f7b3d25d-7dfd-4783-937f-7b20c98e08ef
4251,031-99031-00,Alabama,COFFEE (COUNTY),1065 E. McKinnon Street,,New Brockton,36351-0000,75a921d31c609cb0158f97c97c507015b76d7dd5,2025-07-20T15:03:00.489Z,0f4dac27-849b-4d2e-a1dd-656956f0e6c3
4252,000-UIQX6-00,Idaho,"KOOTENAI ELECTRIC COOP, INC",2451 West Dakota Avenue,,Hayden,83835-0000,ab759f6cbd0187a4ef6e3f34a02b875d305cc02f,2025-07-20T15:03:00.489Z,1c2bdbf5-d40e-4782-b616-099355c59aac
1763,055-05917-00,Iowa,DELAWARE COUNTY CONSERVATION,2379 JEFFERSON RD,,MANCHESTER,52057-0000,042fb063d7839507bff1d5e71af84757067788ba,2025-07-20T15:03:00.489Z,38ff0cfd-34da-432c-8845-8a5523104268
1650,093-65893-00,New York,"SCOTIA, VILLAGE OF",4 N TEN BROECK STREET,,SCOTIA,12302-0000,0a906f93f55d29f2d9b44465607ae533b596d9e8,2025-07-20T15:03:00.489Z,421eec92-d064-41af-9bbd-68339d4dd466
1763,029-33150-00,Iowa,"GRISWOLD, CITY OF",601 2ND STREET,,GRISWOLD,51535-0000,b0edc42b41744bdd712fa3b7587cbfc638ee7268,2025-07-20T15:03:00.489Z,dec5f882-6a60-4920-ad73-a9a24033650b
1545,127-15091-00,Florida,VOLUSIA MEDICAL CTR,1055 SAXON BLVD.,,ORANGE CITY,32763-0000,2d757ab3458fdf9fb534ed4ee4294bdf5154a793,2025-07-20T15:03:00.489Z,50e3eda0-d6d3-44d9-a34e-6f4f538e0676
4091,043-085E8-00,Maryland,WASHINGTON COUNTY HEALTH DEPT,1302 Pennsylvania Avenue,,Hagerstown,21742-0000,be9d9776237706e023793914229505fe2fe4e3e0,2025-07-20T15:03:00.489Z,037bc26c-2ced-4ae8-86a8-312d2eef7621
4261,027-U1ASD-00,Maryland,"TRINITY SCHOOL, INC.",4985 Ilchester Road,,Ellicott City,21043-6837,91e3bbac6513f0293d2f0bd0a64a5654abbb394f,2025-07-20T15:03:00.489Z,2cf1079a-e174-482b-89a2-66bbf1049347
4264,007-UISFM-00,New Jersey,PINE HILL FIRE DISTRICT (BOROUGH OF),1109 Erial Road,,Pine Hill,08021-0000,ca1e52b9b6d225fe2bac48e2de1f7406074d5347,2025-07-20T15:03:00.489Z,627a46e5-399b-4344-b137-826378b8125a
1602,011-U8C1F-00,Florida,"BONNET HOUSE, INC.",900 N BIRCH RD,,FORT LAUDERDALE,33304-0000,139fe03e188351d40c61025c5808ce74a689ad7e,2025-07-20T15:03:00.489Z,31ec108f-2176-4fb7-842a-29bfbf36aa84
4264,025-UNIOK-00,New Jersey,FAIRHAVEN BOARD OF EDUCATION,224 Hance Road,,Fair Haven,07704-0000,6848bc40ce1e382d9b50b3f19a97733d3d5fd0bd,2025-07-20T15:03:00.489Z,65d14798-0b0a-4c48-9e9f-c0bcbefde2ea
1650,083-52100-00,New York,NORTH GREENBUSH (TOWN OF),1 TOWN GARAGE ROAD,,WYNANTSKILL,12198-0000,f3e7a324b3b263b62dd3580f385793e5253d93ef,2025-07-20T15:03:00.489Z,91e19c39-cfec-4604-8aa9-9ebf840dd4df
1539,095-UCMV3-00,Florida,FALCON TRACE CDD,610 SYCAMORE STREET,SUITE 140,CELEBRATION,34747-0000,53f6b9f4542d12fd7de99788e863e05cb7cf2af1,2025-07-20T15:03:00.489Z,d9e9ca3b-c1e5-4e31-9d20-e3c5f9cc5d00
1561,095-19650-00,Florida,"EATONVILLE, TOWN OF",307 KENNEDY BLVD,,EATONVILLE,32751-0000,f0597282c90605919fabbe3d4ed82b155c97ad4e,2025-07-20T15:03:00.489Z,275e2118-8bbd-48d1-bf19-7fcb2b50ef90
1949,000-UET63-01,Virgin Islands of the U.S.,V.I. DEPARTMENT OF PUBLIC WORKS,6002 Estate Anna's Hope,,St. Croix,00820-0000,b9dbd6abadc7d44974caaf744234bdf6af7fa480,2025-07-20T15:03:00.489Z,eed38118-34ec-40c0-af87-84a8c942c431
1971,089-U9L7H-00,Alabama,MADISON COUNTY BOARD OF EDUCATION,146 Shields Rd,,Huntsville,35811-0000,f91c4c11a8ada0d609222b25434552a8fd145fe0,2025-07-20T15:03:00.489Z,f8b153ce-6b67-400d-bcd0-3357de05f89c
4230,079-50475-00,Kansas,NEWTON,201 E 6th Street,,Newton,67114-0000,c23b75477adc87677f3126389a3ae5dcdedfee86,2025-07-20T15:03:00.489Z,1553eb65-bf59-4954-9ff9-3b4f90af7add
4264,005-68610-00,New Jersey,SOUTHAMPTON (TOWNSHIP OF),5 Retreat Road,,Southampton,08088-0000,0c0af9b825ff5862a036435a579d125dab0a0218,2025-07-20T15:03:00.489Z,01a8833d-4452-4ef0-9bef-d4f3ff518347
4021,015-U0GI9-00,New Jersey,WOODBURY HEIGHTS BOROUGH FIRE AND EMS,534 Elm Avenue,,Woodbury Heights,08097-0000,966ff63f83c82791add9c68aa03e9ac71c5dc495,2025-07-20T15:03:00.489Z,73480181-ca35-43e4-81f5-52aa710fe8c0
4031,077-11528-00,New York,BUTTERNUTS (TOWN OF),3 Vale Street,,Gilbertsville,13776-0000,a329bd8dad5530428b07094a8e06a844da66ddba,2025-07-20T15:03:00.489Z,7d73d49f-2a7a-44b4-8962-8b91f3fc3775
4021,033-U5EKQ-00,New Jersey,MATER DEI NURSING HOME,176 Route 40,,Newfield,08344-0000,9de4ae339258b2fece364bae9c719c9053f2fe1d,2025-07-20T15:03:00.489Z,0cc15922-08d7-4ed9-9d5e-0256e0452150
4109,151-UD82D-00,Oklahoma,NORTHWEST TECHNOLOGY CENTER,1801 11th Street,,Alva,73717-0000,bc250aaeeb1c6a51862fa4af2dd1c88c89c122d7,2025-07-20T15:03:00.489Z,5188b757-2563-41bb-b5d3-f16c28bb70bd
4017,077-99077-00,Puerto Rico,JUNCOS (MUNICIPIO),Escute Street,,Juncos,00777-0000,5dafbbe831cfc9d59e2c86838f47a8203f3127f6,2025-07-20T15:03:00.489Z,b3627cc2-f70b-4693-b2de-b935c888e1ec
4021,039-64650-00,New Jersey,ROSELLE PARK,110 East Westfield Ave. ,,Roselle Park,07209-0000,a1dbf14084caf43db49adc8ffb733b3bfe3d7731,2025-07-20T15:03:00.489Z,71ca4d76-de91-403e-bec5-36797c57135d
4069,000-U3V5J-00,Minnesota,MINNESOTA DEPARTMENT OF NATURAL RESOURCES,1201 East Hwy. 2,,Grand Rapids,55744-0000,12c124eefa8240186fb56371a447b8ceee999503,2025-07-20T15:03:00.489Z,362711f1-9556-4d06-8242-214c7813a233
4107,005-US91V-00,Rhode Island,NEWPORT HOUSING AUTHORITY,120 B Hillside Ave,,Newport,02840-0000,d34f5246a43e5e0cb66a42e61a49a78c2d356157,2025-07-20T15:03:00.489Z,4ff0ed52-8dbb-4434-98e2-93599b4c8e1e
4238,047-0A147-00,Missouri,FISHING RIVER FIRE DEPT,12314 4th St,,Mosby ,64073-0000,d505e4b44e9a8dcae692b89f92138a7ff48ec152,2025-07-20T15:03:00.489Z,5f3a4a08-aad4-4a6e-9391-7088ac2c5714
1539,000-004B9-00,Florida,SW FL WATER MANAGEMENT DISTRICT,2379 BROAD STREET (US 41 SOUTH),,BROOKSVILLE,34604-0000,c7c16d2e8374bfdfaba5f1124a699ad02a89950f,2025-07-20T15:03:00.489Z,9eddda40-b7b8-45fd-a0c8-7278b489046e
4191,000-U03QC-00,Guam,GUAM POLICE DEPARTMENT,Bldg 13-16a Mariner Ave,,Tiyan Barrigada,96913-0000,7cc4bee95472dec404eb87d9e27504b073cfc13b,2025-07-20T15:03:00.489Z,0334b92e-7de2-4bc3-9b44-0734707a6c1f
4238,051-99051-00,Missouri,COLE (COUNTY),311 E High St.,,Jefferson City,65101-0000,ce01280f0535251d87dca26ebd2cc5ae4eefefc9,2025-07-20T15:03:00.489Z,fda3a5a4-b211-48b6-978e-86c6858a3efc
1561,009-71900-00,Florida,"TITUSVILLE, CITY OF",555 S. WASHINGTON AVENUE,,TITUSVILLE,32796-0000,a7c49be08817cf63d13f1c4c31b28fa0e392b41a,2025-07-20T15:03:00.489Z,abed506f-6a8a-4680-82dd-c2382d41189d
4021,025-UCT0D-00,New Jersey,MERIDIAN NURSING AND REHABILITATION INC.,89 Avenue at the Commons,,Shrewsbury,07702-0000,d301405ee05e7923a8b7ebe87c53a5e5fbc2a567,2025-07-20T15:03:00.489Z,3eebbd69-eaf4-4288-b701-3474d30a6e03
1807,000-UO94L-01,Virgin Islands of the U.S.,"V.I. HOUSING, PARKS AND RECREATION",3000 LBJ GARDENS,,CHRISTIANSTED,00820-0000,157028dfd4f30703c2a1e4e1afe92689caef7c11,2025-07-20T15:03:00.489Z,7af234c7-f90c-4231-abec-4aaf10324dca
4117,017-002CB-00,Oklahoma,YOUTH & FAMILY SVC,7565 East Highway 66,,El Reno,73036-0000,203c612d39a6941efe8e6acdf9bf3313ea0678a6,2025-07-20T15:03:00.489Z,afc0725e-7bbf-4246-8126-f8da830cb03d
4183,051-99051-00,Nebraska,DIXON (COUNTY),302 W 3rd,,Ponca,68770-0000,f5a6d7a9c40c27995e79ce8c49ea58af15c0c44d,2025-07-20T15:03:00.489Z,c238eebe-0780-4427-afbc-82b81bdc85e2
4288,123-76725-00,Wisconsin,STARK (TOWN OF),S3803 Corps Rd,,LaFargo,54639-0000,e1fdfaeb4e9b2f6d8632523f7925a11cc4ed9c16,2025-07-20T15:03:00.489Z,2259b53a-fb37-42a6-8605-f2bc64460cfb
1763,113-U0GU7-00,Iowa,COMMUNITY THEATRE BUILDING CORP,102 THIRD STREET SOUTHEAST,,CEDAR RAPIDS,52401-0000,5a78fcde3f7816fe0dcc579add302137f5a1edac,2025-07-20T15:03:00.489Z,96fbf673-6bc2-4c63-9bae-a4ba581d859a
4334,043-33465-00,Iowa,GUTTENBERG,502 S. 1st Street,,Guttenberg,52052-0000,1256cf5293edc958d592f7980e5bf44f35356d5f,2025-07-20T15:03:00.489Z,5f7a18c2-f65b-4261-abec-2979a30c699c
1763,111-UV5TO-00,Iowa,NORTHLEE COUNTY HISTORICAL SOCIETY,814 10TH STREET,,FORT MADISON,52627-0000,073fe16b80fe38ecc1bc34544f2bae9bf86fdc6d,2025-07-20T15:03:00.489Z,de962f1d-168b-4c34-a716-fb3bb55652ff
1763,137-32295-00,Iowa,"GRANT, CITY OF","104 ""U"" AVENUE",,CARANT,50847-0000,bb51c16ddcef25b05cf4286607fc611d0e8af5c3,2025-07-20T15:03:00.489Z,4c14f367-9102-4f7e-8274-161bfd5adc6f
1650,035-71784-00,New York,STRATFORD (TOWN OF),COUNTY RD. 104 P.O. BOX 218,,STRATFORD,13470-0000,038f2b3c977386287451e9e717820a8debade653,2025-07-20T15:03:00.489Z,6662cfb2-2da9-42df-861f-91486d02dc28
1561,079-U1HQE-00,Florida,"MADISON COUNTY HOSPITAL HEALTH SYSTEM, INC.",201 E. MARION STREET,,MADISON,32340-0000,f4b5ea516a1023105fc81e72ea359cbae21b4e96,2025-07-20T15:03:00.489Z,cfd8a8f1-c9f0-4f48-a7a4-9b202b544fea
4325,025-39345-00,Nebraska,PLATTSMOUTH,136 North 5th Street,,Plattsmouth,68048-0000,88dda6f20458a6c87a5493a945bc3f11de49c491,2025-07-20T15:03:00.489Z,b4b1c391-d4a1-4729-9de1-cab0f85af824
1539,039-99039-00,Florida,GADSDEN COUNTY,9 B EAST JEFFERSON ST.,,QUINCY,32351-0000,a7e94ce5c8e071cc73ca57cdeababcb12d3d617c,2025-07-20T15:03:00.489Z,68b082f2-fdf5-4cdb-80f5-857c27cf7f1a
1539,081-UGQ4S-00,Florida,WEST MANATEE FIRE & RESCUE DISTRICT,6001 MARINA DRIVE,,HOLMES,34217-0000,a7f213b4c07cdfe03925f0e316ebc021ef2900c5,2025-07-20T15:03:00.489Z,96bdd4c4-c819-478d-9700-3a559cd676fb
1818,087-99087-00,Kentucky,GREEN (COUNTY),203 West Court Street,,Greensburg,42743-0000,7c733344fdd4a204a27f25fe4e442bef12270e12,2025-07-20T15:03:00.489Z,30c02107-0b79-4be1-89c3-099c02f81fc3
4021,039-U36CR-00,New Jersey,CLARK BOARD OF EDUCATION,365 Westfield Avenue,,Clark,07066-0000,792f5e44e2ea84d4d27d30205d2d73ad8729a4ef,2025-07-20T15:03:00.489Z,b6c77ec0-fb24-4de4-b3ac-97385fa29ae0
1807,000-UET63-02,Virgin Islands of the U.S.,VIRGIN ISLANDS DEPARTMENT OF PUBLIC WORKS,6506 ESTATE SUSANNABERG,,CRUZ BAY,00830-0000,088d6fd81b2bf2f493b964522fb77ab645222b0f,2025-07-20T15:03:00.489Z,0b82f5f7-ea35-4091-944d-f4cdf0fbb5f3
1976,181-99181-00,Kentucky,NICHOLAS (COUNTY),125 E. Main Street,P.O. Box 167,Carlisle ,40311-0000,71aab490c44b9cf804cb23d7ac8676faeffbbef5,2025-07-20T15:03:00.489Z,e2e05ce9-e4d5-4795-a47e-a45828596900
1602,011-UAJXN-00,Florida,SOUTH FLORIDA REGIONAL TRANSPORTATION AUTHORITY,800 NW 33RD STREET #100,,POMPANO BEACH,33064-0000,7df398c6fe037bbb14dd34c4466a1bf0ce576b73,2025-07-20T15:03:00.489Z,39343c32-c770-4f92-9207-9617a33490e6
1763,013-UFONG-00,Iowa,OPERATION THRESHOLD,300 WEST 3RD STREET,,WATERLOO,50701-0000,34079376f80a2c6a0566d6ec63c5c6b5f984a212,2025-07-20T15:03:00.489Z,541896af-2489-479b-8e30-bc26bba7ce56
4320,157-48000-00,Tennessee,MEMPHIS,125 N. Main Street,,Memphis,38103-2090,11ea70ce6cc9e08289f1512726f65aaac65422b3,2025-07-20T15:03:00.489Z,387b4dff-a2f6-4e43-8517-c922335cd6af
4021,019-99019-00,New Jersey,HUNTERDON (COUNTY),"314 Sate Route 12, Suite 120",,Flemington,08820-2900,a3247133b792d6f00097bd1d76642f9643073eb1,2025-07-20T15:03:00.489Z,6134df01-a561-4846-b978-a904d926dc11
4028,001-19295-00,Massachusetts,EASTHAM (TOWN OF),2500 State Highway,,Eastham,02642-0000,00d47a86301a05343a86f685ed72b8b15b0c8ec7,2025-07-20T15:03:00.489Z,c4b7e13f-cd1a-431f-8395-80867ead951c
4021,035-UNLTN-00,New Jersey,RELIEF FIRE COMPANY #4, 17 Vankeuren  Ave      ,,Bound Brook,08805-0000,2d7dc51095eb9d31964bd195cf2cd1e136b61ed9,2025-07-20T15:03:00.489Z,bf623837-8926-40ff-80a3-424dd604da51
4057,115-99115-00,Kentucky,JOHNSON (COUNTY),230 Court Street,Suite 201,Paintsville,41240-0000,5138a1265dd492ef0d9f1e5d998c39068e364e68,2025-07-20T15:03:00.489Z,c093a248-ebe7-4b0d-be32-e0e82c4e1739
4021,019-46260-00,New Jersey,MILFORD,P.O. Box 507,,Milford,08848-0000,d082e3af8b972364c22b255bbb86321a527928ab,2025-07-20T15:03:00.489Z,c83cf768-8728-4930-bd8d-ee90d2631d8f
4021,003-72420-00,New Jersey,TENAFLY,100 Riveredge Road,,Tenafly,07670-0000,4e6b6f93b344c664e3e4ebea04a5829182f7b6bb,2025-07-20T15:03:00.489Z,85806769-2ada-4e92-9134-a32ba547ef8b
4028,003-61065-00,Massachusetts,SHEFFIELD (TOWN OF),21 Depot Sq,,Sheffield,01257-0000,2e413f0c557d03e5af7c839d1d30dc94925cc2cb,2025-07-20T15:03:00.489Z,9e8e33c3-072e-46d9-a1de-5f27475102b1
4021,031-79460-00,New Jersey,WEST MILFORD (TOWNSHIP OF),1480 Union Valley Road,,West Milford,07480-0000,dc6edbc2412d433310a7d6be3e93838fde2b86e1,2025-07-20T15:03:00.489Z,6d772eb5-6d31-400e-8c2e-0b0a0842316e
1979,095-99095-00,Tennessee,LAKE (COUNTY),229 Church Street,,Tiptonville,38075-0000,7ec5d3a9154f3b8d6f704f656332daac3f1ea337,2025-07-20T15:03:00.489Z,50b9eaf6-c16f-4e1a-ac44-12dbb1815a4b
4028,021-74175-00,Massachusetts,WELLESLEY (TOWN OF),457 Worcester Street,,Wellesley,02481-0000,344cb51385377d8e10224710a0ac76f98b952fc3,2025-07-20T15:03:00.489Z,efad8350-88b6-4c2e-9d4a-541fe146b546
4022,023-UM66Z-00,Vermont,"WOODBURY VOLUNTEER FIRE DEPARTMENT, INC.",VT RT 14,,Woodbury,05681-0000,c7d708365415905d2c99c836932ec563a7994393,2025-07-20T15:03:00.489Z,098f7550-2c40-4072-93ba-da025c37120f
4029,401-99401-00,Texas,RUSK (COUNTY),115 North Main,Suite 500 A,Henderson,75652-0000,7aa4447ecb791913288057ca385a520e82b0dbaa,2025-07-20T15:03:00.489Z,d45a85c9-0fcc-4242-84a2-bfc7e0ac2b84
4031,043-27199-00,New York,FRANKFORT (TOWN OF),140 S Litchfield St,,Frankfort,13340-0000,b0492becd8be13dec54365b547e1a3a294204fc4,2025-07-20T15:03:00.489Z,8cdb4cc2-b2bd-4492-ac8d-ed3422d385bf
4021,027-U8N0S-00,New Jersey,PARSIPPANY FIRE DISTRICT # 5,650 Old Bloomfield Avenue,,Parsippany,07054-0000,05b2876e848c7e0e5ac44b4fafabf5c30373249c,2025-07-20T15:03:00.489Z,b2cb6bfc-5f07-4df7-9d56-6b9aa82f18c3
4022,021-UWO1G-00,Vermont,DANBY MT. TABOR FIRE DISTRICT #1,297 Brook Road,,Danby,05739-0000,9077bbb736f0479c92c5c2b7e42b967b09c55fda,2025-07-20T15:03:00.489Z,cc680aed-ac61-41d5-a5e1-49fd4facbd5a
4031,095-18E68-00,New York,BLENHEIM FIRE DEPT,1748 State Rt 30,,N. Blenheim,12131-0000,61be16bbd628caa47b45abb5fb6d0d7b02437cce,2025-07-20T15:03:00.489Z,966a4647-3dbc-42ec-9960-b9cc26f489cd
4288,057-81725-00,Wisconsin,UNION CENTER,339 High Street,,Union Center,53962-0000,86d14f57de6994b2b3a06927c4b686c0a9bde27b,2025-07-20T15:03:00.489Z,fb6f6cdc-69e7-4679-877c-bfb166280cba
4274,141-00AA1-00,Oklahoma,TIPTON PUBLIC SCHOOLS,1000 S. Broadway ,,Tipton,73570-0000,38ff91863a8c1556d4fce252268d39fad5fa8e0f,2025-07-20T15:03:00.489Z,bed56ef7-4f88-4cc8-bf8a-5e53b060396d
4251,033-53016-00,Alabama,MUSCLE SHOALS,214 Industrial Drive,,Muscle Shoals,35661-0000,cb09ac4d7607fb034722bfe6c1e83d0b53466e9e,2025-07-20T15:03:00.489Z,9a2c3c62-0012-42e1-83b1-249231faccb1
1561,127-U4T3D-00,Florida,ORLANDIA HEIGHTS NEIGHBORHOOD IMPROVEMENT DISTRICT,137 S. HIGHWAY  17-92,,DEBARY,32713-0000,705f87e9f1ce0d8a143c460b0f954b1453c9a22b,2025-07-20T15:03:00.489Z,bb077bb5-c0c8-414a-9f31-3f52331c69bb
1561,099-55675-00,Florida,PELICAN LAKE WATER CONTROL DISTRICT,2832 N. MAIN STREET,,BELLE GLADE,33430-0000,51cd37cc76d2c7d8c005025e27c44df73d5fe6b9,2025-07-20T15:03:00.489Z,26718ce8-f331-4672-a41d-a02d30d4c1f5
1561,073-UW5Y7-00,Florida,LEON COUNTY SCHOOL BOARD,2757 PENSACOLA ST,,TALLAHASSEE,32304-0000,3292ab34b164d29f7b1b2286e25fdf35d80ef25a,2025-07-20T15:03:00.489Z,114a1e38-c775-4d5b-9094-7659ba2ae7ae
1763,113-U9FQ1-00,Iowa,LIFELINE MINISTRIES,800 G AVE NORTHWEST,,CEDAR RAPIDS,52405-0000,2e4d1fe2f7cb286ad502c673b49ebe2184a002bc,2025-07-20T15:03:00.489Z,417cb116-5af2-4a2b-957f-10c3ff72ceb9
1561,099-74485-00,Florida,VILLAGE OF GOLF,21 COUNTRY ROAD,,VILLAGE OF GOLF,33436-0000,89906905115afb0f2433246a43a79e617cf032af,2025-07-20T15:03:00.489Z,925a864d-d190-432a-bd1e-18a2be53d73f
1763,169-40395-00,Iowa,"KELLEY, CITY OF",1111 GRACE STREET,,KELLEY,50134-0000,2335e007c06874e68e77a39ef8dae005c70f80b3,2025-07-20T15:03:00.489Z,f5ac3733-cac0-4274-87e0-c6f7b1c7ab3b
1763,113-74775-00,Iowa,"SPRINGVILLE, CITY OF",304 BROAWAY,,SPRINGVILLE,52336-0000,c7c333c82ea815fde00f8a0a872a658939d054f7,2025-07-20T15:03:00.489Z,03106e7c-5dc3-4121-85d9-eee999d164df
4264,039-40350-00,New Jersey,LINDEN,301 North Wood Ave,,Linden,07036-0000,2893d06e578aad35146838b50b836dd2dfc0c056,2025-07-20T15:03:00.489Z,1c877974-b0a6-4e3a-ab8d-7db67e8a252c
1763,000-UDJ74-03,Iowa,IA DEPT OF NATURAL RESOURCES  FISHERIES BUREAU,2093 EAST LOCH AYR ROAD,,MOUNT AYR,50854-0000,e43e68012ed18f5e614c8283cc5f921a556a32ac,2025-07-20T15:03:00.489Z,0a54d721-1105-4c9b-8d6d-fae4f872c264
1650,035-99035-00,New York,FULTON (COUNTY),2712 STATE HIGHWAY 29,,JOHNSTOWN,12095-0000,cf43a16c30045efa1d84118c9ddfa6fb4c18ec29,2025-07-20T15:03:00.489Z,e0e68aff-9365-4592-a082-62dd6c8f5aeb
4320,141-99141-00,Tennessee,PUTNAM (COUNTY),270 Carlen Drive,,Cookeville,38501-0000,9f23fb85aa2876e24a0ef9ad7582cc5362a766db,2025-07-20T15:03:00.489Z,856ee96a-2b23-48d9-ac88-2fdd4e497be9
1763,047-06479-00,Iowa,CRAWFORD COUNTY CONSERVATION BOARD,"1202 BROADWAY, COURTHOUSE",,Denison,51442-0000,b086d7ee0f5aa38ef7eca6fe3481082953140320,2025-07-20T15:03:00.489Z,eab1fc63-eccc-434b-be27-59bfe3a8e028
1602,086-UU5W5-00,Florida,"INFORMED FAMILIES / THE FLORIDA FAMILY PARTNERSHIP, INC.",2490 CORAL WAY,,MIAMI,33145-0000,3a51ea9d7ba1d952a1d066f8777b88184e5c2013,2025-07-20T15:03:00.489Z,04f2a8da-871e-4829-ac5c-868cabd1f040
1763,057-UTWEV-00,Iowa,DES MOINES COUNTY DRAINAGE DISTRICT 8,11798 TAMA ROAD,,BURLINGTON,52601-0000,c60165ab6a07663c97959a1a0887012579904c63,2025-07-20T15:03:00.489Z,2aa9cf56-838f-45f4-a199-df2a8ebe0704
1539,097-11285-00,Florida,"CELEBRATION, CDD",610 SYCAMORE STREET,SUITE 140,CELEBRATION,34747-0000,6794447847f219a705f15b78041bb78ed88e5615,2025-07-20T15:03:00.489Z,64d31bfc-503c-4607-89b9-ba9f417fa278
1602,086-26250-00,Florida,"GOLDEN BEACH, TOWN OF",ONE GOLDEN BEACH DRIVE,,GOLDEN BEACH,33160-0000,38d20f81168f986e9379432830dd9cb6f098899c,2025-07-20T15:03:00.489Z,116cb81a-bee3-4ade-a26e-0a99245effe2
1818,033-UW0NY-00,Kentucky,CALDWELL COUNTY EMERGENCY MEDICAL SERVICES,102 Northfield Drive,,Princeton,42445-0000,3e32ebbddf70cf4a4584b921b54561ef2cb1870c,2025-07-20T15:03:00.489Z,7d2a4a91-7b81-4faa-952b-60c449e6975a
4031,007-0C3B3-00,New York,WEST CORNERS FIRE PREVENTION,500 Day Hollow Rd,,Endicott,13760-0000,5e7dc29617a7b906eddf297cb34e0ee77fbc70d0,2025-07-20T15:03:00.489Z,01b35cf9-6a71-4546-9b08-0a76927ee1f0
1818,000-U0014-00,Kentucky,KY DEPARTMENT OF TRANSPORTATION,200 Mero Street,,Frankfort,40622-0000,853bc21f050d36e2e01e35f69ec1e42dfab489c8,2025-07-20T15:03:00.489Z,b474f4b9-02a2-4a16-8df0-4a5dd067f4ec
1841,025-39952-00,Kentucky,JACKSON,333 Broadway Street,,Jackson,41339-0000,91376182a7c7e4e26635e88f6c27788e08c50596,2025-07-20T15:03:00.489Z,874c0309-047c-4e28-87ea-28b95c7b8e41
1818,155-99155-00,Kentucky,MARION (COUNTY),"773 N. Spalding Avenue, Rm 2111",,Lebanon,40033-0000,a6c54610a20add00fbb2cc00f9f4f2c9db2f2658,2025-07-20T15:03:00.489Z,e6732c44-9da0-4ccc-8ca5-1a22c30700b3
4331,049-51100-00,West Virginia,MANNINGTON,206 Main Street,,Mannington,26582-0000,3413f8723fd8057faf3571cf8b204d1897f87745,2025-07-20T15:03:00.489Z,868992b0-05c9-46c9-946d-a88fd205633e
4069,061-70306-00,Minnesota,WILDWOOD (TOWNSHIP OF),30287 Spithand Road,,Grand Rapids,55744-0000,61a9b4daf6a11103ebd21586b911d5d4f70ba874,2025-07-20T15:03:00.489Z,6960a6e7-4522-4c52-b8f2-f7c32753a6a2
1971,043-32968-00,Alabama,HANCEVILLE,112 Main Street SE,,Hanceville,35077-0000,05703409e477d412eddaf221fcebb27e627fb559,2025-07-20T15:03:00.489Z,eaa18ba4-89f4-40c4-8745-14fab7617780
4021,039-99039-00,New Jersey,UNION (COUNTY),300 North Ave E,,Westfield,07090-0000,4a7e94eb74367ac1d45194e506bde43edccdd0f9,2025-07-20T15:03:00.489Z,67581387-d9fb-4662-a7dd-90c8cdf76dd0
4021,031-UG7JQ-00,New Jersey,HOLLAND CHRISTIAN HOME,151 Graham Avenue,,North Haleden,07508-0000,1ed26fbae1f35582a4a5ceb0b2c3c1b9b33b1c5c,2025-07-20T15:03:00.489Z,3ba44984-c8d5-404b-adc6-2c31834ac798
4334,000-UOE95-00,Iowa,IOWA DNR/WILD LIFE BUREAU,502 East 9th Street,,Des Moines,50319-0000,3ab7ddf143b2c695ac53c8cdc3a4f19c277aad83,2025-07-20T15:03:00.489Z,bc915926-be9c-45af-b8e7-8f512cb1b792
4562,000-U0287-00,Oregon,OREGON DEPARTMENT OF FISH & WILDLIFE,4034 Fairview Industrial Dr SE,,Salem ,97302-0000,0b3dc7c0070de16a08b8327f575b9998b6f20fc7,2025-07-20T15:03:00.489Z,ecf485d9-c5f8-4c8d-9dfd-677bc032c4f0
4069,137-99137-08,Minnesota,ST. LOUIS (COUNTY),100 N. 5th Ave. W. #103,,Duluth,55816-0000,b1653ded93c918ae81e7798d7303dc791be5cb63,2025-07-20T15:03:00.489Z,8569eda6-efb2-41e2-978a-497c6ebcb4d8
1679,000-U03D6-00,Florida,FLORIDA COMMISSION ON COMMUNITY SERVICE,401 S MONROE STREET,,TALLAHASSEE,32301-0000,f61fdece1e10fef3fca8c6f409babd68eac98217,2025-07-20T15:03:00.489Z,9e08741d-48c6-4f42-8a60-28e77a1bea77
1545,000-U03DA-00,Florida,DEPARTMENT OF HEALTH,4052 BALD CYPRESS WAY,"RM 330, BIN #01",TALLAHASSEE,32399-0000,8a0f861b8ff77c3b0f182c78f823c27f1c89ff0b,2025-07-20T15:03:00.489Z,51ba438d-aae3-457f-a1d3-3fdb4cd4bc15
4250,213-62570-00,Missouri,ROCKAWAY BEACH,State Hwy 176,,Rockaway Beach,65740-0000,899a6c29c89231c3d23fe9e82e628eea456fb907,2025-07-20T15:03:00.489Z,3c72c568-850f-43a4-9822-972285d33b33
4261,033-08775-00,Maryland,BOWIE,16500 Annapolis Road,,Bowie,20715-0000,dd5b81cc6d9f3f79c904b7ece9d8dffdbd165137,2025-07-20T15:03:00.489Z,7cb78bce-5370-43f9-b6a3-7e7c1b5aa9fc
1539,069-UPWL6-00,Florida,COUNTRY GREENS,610 SYCAMORE STREET,SUITE 140,CELEBRATION,34747-0000,95cae1c7816075af5566aed4b47ebba367cd506c,2025-07-20T15:03:00.489Z,3f8f3f32-ff86-4f58-be1b-7e51e18ecaae
1545,099-76600-00,Florida,"WEST PALM BEACH, CITY OF",200 SECOND STREET,,WEST PALM BEACH,33402-0000,cd33c9881a8fad378c6ff9fb7fb58b2d6312b734,2025-07-20T15:03:00.489Z,3d095f9c-2d22-406d-863f-f63fe0cc1671
1650,077-UQIZD-00,New York,HARTWICK COLLEGE,1 HARTWICK DR,,ONEONTA,13820-0000,a8fb8926f03d361c92cd7952f0a6cb7b56c13e99,2025-07-20T15:03:00.489Z,b6751e06-fee3-45dd-9acb-7c96a982a3cd
1539,071-07525-00,Florida,"BONITA SPRINGS, CITY OF",9220 BONITA BEACH ROAD,SUITE 111,BONITA SPRINGS,34135-0000,4a751b79278dce84ef6b78111fd89d573a9a7b3c,2025-07-20T15:03:00.489Z,bf06dce7-d189-48c4-a006-dc55acae32f0
1650,111-99111-00,New York,ULSTER (COUNTY),317 SHAMROCK LANE,,KINGSTON,12401-0000,9f2d567f858b38e93bab4506bad561f0f5aae524,2025-07-20T15:03:00.489Z,93c54a44-3d3b-4acb-b10d-bdf546d022d8
1561,000-UQ9T9-00,Florida,FLORIDA  ATLANTIC  UNIVERSITY,777 GLADES RD,"CO#69, ROOM 113",BOCA RATON,33431-0000,faf5a483b3d34db5372a0cf6a3c15f467df44407,2025-07-20T15:03:00.489Z,f187354d-3892-4d2d-9161-779093d5c971
1561,057-UHN8L-00,Florida,SOUTH FLORIDA BAPTIST HOSPITAL,301 N. ALEXANDER STREET,,PLANT CITY,33563-0000,c6d122d7a5ee5ee09b57fb9c23dba26c89091409,2025-07-20T15:03:00.489Z,bab20253-a993-4aa0-9a38-24c8adbe6eac
4261,031-99031-00,Maryland,MONTGOMERY (COUNTY),Montgomery County Office of Emergency Management and Homeland Security,"100 Edison Park Drive, Suite 1S31",Gaithersburg,20878-0000,26c3efb1867508e2ea71334008fa7eb6a1e9ab78,2025-07-20T15:03:00.489Z,3f3fb6ac-1388-4b42-a55f-b8449cea6614
1545,041-72350-00,Florida,"TRENTON, CITY OF",114 N. MAIN STREET,,TRENTON,32693-0000,b8f7f319e6e38c7f09b36b36512ea04e0358e231,2025-07-20T15:03:00.489Z,00e20aa4-2471-48d5-ac25-004282bdd1c1
4264,025-UKQOZ-00,New Jersey,EATONTOWN BOROUGH BOARD OF EDUCATION,5 Grant Avenue,,Eatontown,07724-0000,0525787a80405e6cb583388ba7c06e3ae7ba9688,2025-07-20T15:03:00.489Z,50aae51f-0c08-40f8-aa98-9a6bfc5f0b27
1561,011-16725-00,Florida,"DEERFIELD BEACH, CITY OF",150 NE SECOND AVENUE,,DEERFIELD BEACH,33441-0000,5e08fc7b0a2e2399e20065b3b9404d7dbf8659e8,2025-07-20T15:03:00.489Z,7904be51-0903-4a09-9831-75a43e1bb898
4291,000-U1G3D-00,Virginia,VIRGINIA DEPARTMENT OF MILITARY AFFAIRS,PRN159 Building 316,Fort Pickett,Blackstone,23824-0000,d003e34417e7d5bc821c2a9a0cc4b4ebd434d14c,2025-07-20T15:03:00.489Z,66d87be8-52df-4fb3-a215-e82726d0c732
1545,021-U1ZS6-00,Florida,IMMOKALEE FIRE COUNTY DISTRICT,502 E. NEW MARKET RD,,IMMOKALEE,34142-0000,dff2c84942533aa61b97440b75d86fdba415d24f,2025-07-20T15:03:00.489Z,355b79ba-c51f-44e9-853d-73c7972f98e7
1545,117-63650-00,Florida,"SANFORD, CITY OF",300 N PARK AVE.,,SANFORD,32771-0000,2b9186ec2f6997abc790e7cf465b5d6c64ede439,2025-07-20T15:03:00.489Z,e1a0cc7f-cb40-4554-a787-818318f1a45a
4261,005-01328-00,Maryland,ENGLISH CONSUL VOLUNTEER FIRE,2827 Michigan Ave,,Halethorpe,21227-0000,b77f1ba453314e529307677c8162d52df773801e,2025-07-20T15:03:00.489Z,63ba686e-8e8e-4b5d-b2b3-07b7b68076aa
1545,057-UCL04-00,Florida,ST JOSEPH'S HOSPITAL,3001 W. MARTIN LUTHER KING ,,TAMPA,33607-0000,dc23808cdb313e01a85b2b2c700f91fa99212949,2025-07-20T15:03:00.489Z,5fa11845-4efa-4b52-a806-300fb75ec34a
1545,086-45000-00,Florida,"MIAMI, CITY OF",444 SW 2ND AVENUE,,MIAMI,33130-0000,9901559b449b8aeb3e4e5a52b84cd82954373a76,2025-07-20T15:03:00.489Z,c43bde89-08e9-48c6-b44f-e99be36deb66
1545,086-02681-00,Florida,"AVENTURA, CITY OF",19200 W COUNTRY CLUB DRIVE,,AVENTURA,33180-0000,e4ec48f09d78d739ac6782a1ffdd4531310af558,2025-07-20T15:03:00.489Z,466cbf08-8a7b-4421-bc37-a587074ec6e8
1561,035-54200-00,Florida,"PALM COAST, CITY OF",2 COMMERCE BLVD,,PALM COAST,32164-0000,01e638525cefe8e611e17dc58bcdce8ae89ff200,2025-07-20T15:03:00.489Z,639663ba-55ef-4c9c-a2b2-34a7f926e687
4562,000-U9344-00,Oregon,OREGON DEPARTMENT OF FORESTRY,2600 State St,,Salem,97310-0000,efc7b42bc3ea4da58470b11edb59060893ad2929,2025-07-20T15:03:00.489Z,8ad827ad-29ef-4d2b-bbb6-fd75792bcad1
4562,029-UM2V2-00,Oregon,TALENT IRRIGATION DISTRICT,104 W Valley View Rd,,Talent,97540-0000,21f54b97a2e405f3be7be9d2187d54e564ad4c15,2025-07-20T15:03:00.489Z,b2756fe6-8b87-4180-bfc2-07f532ae038a
4069,137-00820-00,Minnesota,ALBORN (TOWNSHIP OF),6212 Stemstrom Road,,Alborn,55702-0000,706c3f170e766397fb924ac26f111278a3594b6e,2025-07-20T15:03:00.489Z,9c07ab77-f2d3-4195-a7dd-6b0a2cfcdab7
1818,083-U9QVI-00,Kentucky,NORTH GRAVES VOLUNTEER FIRE DEPARTMENT,11176 Hopewell Road,,Boaz,42027-0000,b9e8319a0dc01260a55c27e775a8b459d40703e9,2025-07-20T15:03:00.489Z,0df80441-153d-456d-9b99-f3a753f017d6
1818,000-UR2ZX-00,Kentucky,KENTUCKY EDUCATIONAL TELEVISION,600 Cooper Drive,,Lexington,40502-0000,a236180fddcd627251f3d096205bb068ce0ac07f,2025-07-20T15:03:00.489Z,a3e78aa6-1612-4085-8e24-b22f84a3bfeb
1976,165-99165-00,Kentucky,MENIFEE (COUNTY),12 Walnut Street,,Frenchburg,40322-0000,80440def2ef305f13d931cae5accf6f3fdaa0583,2025-07-20T15:03:00.489Z,1815dcd8-1c52-427b-a77b-87a703d27fae
1818,229-01A6E-00,Kentucky,WASHINGTON CNTY SUPERINTENDENT,120 Mackville Hill,,Springfield,40069-0000,a09aa9f40955c9d50c8508cdaf43a3f364a0531b,2025-07-20T15:03:00.489Z,cc65750c-aa89-4adb-97e4-da1b764ca4e3
1818,000-UUO8U-00,Kentucky,LICKING VALLEY RURAL ELECTRIC COOP,271 West Main Street,,West Liberty,41472-0000,d1ff22ce57017ee42146869e2d254dda1754837b,2025-07-20T15:03:00.489Z,e387b5e9-0e96-437c-aa14-5cc22d40c67f
1818,177-01879-00,Kentucky,MUHLENBERG COUNTY WATER DIST,301 Dean Road,,Greenville,42345-0000,56552365b386adccde9cf5e96b0d07db52d4cb70,2025-07-20T15:03:00.489Z,37125bff-aec7-450a-8269-194e99ad72e7
1818,111-UXZF1-00,Kentucky,ST. MATTHEWS FIRE PROTECTION DISTRICT,240 Sears Avenue,,Louisville,40207-0000,5dca1bcdfcec4148ea48a319e9668749826e59a0,2025-07-20T15:03:00.489Z,e157da12-0ac9-45c5-9998-f55aeb4915f7
4069,035-99035-03,Minnesota,CROW WING (COUNTY),322 Laurel Street,,Brainerd,56401-0000,6ccdabf0e25f0f6875f0b82e6cec583830c35b84,2025-07-20T15:03:00.489Z,432f957e-25db-4ae2-a237-9152264b99ab
4290,079-11890-00,Minnesota,CLEVELAND (TOWNSHIP OF),41682 271ST AVE,,CLEVELAND,56017-5406,4d02c2ce8d0f157aacd464e50e849a286dd31466,2025-07-20T15:03:00.489Z,78221a8e-4bc6-4962-a473-bc452260d84d
1561,099-0506F-00,Florida,FLORIDA INLAND NAVIGATION DIST,1314 MARCINSKI ROAD,,JUPITER,33477-0000,d19440f5248853e23aca1d1307cca9aacfdfe9e3,2025-07-20T15:03:00.489Z,108b8ed2-a1b6-4a79-9d19-e6b83283da4f
1561,083-50750-00,Florida,"OCALA, CITY OF",151 S E OSCEOLA AVENUE,,OCALA,34471-0000,6b07fc6aa2f72dfa789c29438a3faed75df0a77a,2025-07-20T15:03:00.489Z,7498bf79-cba3-4194-88e9-09a07dd60ebb
1763,039-59835-00,Iowa,"OSCEOLA, CITY OF",115 SOUTH FILMORE STREET,,OSCEOLA,50213-0000,13ce696f1eb03b81963d8262c15a66028d4491e2,2025-07-20T15:03:00.489Z,48f609cc-f696-4e7d-9e45-24472fb92447
1650,095-10154-00,New York,BROOME (TOWN OF),914 ST RTE 145,,MIDDLEBURGH,12122-0000,58358065604880171c39b64004d372cda8a6dcab,2025-07-20T15:03:00.489Z,cb5a77da-c182-4fef-91ed-8d3d45ea8ccf
1763,163-06355-00,Iowa,"BETTENDORF, CITY OF",1609 STATE STREET,,BETTENDORF,52722-0000,ec72cd751cc744be6654f99d08c28f8abb41e3b3,2025-07-20T15:03:00.489Z,08f751e7-cf00-4c10-949d-147d02d3a669
1539,069-13740-00,Florida,LAKE COUNTY SHERIFF'S OFFICE,360  WEST RUBY STREET,,Tavares,32778-0000,1eba92b1a9c63817108588650326b7564620b091,2025-07-20T15:03:00.489Z,5d3ad111-5732-4cee-841a-7286661406a2
4298,045-06540-00,South Dakota,BOWDLE,8001 W 5th Street,,Bowdle,57428-0000,7129a312e211e4bf2b0329a9fbe22c312e8dc5ea,2025-07-20T15:03:00.489Z,2ddd25c2-ea34-4f25-9cc8-fdadf1b4dcb8
1763,155-UAC6K-00,Iowa,COUNCIL BLUFFS COMM. SCHOOL DISTRICT,801 SOUTH 16TH STREET,,COUNCIL BLUFFS,51501-0000,a6b7f3ae603dc14af5b828bf9a5b2f222885ddeb,2025-07-20T15:03:00.489Z,78c80ad4-b2ac-42b4-9aac-95aa8da659bd
4292,015-27344-00,Pennsylvania,FRANKLIN (TOWNSHIP OF),31 Grange Road,,Monroeton,18832-0000,5bd1a8a86459b6f6d3ed2cc82132a9d72175de35,2025-07-20T15:03:00.489Z,e6894e42-43a9-4655-8d08-a236fc08f549
4069,061-25118-00,Minnesota,GRAND RAPIDS,420 N. Pokegama Avenue,,Grand Rapids,55744-0000,cfc56ae6f108f84c307854f9eeba3a0d642cb7e1,2025-07-20T15:03:00.489Z,67278d99-f7ea-455b-bb09-b5a25e35675c
4069,115-99115-01,Minnesota,PINE (COUNTY),405 Airport Road NE,,Pine,55063-0000,6c7bccfc6b185cffebb1b1f08496459c238315c8,2025-07-20T15:03:00.489Z,12b68435-a6bf-449b-a2d1-ba6b6813f4ab
1976,015-99015-00,Kentucky,BOONE (COUNTY),3000 Conrad Ln.,,Burlington,41005-0000,bcbde025b61f6af0fcf2d4f655705a5da5803734,2025-07-20T15:03:00.489Z,72332cab-087e-4c21-ad4a-41138c7f9cc1
4117,000-UHDF0-00,Oklahoma,"NORTHEAST OKLAHOMA ELECTRIC COOPERATIVE, INC.",27039 South 4440 Road,,Vinita,74301-0000,d3c4b1b60b1b17463fe2def307c0af4792209b06,2025-07-20T15:03:00.489Z,f3126fdd-580a-4f38-aaf2-151c5f63ac57
4107,009-48340-00,Rhode Island,NARRAGANSETT (TOWN OF),25 5th Ave.,,Narragansett,02882-0000,fc642ca68345d042ecf42a9c7884023eabea47ea,2025-07-20T15:03:00.489Z,00576cea-6daf-4959-877f-19ed9416e4a0
4153,109-38320-00,North Carolina,LINCOLNTON,114 West Sycamore Street,,Lincolnton,28092-0000,20993be446beb759e2e9cbd493eb24fce980527e,2025-07-20T15:03:00.489Z,427c549f-fec2-475b-9463-54bb14767f42
4167,135-10620-00,North Carolina,CARRBORO,301 West Main Street,,Carrboro,27510-0000,be9f4cc8d60c2ef3d6f57e725eb936f4f2fd39f2,2025-07-20T15:03:00.489Z,df4863c2-5730-4b3f-a577-15b1eef83907
4238,013-20800-00,Missouri,EAST BOONE (TOWNSHIP OF),6447 NW Co Rd. 15002,,Adrian,64720-0000,436d9a2a9c645c566ee33463982647d475234932,2025-07-20T15:03:00.489Z,9ff0841b-070b-426c-8898-679496012f57
4238,167-99167-00,Missouri,POLK (COUNTY),102 E Broadway Rm #11,,Bolivar,65613-0000,c00a1f0b87228a7d0ac7c788e486bfc56b8f4948,2025-07-20T15:03:00.489Z,6bb50a06-64f5-4e35-87eb-8e6fe0083241
1539,021-0D6F1-00,Florida,COLLIER COUNTY SCHOOL BOARD,5775 OSCEOLA TRAIL,,Naples,34109-0000,b5924abcb6e7b5c8eb572d891e9c93369f0c70d2,2025-07-20T15:03:00.489Z,35774ceb-7d5a-475c-9d11-11a4c54ed059
1561,049-0302A-00,Florida,SCHOOL BOARD OF HARDEE COUNTY,1001 -1009 N 6TH AVE,,Wauchula,33873-0000,323d9b20936f49e631703de2b623dd3b7e212056,2025-07-20T15:03:00.489Z,96b9bb35-6c28-4be5-baf2-674c5853ef97
4174,063-UNG07-00,Arkansas,BATESVILLE SCHOOL DISTRICT,955 Water Street,,Batesville,72501-0000,c289f1e57d3cd85a0c20b8274fbbc848403aaae8,2025-07-20T15:03:00.489Z,c548d367-2a4b-4a12-92ee-56839ec27664
4183,065-22605-00,Nebraska,HOLBROOK,418 Center Ave.,,Holbrook,68948-0000,d9a97f7d48abd9a3f3297aaf7189fb050a2e3192,2025-07-20T15:03:00.489Z,c641d4a3-63f7-4f37-84de-c89e7e972c52
4230,015-03325-00,Kansas,AUGUSTA (TOWNSHIP OF),11254 SW Thunder Rd.,,Augusta,67010-0000,52675b2d1d4306452b960b85859a875583ae7293,2025-07-20T15:03:00.489Z,cb55ddec-838e-4836-a994-7ffcf74220e5
4234,000-UOTLT-00,Iowa,CLARKE ELECTRIC COOPERATIVE INC.,1103 N Main,,Osceola,50213-0000,f77637ae07db519dc8c578d22c76b55f4dcdbe59,2025-07-20T15:03:00.489Z,d7372d2b-992d-4eba-abac-8e9d3f22883b
4259,171-05344-00,Georgia,BARNESVILLE,109 Forsyth Street,,Barnesville,30204-0000,03605c5a594633213f03ac0a70a00d4108a7ab54,2025-07-20T15:03:00.489Z,0e5b8085-354e-49c4-88ef-9c3fd89d087e
1247,000-92040,Puerto Rico,PR PLANNING BOARD,P.O. BOX 41119 MINILLAS STATION,,,00940,46463701622d1c012e4dd5cebf0765737f127d3b,2025-07-20T15:03:00.489Z,80c0ea1b-d170-4533-b0a7-a99bfc65a53c
1247,000-92044,Puerto Rico,PR PUBLIC HOUSING ADMINISTRATION,P.O. BOX 363188(606 BARBOSA AVE.),,,00936,83f350d0952e0b66c3d15fc78000c9942053c4af,2025-07-20T15:03:00.489Z,a2e305fe-06db-4d19-ae2c-ef663e26a20e
1249,087-90704,Florida,"DOMESTIC ABUSE SHELTER, INC","P.O. BOX 522696, MARATHON SHORES, FL",,,330520000,89c865b8443a3f90a7be011d64303c761893a54e,2025-07-20T15:03:00.489Z,e93913f5-0d31-4b95-a3b3-594ffa32bdc7
1249,033-00000,Florida,ESCAMBIA COUNTY,"223 S PALAFOX PLACE BOX 1591 PENSACOLA, FL",,,32597-1591,b28c42403dd3fa7a7568024c6da41447eb801c05,2025-07-20T15:03:00.489Z,7263131a-57aa-47f0-9ef2-ced97e9710d5
1247,000-92118,Puerto Rico,ENVIRONMENTAL QUALITY BOARD OF PR,P.O. BOX 11488 (PONCE DE LEON AVE.431),,,00918,089f11d31c820d61f3918162d07e8597afccc6d5,2025-07-20T15:03:00.489Z,6dbfe8fc-16a7-44e3-a509-495e00483895
1247,019-00000,Puerto Rico,BARRANQUITAS MUNICIPIO,PO BOX 250 (MUNOX RIVERA #24),,,00794,ee4a99dbfb32859af5fb1ef01f6cc4182e77d1e0,2025-07-20T15:03:00.489Z,528213a6-1e49-4179-bf0d-95ac74b2acb9
1249,033-91003,Florida,SANTA ROSA ISLAND AUTHORITY,"7 VIA DE LUNA, PENSACOLA BCH, FL",,,32567,855c499934f579acd495ef73515140ad457158cd,2025-07-20T15:03:00.489Z,2665b5dd-d0df-423f-ba28-173d8f215552
1539,105-24900-00,Florida,"FROSTPROOF, CITY OF",111 WEST FIRST ST,,FROSTPROOF,33843-0000,d9f01820a790aa9ef7f6ce3e3e12a785b284209a,2025-07-20T15:03:00.489Z,8267dbf3-1148-4f14-8432-3398d093247e
1539,103-71150-00,Florida,TARPON SPRINGS CITY OF,324 EAST PINE  STREET,,TARPON SPRINGS,34689-0000,d72dfd2835c9fd432df50de9c12ac6ffd4bed288,2025-07-20T15:03:00.489Z,68c88ffe-dda8-4640-9126-6df7b1c69acd
1545,086-30025-00,Florida,"HIALEAH GARDENS, CITY OF",10001 NW 87 AVE,,HIALEAH  GARDENS,33016-0000,70154c96063d1fb999aa472e2f0a73926ce1b085,2025-07-20T15:03:00.489Z,dbac8bf8-6557-464f-92d6-1598eae4e120
1763,113-UUKME-00,Iowa,WAYPOINT SERVICES,318 FIFTH STREET SOUTH EAST,,CEDAR RAPIDS,52401-0000,a79a79d9edf288c284f7bd5e2e13ea6b910aa696,2025-07-20T15:03:00.489Z,544ed42f-0503-4b0f-9008-750ec0694bba
4562,037-99037-00,Oregon,LAKE (COUNTY),513 Center Street,,Lakeview,97630-0000,2293d86d1ec294414bb4acfabed7d50d5d4c0f7e,2025-07-20T15:03:00.489Z,17ca470a-fc83-4987-bf5f-4f60e6b9df18
1763,085-068B0-00,Iowa,HARRISON COUNTY HOME HEALTH,116 NORTH 2ND AVENUE,,Logan,51546-0000,4bde357b72bc3b5e70d4559de18ce39ea2cd9604,2025-07-20T15:03:00.489Z,3f575b6b-703e-42a9-a8bb-5bd73549cbd1
4238,007-47648-00,Missouri,MEXICO,300 N Coal,,Mexico,65265-0000,893de3b27f6fa2606f37bdb78057e7251497cb77,2025-07-20T15:03:00.489Z,4d0005db-ff4e-4b50-87ce-0a1436f0765d
1539,000-UHRL7-00,Florida,"TALQUIN ELECTRIC COOPERATIVE, INC.",1640 WEST JEFFERSON,,QUINCY,32351-0000,ff5966b7802617f644e82ea3d6a1dc4c1564032d,2025-07-20T15:03:00.489Z,12200ab4-ae5e-4274-83b8-c3044c338386
1979,167-02340-00,Tennessee,ATOKA,334 Atoka-Munford Avenue,,Atoka,38004-0000,c17e188c1bbfaedb97dba0cc3571d44919fd1f15,2025-07-20T15:03:00.489Z,e55a330b-cfe5-4bb8-9a0b-e3f0df952491
1976,229-99229-00,Kentucky,WASHINGTON (COUNTY),117 North Cross Main Street,,Springfield,40069-0000,d94a75f78da70e8d8b5633351b4b3bf56280f83f,2025-07-20T15:03:00.489Z,61c9ba3a-7ed5-45c3-bb05-a5b24b366d8d
4021,005-47880-00,New Jersey,MOORESTOWN (TOWNSHIP OF),1245 N. Church St. Suite 2,,Moorestown,08057-0000,8b4745c35a17de97e0b5ff4453cb1704177712e2,2025-07-20T15:03:00.489Z,b767efc1-8758-4947-8419-5f16101fdf14
4021,021-UJJIU-00,New Jersey,HAMILTON TOWNSHIP FIRE DIST. # 7,200 Mercer Street,,Hamilton,08690-0000,7082e1cd75f954965eecd21f9b419705a26d2354,2025-07-20T15:03:00.489Z,43ecea55-e499-4405-9948-1594f50311e1
4191,000-UJGU4-00,Guam,GUAM FIRE DEPARTMENT,238 Archbishop Flores Street,Suite 1001 DNA,Hagatna,96910-0000,aa7a2f68fdb67384af0eb9fb832a506043c66c4e,2025-07-20T15:03:00.489Z,de28f915-0402-4c55-8ee9-0efbfb430e32
1818,209-00719-00,Kentucky,SCOTT COUNTY SUPERINTENDENT,2168 Frankfort Road,,Georgetown,40324-0000,3905321cf8d138a3177ab4abceff70f329da9117,2025-07-20T15:03:00.489Z,c494b01d-97b7-419c-ace9-8b3aa7cf78b8
1818,065-64092-00,Kentucky,RAVENNA,620 Main Street,,Ravenna,40472-0000,e57ff27938bc901715eb4ff348d5fe8ed4b1ee6d,2025-07-20T15:03:00.489Z,99647588-c0b5-47d8-b1ce-0f4d8f651d07
4251,009-U6LMM-00,Alabama,NECTAR UTILITIES,1479 State Highway 160,,Cleveland,35049-0000,f6b2938d8ebc59aa33ae043e9a54548647f09289,2025-07-20T15:03:00.489Z,b78da9b8-1f64-4563-8a87-91a0a2f7fa5c
1659,000-U8P1O-00,New Mexico,ELEPHANT BUTTE IRRIGATION DISTRICT,530 SOUTH MELANDRIES,,LAS CRUCES,88005-0000,70acc4fa33927e73395cae6bdf135a99f228edb2,2025-07-20T15:03:00.489Z,a3f974a7-79d9-4477-b090-916e4b14db02
1974,179-38320-00,Tennessee,JOHNSON CITY,601 E Main Street,,Johnson City,37605-0000,10c261ef5b350e351853bb18cbfd81e21b39ccae,2025-07-20T15:03:00.489Z,1aa3baed-3dd7-4ae9-9ac1-2e6ff956869c
4031,065-03CB1-00,New York,CLINTON CENTRAL SCHOOL DIST,75 Chenango Ave,,Clinton ,13323-0000,8318cf8e1b881b78abe2dbbf2700592211f04023,2025-07-20T15:03:00.489Z,07b6dac5-6a19-4d2e-bf7b-cd33d5f9f85f
4261,031-30775-00,Maryland,FRIENDSHIP HEIGHTS,4433 South Park Avenue,,Chevy Chase,20815-0000,84356f7df473e1f44998dc0a9c693a10cd56e6ce,2025-07-20T15:03:00.489Z,951f2064-6c95-4a69-a72f-e4c31963066c
1974,000-U00A9-00,Tennessee,DUCK RIVER ELECTRIC MEMBERSHIP CORP.,1411 Madison Street,,Shelbyville,37160-0000,aa973bee511e57b2e2897282aabb6bc728932c67,2025-07-20T15:03:00.489Z,8e30a14c-eeb2-4b72-b8d7-ecb1d1b0167f
4264,007-U5CQI-00,New Jersey,COOPER UNIVERSITY HOSPITAL,1 Cooper Plaza,,Camden,08103-0000,dc5885abc64544194efcf1aa7bbd98cb8ca98ca5,2025-07-20T15:03:00.489Z,483c83d2-64d8-44cc-86c5-aef2ddb07232
4287,207-99207-00,Kansas,WOODSON (COUNTY),105 W. Rutledge,,Yates Center,66783-0000,5d1638d2d9e257ee8acf8ae5c22e062896cbbed8,2025-07-20T15:03:00.489Z,d10adcf4-b1ef-427b-8e38-5a8b24c1bbd0
4290,161-99161-04,Minnesota,WASECA (COUNTY),307 N STATE ST,,WASECA,56093-2947,3ea0184c57aa2afba2ab496898b5ed342fdb1b23,2025-07-20T15:03:00.489Z,f39aefa9-5c8c-46ed-9782-9cf2066e330e
4069,137-17018-00,Minnesota,DULUTH (TOWNSHIP OF),1988 Patterson Lane,,Duluth,55804-0000,5dd57d66394681b4fafd18af7dc4608114acf800,2025-07-20T15:03:00.489Z,e3063280-441a-4779-a800-5b9b2bd85533
4031,071-07003-00,New York,BLOOMING GROVE (TOWN OF),6 Horta Rd,,Blooming Grove,10914-0000,8a88e884b091d87e4a580779a4fd07d2906466a4,2025-07-20T15:03:00.489Z,ff09b2ed-8e6d-4daa-b476-20d246484270
4022,000-U4OLE-00,Vermont,VT DEPARTMENT FOR CHILDREN AND FAMILIES,103 South Main Street,Osgood 103B DCF Business Office,Waterbury,05671-3711,87fd6329bee377517f35ffaaad611e95721414ab,2025-07-20T15:03:00.489Z,2b13c86d-1b69-4f27-9e5c-b0d1d4cb41d7
4562,005-55200-00,Oregon,OREGON CITY,625 Center Street,,Oregon City,97045-0000,e6daa4544394478e60343d91fa04241c3f85e9f4,2025-07-20T15:03:00.489Z,a9e9f2d1-f32e-4c34-8f34-47f59b7767ca
4562,043-URODJ-00,Oregon,OREGON CASCADE WEST COUNCIL OF GOVERNMENTS,1400 Queen Ave SE,Suite 201,Albany,97322-0000,659c9d58aba6d0a02ef5e331ea14b6d999847adc,2025-07-20T15:03:00.489Z,f5fae005-11fc-405f-8327-e96cbe587a50
4062,009-UFNPB-00,Hawaii,MAUI COUNTY CIVIL DEFENSE AGENCY,200 South High St,,Wailuku,96793-0000,a4c982c1cedc6fbcb30fbb6d3b902497d8e56cd4,2025-07-20T15:03:00.489Z,c435628e-1eb4-4186-8980-ab3078cc8a73
1561,107-58025-00,Florida,"POMONA PARK, CITY OF",1775 HIGHWAY 17 SOUTH,,POMONA PARK,32181-0000,c9e21f8855e615a5e7cf3d53cc500cb8bcb1fc30,2025-07-20T15:03:00.489Z,c397719a-7ca7-4f4e-b755-da5479f69cb5
1251,131-91001,Mississippi,STONE COUNTY SCHOOLS,"214 CRITZ ST, WIGGINS, MS",,,39577,8576796b7947ffe92e2178a3edb237686b2e1258,2025-07-20T15:03:00.489Z,c9ae331b-6a4b-4983-acf7-a04b8753bc6b
1247,000-92120,Puerto Rico,PR FIRE DEPARTMENT,PO BOX 13325,,,00908,d85b0e122c20ba3bff0fcc709dafa027d5769538,2025-07-20T15:03:00.489Z,db3dd4e4-8e33-4a90-bf53-f2ab006ba115
1247,029-90000,Puerto Rico,COLEGIO NTRA. SRA. DEL PILAR,"LUIS HERNAIZ & LUIS MUNOZ RIVERA 3, CANOVA",,,00729,a528763588c2eeef76b5fb8857c7e515c45b42cb,2025-07-20T15:03:00.489Z,48f2a67a-47c7-431c-bfc0-91eb95a2d4f1
1247,091-00000,Puerto Rico,MANATI MUNICIPIO,"10 QUINONEZ ST., MANATI",,,00674,7bad36b9889992a4fb93ef4b65d0fc2606ea4db1,2025-07-20T15:03:00.489Z,9128e7d0-0bfc-45b4-bac8-8f9d9a89379c
4021,009-0357A-00,New Jersey,LOWER CAPE MAY HIGH SCHOOL,687 Route 9,,Cape May,08204-0000,95b2adef19c60972635c729567c9643cfccf736f,2025-07-20T15:03:00.489Z,50283fc0-5f88-413b-af76-b86f8581fb88
1247,021-90400,Puerto Rico,HOGAR NUESTRA SENORA DE FATIMA,"SANTA JUANITA FINAL, CAMINO ESTEBA CRUZ",,,00958,3b4ffd88a0e804c680b6473c2d914cb72162a9ea,2025-07-20T15:03:00.489Z,4e7185c1-8146-4954-bc4d-73ea4c9287e0
1247,000-92152,Puerto Rico,PR FINE ARTS CENTER CORPORATION,"PONCE DE LEON AVE., SANTURCE, PR",,,009401287,8e92830e03669ccb57480a74b5c4804aeb1afa8f,2025-07-20T15:03:00.489Z,d2144b05-50c5-467b-8d44-cd311f8ee784
1251,047-91007,Mississippi,GULFPORT SCHOOL DISTRICT,"2010 15TH ST, GULFPORT, MS",,,39502,8d75dec1eeb1afcef19afbdb4f546d1dc582a212,2025-07-20T15:03:00.489Z,54dc3779-84cf-44b7-9bf2-c4b57999b3e8
1249,121-40875,Florida,"LIVE OAK, CITY OF","101 WHITE AVE S. E., LIVE OAK, FL",,,32060,616441db105db531da652451b1aeed8270cd8f03,2025-07-20T15:03:00.489Z,2ea5bb22-864c-45ff-95e6-a0f6244570d7
1246,051-90550,Louisiana,LAFITTE BARATARIA CROWN PT VFC,"RT 1,BOX 493-HWY 45,LAFITTE, LA.",,,70067,c5d95583e81ab83b0e8f896c0b4a5a09f9a5761c,2025-07-20T15:03:00.489Z,0b057364-fd48-4469-9d59-b8aa41330e9e
1650,077-18047-00,New York,COOPERSTOWN,22 MAIN ST,,COOPERSTOWN,13326-0000,fe530b00caa45cfcf0367537b4a7268d39495843,2025-07-20T15:03:00.489Z,3c336f23-2244-484f-b58a-b07659b5c0e8
4091,005-03D7F-00,Maryland,BALTIMORE COUNTY PUBLIC SCHOOL,9610 Pulaski Park Drive,Suite 204,Middle River ,21220-0000,a05b3ff90764975fe693718c6cc1eddd4dd0c562,2025-07-20T15:03:00.489Z,d3743399-1657-4f90-b323-1ab14449b814
1545,075-78925-00,Florida,"YANKEETOWN, TOWN OF",6241 HARMONY LANE,,YANKEETOWN,34498-0000,253a3af514480417a9b14a79b74e44b81c10139b,2025-07-20T15:03:00.489Z,af48788b-c65c-448a-a10a-9aa71349555e
4153,161-0014B-00,North Carolina,RUTHERFORD ELECTRIC CORP,186 Hudlow Rd.,,Forest City,28043-0000,a6560f7fedbe112de032b52b35d6842925abcc79,2025-07-20T15:03:00.489Z,ddf82483-49f0-4961-94c9-be8b6c00f21e
1545,039-U05PX-00,Florida,GADSDEN DISTRICT SCHOOLS,"35 MARTIN LUTHER KING, JR. BLVD.",,QUINCY,32351-0000,dc057a4e38c3245caeca8f23fa783b859a08a112,2025-07-20T15:03:00.489Z,b01559d8-f8a3-4fc0-a03c-857714aa3dec
4230,145-63250-00,Kansas,SAWMILL (TOWNSHIP OF),927 330th Avenue,,Burdett,67523-0000,066baa3569c934769dd17809845aafe302563433,2025-07-20T15:03:00.489Z,ce33ee8e-4c57-43c9-9bdd-3494afb2648c
1561,011-55775-00,Florida,"PEMBROKE PINES, CITY OF",10100 PINES BLVD. ,,PEMBROKE PINES,33025-0000,1ae260a173821101a8fc2b6a54c7f1532bcfb094,2025-07-20T15:03:00.489Z,4a22502d-eddd-416c-a551-8c4b2f772062
1545,047-35375-00,Florida,"JASPER, CITY OF",208 HATLEY STREET,,JASPER,32052-0000,9e3e5c8ff33aca24fd5d4d04de4bfcdc7f1cd94d,2025-07-20T15:03:00.489Z,70d438bc-415e-4024-8f6c-83996a226603
4236,000-UNELM-00,West Virginia,WV DIVISION OF HIGHWAYS,"1900 Kanawha Blvd. East Bldg. - 5, Room 164",,Charleston,25305-0000,bb44fb4ce48fb5cc699b38fc45e1fb60156a2c51,2025-07-20T15:03:00.489Z,6935c982-f54c-4397-946c-15cb182f55ac
4238,047-53102-00,Missouri,NORTH KANSAS CITY,2010 Howell Street,,North Kansas City,64116-0000,6a2f17a768e9ff9be28f8ed08cfe360d969de0bb,2025-07-20T15:03:00.489Z,d76e8f7f-f6d3-4495-a117-6cbe791dfed8
1650,053-41674-00,New York,LEBANON (TOWN OF),1210 BRADLY BROOK ROAD,,EARVILLE ,13332-0000,33ed283222949c4fda2c43c9638cf812283c982f,2025-07-20T15:03:00.489Z,e03e6ae6-3a16-4d0d-8758-8bda55772554
1602,086-U3WST-00,Florida,"COMMUNITY PARTNERSHIP FOR HOMELESS, INC.",1550 N MIAMI AVE,,MIAMI,33136-0000,b912255a61d321013dddf193f4e7e9eaca75e169,2025-07-20T15:03:00.489Z,fd6d715a-bf99-41e0-aea4-414eb09deb38
1650,017-68055-00,New York,SMITHVILLE (TOWN OF),295 STATE ROUTE 220,,SMITHVILLE FLATS,13841-0000,30d4c19acfa270755466ce99073bf049fc9f95b6,2025-07-20T15:03:00.489Z,86bb8ac5-d218-4114-becf-e8fc7cbb4158
1545,093-026D8-00,Florida,OKEECHOBEE COUNTY SCHOOL DISTRICT,700 S.W. 2ND AVENUE,,Okeechobee,34974-0000,d5ffccbfbfb7f2cdac7f3b10a8d89c1d043a5623,2025-07-20T15:03:00.489Z,b130b47c-e6f3-42d0-86d7-fd160a513bc2
1650,095-66641-00,New York,SHARON (TOWN OF),138 BEACHWOOD ROAD,,SHARON SPRINGS,13459-0000,04ba10d558b42443ee9bc7b0d155058ec83caed9,2025-07-20T15:03:00.489Z,15f05682-390f-4b1e-8589-8621c137bb78
4250,000-UD39Y-00,Missouri,MISSOURI STATE HIGHWAY PATROL,1510 E Elm St.,,Jefferson City,65101-0000,2e5c690998d07882bbd25291b96bf59b5ea7f1ae,2025-07-20T15:03:00.489Z,29bc74e7-0277-47e4-a61e-2b05e3291cd1
4264,003-55950-00,New Jersey,PARAMUS,Jockish Square,,Paramus,07652-0000,d461f3c132b964b7f7c2fb0b78ccbe40b9a2f20e,2025-07-20T15:03:00.489Z,9e2f57b4-a6bf-4624-bfe0-8fd19cbc616c
4290,131-44314-00,Minnesota,MORRISTOWN (TOWNSHIP OF),23368 HARRIS TRL,,MORRISTOWN,55052-5016,054c09bc7bc51f510ebf64120f5624a061ff29f0,2025-07-20T15:03:00.489Z,d4d0922c-a285-4d74-9092-7d399af974c3
4261,029-U0VQY-00,Maryland,KENT COUNTY PUBLIC SCHOOLS,5608 Boundary Avenue,,Rock Hall,21661-0000,f9a06bbc3af438d5443bce59cb6762e6ca21a389,2025-07-20T15:03:00.489Z,e7ce55f6-612f-4425-9046-78be156f3a37
4264,025-43050-00,New Jersey,MANASQUAN,201 East Main Street,,Manasquan,08736-3004,9d29f2f5292ac7baa6efac4db15de7d890e20664,2025-07-20T15:03:00.489Z,7cb21971-f4bd-4109-aac0-6c9c5f4a5b4a
4261,013-04C8A-00,Maryland,FLYING COLORS OF SUCCESS INC,88 East Main Street,,Westminister,21157-0000,23c4d0cbf0e5a91feed84a7516fb109c5ec6114a,2025-07-20T15:03:00.489Z,119ef967-1f08-4795-a197-8ad77fdbf064
4264,005-04425-00,New Jersey,MOORESTOWN FIRE DEPT,261 West Main Street,,Moorestown,08057-0000,9fe61521c5086f36bd75fd8897e57c4d3995e253,2025-07-20T15:03:00.489Z,d02e698f-8b7f-496a-978a-d48853d2c39e
4238,025-23464-00,Missouri,FAIRVIEW (TOWNSHIP OF),12279 NE Layton Dr,,Braymer,64624-0000,ede14255ed99ad1d8efd7ad771e2fe90719d2db5,2025-07-20T15:03:00.489Z,468e8e0e-4b81-4037-b9e7-8c7ba9e7a11e
4261,021-UEIC3-00,Maryland,SAINT JOHN'S CATHOLIC PREPARATORY SCHOOL,3989 Buckeystown,,Buckeystown,21717-0000,9aea32cb3f0ede6b3d78843d7101482005644396,2025-07-20T15:03:00.489Z,2ecd48d2-e457-4def-b68d-2c11d60b284e
4230,191-26975-00,Kansas,GORE (TOWNSHIP OF),1103 S Central,,Mulvane,67110-0000,e9f7fa0de354df8d78c4a0735a34d8974bcc0b29,2025-07-20T15:03:00.489Z,157496ea-aa98-4ab4-9090-18dc40fb64ab
4264,027-US8MY-00,New Jersey,MORRIS HILLS REGIONAL DISTRICT,48 Knoll Drive,,Rockaway,07866-4024,901abfcb531349a5c352594d597371eb6ff02c73,2025-07-20T15:03:00.489Z,a7cb112d-ce37-4203-9f64-7d6015cf6268
4234,051-02EDC-00,Iowa,DAVIS COUNTY CONVERSATION BRD,22893 215th Street,,Bloomfield,52537-0000,4756d2c6f42ac3d4e4a43c31722fa845c7948e35,2025-07-20T15:03:00.489Z,86d315a5-b1d4-402f-bc99-618f358e6d63
4210,059-52324-00,West Virginia,MATEWAN,57 Nowlin Street,,Matewan,25678-0000,efc81365357c1c50036658423f1007f6224e7bf8,2025-07-20T15:03:00.489Z,a746dd17-e709-4ad9-8d5a-0da1ace51e0e
1545,011-16325-00,Florida,"DANIA BEACH, CITY OF",100 WEST DANIA BEACH BLVD,,DANIA BEACH,33001-0000,052a57e31035582388c547d7a0d1205f4d276a40,2025-07-20T15:03:00.489Z,5eb6cbfc-6aab-49f9-b674-53d7f9648dd5
4238,025-28396-00,Missouri,GRANT (TOWNSHIP OF),312 W Elm St.,,Polo,64671-0000,3bc9c38067a4c165c90f03acf47d2ab7f3229abc,2025-07-20T15:03:00.489Z,db1f709f-7147-4ae1-a29c-acbe8fb17654
4057,127-U884U-00,Kentucky,"BLAINE, CITY OF",67 Biglarrel Creek Rd,PO Box 66,Blaine,41124-0000,27e7c8fbeab3329266ff36162afddb02bef67615,2025-07-20T15:03:00.489Z,d0df4f42-2963-4863-b8fe-2ff41c7e4c80
4174,000-U0414-00,Arkansas,ARKANSAS DEPARTMENT OF PARKS AND TOURISM,"#1 Capitol Mall, Suite 4B-206",,Little Rock,72201-0000,3443e235a4247342cfa476ea041abc97cbedcdd5,2025-07-20T15:03:00.489Z,c04e2bc2-c772-4077-9a5d-95c19250d851
4238,063-99063-00,Missouri,DEKALB (COUNTY),109 W Main St.,,Maysville,64469-0000,ed901ce04e1bd7c37ee4cf0bf8fe1e1c70f7e35a,2025-07-20T15:03:00.489Z,c72765e7-a85a-4fc0-83bc-cc816e630c98
1650,007-UNX83-00,New York,BINGHAMTON CITY SCHOOL DISTRICT,164 HAWLEY STREET,,BINGHAMTON,13902-0000,b3d3685cd351eacf211efb33da4afe0c72f2135d,2025-07-20T15:03:00.489Z,589cea74-3180-44ad-9c8a-14afa80ad111
1994,013-UZN1F-00,Massachusetts,SPRINGFIELD WATER AND SEWER COMMISSION,250 M St. Ext.,,Agawam,01101-0000,0db6699ec5f41c1653a5a6357792ffda01c2a077,2025-07-20T15:03:00.489Z,ae831f8e-4263-49b0-be68-9bcae8aff005
1948,000-UR8I4-02,Virgin Islands of the U.S.,V.I. WATER AND POWER AUTHORITY,8189 Subbase,St. John Office,St. Thomas,00802-0000,30838a6af18b848eb9d70ba0958f7b99ef79e6a5,2025-07-20T15:03:00.489Z,54f5677d-6b98-4164-9e0a-d374143740e5
1946,000-UU1J9-00,Puerto Rico,COMMONWEALTH OF PUERTO RICO (GAR),Cruz Street #254,,San Juan,00902-0000,53619f7093fce15bc9356bb036cd282c8e01041a,2025-07-20T15:03:00.489Z,b57a729f-0edc-4ee4-9962-f328848d67df
4146,121-03100-00,North Carolina,BAKERSVILLE,26 S. Mitchell Ave. ,,Bakersville,28705-0000,4d29f4f160ee9411b9a264f32ef88b36e1fc071c,2025-07-20T15:03:00.489Z,17297a30-e38d-45ba-b0e2-dde3dd9bc44e
4160,131-28780-00,Arkansas,GREENWOOD,30 Bell Road,,Greenwood,72936-0000,5b622d039df0c86db9bddf49d9e737f73155afd7,2025-07-20T15:03:00.489Z,3e3fa2e2-1cb2-46ce-a465-49ed826bba75
4107,007-00461-00,Rhode Island,MEETING STREET REHABILITATION,1000 Eddy Street,,Providence,02905-0000,31bcbd1301114aafa435fbd4c67bff30924ed34f,2025-07-20T15:03:00.489Z,096313ec-39ec-4346-b787-518077a6b3ff
4117,107-99107-00,Oklahoma,OKFUSKEE (COUNTY),209 North 3rd,,Okemah,74859-0000,cc3170c813aaceb17220ed59d9269e6014093682,2025-07-20T15:03:00.489Z,59253867-0bc2-42cf-8a6a-1348aa177e27
4211,105-99105-00,Tennessee,LOUDON (COUNTY),100 Rver Road ,,Loudon,37774-0000,f461647212a590d57e3d8912970b36c69c66524b,2025-07-20T15:03:00.489Z,2733c5de-2cc8-4bf1-b607-e660a76e34c0
1763,033-007E3-00,Iowa,NORTH IOWA COMMUNITY ACTION ORGANIZATION,218 5TH STREET SOUTH WEST,,Mason City,50401-0000,4afe3eec152bb0a0ea847a5c1ab1274a03b17912,2025-07-20T15:03:00.489Z,130659a6-069f-4373-b55e-b436b9ec9e0b
1545,031-UQS4Z-00,Florida,JACKSONVILLE TRANSPORTATION AUTHORITY,100 N. MYRTLE AVENUE,,JACKSONVILLE,32203-0000,df72f511851598d4f4fb9735c50f8c9c01032869,2025-07-20T15:03:00.489Z,a9a73a12-d2d0-46bc-89e8-64a359257edd
1539,086-32275-00,Florida,"HOMESTEAD, CITY OF",790 NORTH HOMESTEAD BLVD.,,HOMESTEAD,33030-0000,c4f58a7115430d9a41a335b40acae5d10e20e7e3,2025-07-20T15:03:00.489Z,b3111e41-61e4-4f60-84ef-b6b2640414a8
1545,086-03625-00,Florida,BARRY UNIVERSITY,11300 NORTH EAST 2 AVE,,MIAMI SHORES,33161-0000,b747d5ef239703382afc8718d0f364205d9fc283,2025-07-20T15:03:00.489Z,258bc604-689e-4bd5-990d-adc28e428124
1976,061-99061-00,Kentucky,EDMONSON (COUNTY),110 East Main Cross Street,,Brownsville,42210-0000,232a0e08a990d373b3a3e8035b2be8722d367024,2025-07-20T15:03:00.489Z,0d958d86-9bde-424b-b924-5b96e9051bbf
1792,051-03616-00,Louisiana,BRIDGE CITY VOLUNTEER FIRE CO #1,2220 Bridge City Ave.,,Bridge City,70094-0000,731e7f0cfe85b528a991c38855a199720e8020f0,2025-07-20T15:03:00.489Z,6c1d9b4f-d560-4fe3-87ca-01613e9a14aa
4021,035-UD7D5-00,New Jersey,HILLSBOROUGH MUNICIPAL UTILITIES AUTHORITY,220 Triangle Road,Ste 234,Hillsborough,08844-0000,35183cb8c99c26f7586386461857f87e31d6d84d,2025-07-20T15:03:00.489Z,8952b71f-7b7b-4ba2-b577-046be9955bc6
4015,000-U04DB-00,Louisiana,LOUISIANA OFFICE OF EMERGENCY PREPAREDNESS,7667 Independence Boulevard,,Baton Rouge,70806-0000,a0e38bc71e1c99351c92bf619d6b229fcd0ef8e2,2025-07-20T15:03:00.489Z,b1e64f05-6265-4089-858b-37054dba257d
4174,135-UDK0M-00,Arkansas,OZARK ACRES SUBURBAN IMPROVEMENT DISTRICT #1,90 South Summit Ridge Drive,,Williford,72482-0000,2a0a7db9ccf2ae4e3f4123478cb2d3a174b007a3,2025-07-20T15:03:00.489Z,59b62d75-7fa5-4e67-a949-8b9a839c1b8f
1818,083-50898-00,Kentucky,MAYFIELD,211 E. Broadway,,Mayfield,42066-0000,27b93a65ea93d4aac176b4403f977c9a4d595160,2025-07-20T15:03:00.489Z,ff15be21-130d-47c0-a8df-5e4d1b16c2f3
4230,201-43025-00,Kansas,LOWE (TOWNSHIP OF),2591 Morrowville Blvd,,Morrowville,66958-0000,a0e5d1dc9d0f1b869d986b50736ce35a6a77c034,2025-07-20T15:03:00.489Z,39972fa8-f0ed-47a6-8e01-9628b234a5d4
4264,027-UR89V-00,New Jersey,ATLANTIC HOSPITAL CORP,10 Court Street,,Morristown,07960-5112,7fceac2102dcb22ac4ffc497e4ca876161f20941,2025-07-20T15:03:00.489Z,8ae8909e-3c5a-44b5-b4b7-7cd679a6a5bf
1763,053-05CA8-00,Iowa,DECATUR COUNTY CONSERVATION BOARD,20401 NORTH WEST LITTLE RIVER LAKE  ROAD,,Leon,50144-0000,3b5b8da972793fe0fee94defce3ea03c95f26766,2025-07-20T15:03:00.489Z,809ee19d-acc4-477a-821c-36864b72f5d7
4264,005-ULBDP-00,New Jersey,MAPLE SHADE BOARD OF EDUCATION,170 Frederick Avenue,,Maple Shade,08052-0000,c3a16a1746c3706ab6bd0f2cb1024ec35f03e6bc,2025-07-20T15:03:00.489Z,1170c73a-dab1-4590-be3f-e3011e6cb96a
4102,065-99065-00,Louisiana,MADISON (PARISH),100 N. Cedar Street,,Tallulah,71282-0000,94753d612cd25712ab6e22b54e947a8d5913b554,2025-07-20T15:03:00.489Z,e45dcde1-07c4-46db-8fcb-161311b58a9b
1246,071-91050,Louisiana,NEW ORLEANS FIRE DEPT,"317 DECATUR STREET, NEW ORLEANS, LA.",,,70072,f60601f2fdb03184dd74526a54c4faf6a5c5cc12,2025-07-20T15:03:00.489Z,cd1662cd-b4ec-4b82-83de-ff6b7db31941
4325,000-U9TYU-00,Nebraska,NEBRASKA EMERGENCY MANAGEMENT AGENCY,2433 NW 24th St.,,Lincoln,68524-0000,2a873777d4574e4437cc4ff83a559d10a0e62db4,2025-07-20T15:03:00.489Z,c7309e17-39cb-42b9-b066-6c0635e84793
4334,000-U0001-00,Iowa,IOWA HOMELAND SEC AND EMERG. MGMT. DEPARTMENT,"7900 HICKMAN RD, SUITE 500",,WINDSOR HEIGHTS,50324-0000,53fe3da478ce7e67a8cbd7ae6dbfecba140b842b,2025-07-20T15:03:00.489Z,4e403d5c-081c-43bd-b1de-227b66564a68
4026,013-43380-00,New Hampshire,LOUDON (TOWN OF),29 S. Village Rd,,Loudon,03307-0000,9839709f76ca5ff7e98526e8d2e4333045b42b7b,2025-07-20T15:03:00.489Z,5d6080ef-cfa4-4a86-bd0b-54f92fbfe6ad
1974,059-00E1A-00,Tennessee,FREE WILL BAPTIST HOME,90 Stanley Lane ,,Greeneville,37743-0000,979a9b625b05a5d4377146d9ef1d3ffac6a34b17,2025-07-20T15:03:00.489Z,b8991b63-7895-4429-9672-6a87d8bc4d53
4021,041-77300-00,New Jersey,WASHINGTON (TOWNSHIP OF),211 Route 31 North,,Washington,07882-0000,1fdd0fa093e2a4dd57c6115cd89ac0100185de27,2025-07-20T15:03:00.489Z,91b6a79e-c386-4028-9bed-6d4949ff7595
4029,315-99315-00,Texas,MARION (COUNTY),102 West Austin,Room 205,Jefferson,75657-0000,02f7417fe77b92eb4cd535270a4210091339639f,2025-07-20T15:03:00.489Z,3dc82de8-276b-4e49-8cf9-9885275c461e
4021,025-44520-00,New Jersey,MATAWAN,201 Broad Street,,Matawan,07747-0000,9dc6f32441a33f78051c6f7b81d5b3c4c4829c9e,2025-07-20T15:03:00.489Z,8d93382b-10f5-4ca1-8515-972b0519e60f
4021,029-UUCVJ-00,New Jersey,SPRINGPOINT AT CRESTWOOD,50 Lacey Road,,Whiting,08759-0000,bd1057f0e4f176720d7c7c0b77f3182f80a5e059,2025-07-20T15:03:00.489Z,6d9e6447-6b8d-4464-9564-1ff627f45107
4028,015-01325-00,Massachusetts,AMHERST (TOWN OF),586 S Pleasant St.,,Amherst,01002-0000,da4401ae474c57bc3ae2ec47d8948c6661c23003,2025-07-20T15:03:00.489Z,9abba6aa-de6c-4afd-8ddf-78a4a8b25a20
4031,025-99025-01,New York,DELAWARE (COUNTY),111 Main Street,,Delhi,13753-0000,320ff9caaacee42abd7da0f80e02b8e6ce629f65,2025-07-20T15:03:00.489Z,0a118f33-3759-4bb0-943e-cb0d26627b71
4288,063-UKYTS-00,Wisconsin,LA CROSSE COUNTY FACILITIES DEPARTMENT,400 4th Street,Rm 1370,La Crosse,54601-0000,16fef0f587da0ce48e4ec8b40ecc39f90db5ad46,2025-07-20T15:03:00.489Z,b64d2472-d8b0-4490-9c69-e482a4561625
4256,091-99091-00,Oklahoma,MCINTOSH (COUNTY),110 N First Street,,Eufaula,74432-0000,7655112d647c343bba123079ab2e3b9b499f9cc2,2025-07-20T15:03:00.489Z,65a99d40-7ecf-41db-91e0-3558d95e51f3
4250,189-03FB3-00,Missouri,CENTRAL COUNTY EMERGENCY,22 Weis Avenue,,Ellisville,63011-0000,2ff866dc018ce8ef7cc80a016470abfeb16cf964,2025-07-20T15:03:00.489Z,6cf3575a-3a63-49e2-985d-164214cfc8c2
4264,035-UB2P2-00,New Jersey,MONTGOMERY BOARD OF EDUCATION,1014 Rt 601,,Skillman,08558-0000,fcca3bbd235aa8f315a06b8d13eef0bfd3d77c20,2025-07-20T15:03:00.489Z,afb4989c-9993-4ec1-9d92-67a7389b5bb5
4264,005-0356A-00,New Jersey,EVESHAM TOWNSHIP SCHOOL SUPT,25 S. Maple Avenue,,Marlton,08053-0000,3634e56a29bc71509ffb628467fa2317e41dffac,2025-07-20T15:03:00.489Z,87c02484-d713-4070-946e-d9d5032883fd
4264,013-22385-00,New Jersey,FAIRFIELD (TOWNSHIP OF),230 Fairfield Road,,Fairfield,07004-0000,82cd75fec2baa17cf99d5f4a26f823c7553eda6e,2025-07-20T15:03:00.489Z,c5f756f5-66cc-4f68-86f9-d6138d52551b
4264,023-18970-00,New Jersey,EAST BRUNSWICK,1 Jean Walling Civic Center Drive,,East Brunswick,08816-1367,841828bc72a183b0a7f8e70cb43a8da4ef4cd90b,2025-07-20T15:03:00.489Z,065c6b7a-1de5-49f9-aa05-6f62c853cdfd
4264,041-01030-00,New Jersey,ALPHA,1001 East Boulevard,,Alpha,08865-0000,617505ebf15ccb8a749e4e1e608f8d524a5902e4,2025-07-20T15:03:00.489Z,8efff8f1-ac01-4989-923a-18dae05e1f6d
4264,000-UF7ER-00,New Jersey,NEW JERSEY OFFICE OF EMERGENCY MGMT,P.O. Box 7068,,West Trenton,08628-0068,01fed8c29ed2571ff562d4f67e27e785ae192d64,2025-07-20T15:03:00.489Z,96efeb1c-0c3e-4bec-8dfd-bff96a3f73ea
4216,237-12358-00,Kentucky,CAMPTON,698 Main Street,,Campton,41301-0000,de33fe935bab0e9c36eaca5d2ec9008234d7d423,2025-07-20T15:03:00.489Z,c0f3a662-7ae5-40b9-90eb-c572b3b89b7d
4264,007-UDWLZ-00,New Jersey,HADDON TOWNSHIP BOARD OF EDUCATION,500 Rhoads Avenue,,Westmont,08108-0000,43a1238e94584916e6e59074dc929f8625ab00cb,2025-07-20T15:03:00.489Z,3315eb35-2624-4d67-9868-5adf3ead0293
4264,029-UA07C-00,New Jersey,BERKELEY HOUSING AUTHORITY,"44 Frederick Drive, Suite A",,Bayville,08721-1788,96b3070ee778fe40a9c088cde9be698978ab6ee2,2025-07-20T15:03:00.489Z,0b0aa586-8ab8-40d9-8e15-c89a1b92c20a
4230,047-41875-00,Kansas,LOGAN (TOWNSHIP OF),730 F ROAD,,Kinsley,67547-0000,90feb9115f5e619ed76dbf4b4852acbd76b1f661,2025-07-20T15:03:00.489Z,4c22a0b6-3354-42ec-966d-f738b424d910
1539,117-U1GA0-00,Florida,"FLORIDA PHYSICIANS MEDICAL GROUP, INC. DBA TUSSCAWILLA FAMILY PRACTICE",1340 TUSCAWILLA RD,,WINTER SPRINGS,32708-0000,4d6ecf0408e7ec678e24913bb0b53d90a9dd05b1,2025-07-20T15:03:00.489Z,3660a72d-fada-42aa-9d41-e61960bd585d
1792,019-UZZIS-00,Louisiana,CALCASIEU GRAVITY DRAINAGE DIST. 6 OF WARDS 5 & 6,1275 Plum Street,,Dequincy,70633-0000,205e40933d989c0e16cc7e4329a3d346fa03d798,2025-07-20T15:03:00.489Z,e40fba58-5d95-495a-bbed-d6a362f95789
4091,047-09C63-00,Maryland,WORCESTER COUNTY AGING COMM,4767 Snow Hill Road,,Snow Hill,21863-0000,f3300a1382366a7c40f7fc00df53279c47bcbad0,2025-07-20T15:03:00.489Z,0802ed41-3cf8-42bb-a47f-b3f5f96a7a59
1650,065-61115-00,New York,REMSEN (VILLAGE OF),PINE STREET,,REMSEN,13438-0000,ed0d0f14daec8f3a7333f68e266b46a60821a132,2025-07-20T15:03:00.489Z,58960293-ef3e-4cc0-afba-4bb375cef9c7
4562,000-U5X0S-00,Oregon,OREGON DEPT. OF ADMINISTRATIVE SERVICES,155 Cottage St NE,,Salem ,97301-0000,4541353dbfa49fd236e5a58bceeb5c54c214ed4a,2025-07-20T15:03:00.489Z,23b5b563-4f7a-415e-b0f3-2047e51c6db4
4022,005-02875-00,Vermont,BARNET (TOWN OF),1743 US Route 5 South,,Barnet,05821-0000,965679a5cffb4d245bb5f1659107a3f454c52bb2,2025-07-20T15:03:00.489Z,fad16bcb-d51a-43e8-80ef-346115f77938
4026,009-79380-00,New Hampshire,WATERVILLE VALLEY (TOWN OF),14 Tac Lane,,Waterville Valley,03215-0000,49ebd6d7ae8b1710f527da6d237ca66d38f7be0e,2025-07-20T15:03:00.489Z,996072a0-c008-4609-9f87-e70b1f251f33
4021,000-U0MTJ-00,New Jersey,DELAWARE RIVER PORT AUTHORITY,2 Riverside Drive - One Port Center,,Camden,08101-1949,a09a577994f9413b45317b1aa01381e42a789075,2025-07-20T15:03:00.489Z,73c41f79-314b-4ad5-8c1d-bb6e9e5c273a
4124,127-99127-00,Arkansas,SCOTT (COUNTY),"190 West First Street, Box 1",,Waldon,72958-0000,4b4f3662cdde785f9710bd8cad7e562d72b72cd7,2025-07-20T15:03:00.489Z,228b1e30-5ecf-427d-b029-67cd00f6e4c9
